<?xml version='1.0' encoding='UTF-8'?>
<osm version="0.6" generator="osmium/1.14.0">
  <bounds minlat="-24.98769" minlon="135.03282" maxlat="-24.98601" maxlon="135.03509"/>
  <node id="29100000005" version="1" timestamp="2017-04-30T13:03:17Z" uid="112" user="SomeoneElse" changeset="101472" lat="-24.985" lon="135.175">
    <tag k="place" v="village"/>
    <tag k="name" v="Zoom in to see items rendered at each zoom level:"/>
  </node>
  <node id="29110000001" version="1" timestamp="2017-04-30T13:03:17Z" uid="112" user="SomeoneElse" changeset="101472" lat="-24.986" lon="135.171">
    <tag k="amenity" v="pub"/>
    <tag k="name" v="Generic Pub"/>
  </node>
  <node id="29110000002" version="1" timestamp="2017-04-30T13:03:17Z" uid="112" user="SomeoneElse" changeset="101472" lat="-24.986" lon="135.172">
    <tag k="amenity" v="pub"/>
    <tag k="name" v="Real Ale"/>
    <tag k="real_ale" v="An interesting selection"/>
  </node>
  <node id="29110000003" version="1" timestamp="2017-04-30T13:03:17Z" uid="112" user="SomeoneElse" changeset="101472" lat="-24.986" lon="135.173">
    <tag k="amenity" v="pub"/>
    <tag k="name" v="No Real Ale"/>
    <tag k="real_ale" v="no"/>
  </node>
  <node id="29110000004" version="1" timestamp="2017-04-30T13:03:17Z" uid="112" user="SomeoneElse" changeset="101472" lat="-24.986" lon="135.174">
    <tag k="amenity" v="pub"/>
    <tag k="name" v="Food"/>
    <tag k="food" v="Some sort of description"/>
  </node>
  <node id="29110000005" version="1" timestamp="2017-04-30T13:03:17Z" uid="112" user="SomeoneElse" changeset="101472" lat="-24.986" lon="135.175">
    <tag k="amenity" v="pub"/>
    <tag k="name" v="Non-carpeted area"/>
    <tag k="description:floor" v="Tiles or Stone"/>
  </node>
  <node id="29110000006" version="1" timestamp="2017-04-30T13:03:17Z" uid="112" user="SomeoneElse" changeset="101472" lat="-24.986" lon="135.176">
    <tag k="amenity" v="pub"/>
    <tag k="name" v="with Microbrewery"/>
    <tag k="microbrewery" v="yes"/>
  </node>
  <node id="29110000007" version="1" timestamp="2017-04-30T13:03:17Z" uid="112" user="SomeoneElse" changeset="101472" lat="-24.986" lon="135.177">
    <tag k="amenity" v="pub"/>
    <tag k="name" v="Micropub"/>
    <tag k="micropub" v="yes"/>
  </node>
  <node id="29110000008" version="1" timestamp="2017-04-30T13:03:17Z" uid="112" user="SomeoneElse" changeset="101472" lat="-24.986" lon="135.178">
    <tag k="amenity" v="pub"/>
    <tag k="name" v="Accommodation"/>
    <tag k="accommodation" v="yes"/>
  </node>
  <node id="29110000009" version="1" timestamp="2017-04-30T13:03:17Z" uid="112" user="SomeoneElse" changeset="101472" lat="-24.986" lon="135.179">
    <tag k="amenity" v="pub"/>
    <tag k="name" v="Wheelchair accessible"/>
    <tag k="wheelchair" v="yes"/>
  </node>
  <node id="29110000010" version="1" timestamp="2017-04-30T13:03:17Z" uid="112" user="SomeoneElse" changeset="101472" lat="-24.986" lon="135.18">
    <tag k="amenity" v="pub"/>
    <tag k="name" v="Limited wheelchair access"/>
    <tag k="wheelchair" v="limited"/>
  </node>
  <node id="29110000011" version="1" timestamp="2017-04-30T13:03:17Z" uid="112" user="SomeoneElse" changeset="101472" lat="-24.986" lon="135.181">
    <tag k="amenity" v="pub"/>
    <tag k="name" v="No wheelchair access"/>
    <tag k="wheelchair" v="no"/>
  </node>
  <node id="29110000012" version="1" timestamp="2017-04-30T13:03:17Z" uid="112" user="SomeoneElse" changeset="101472" lat="-24.986" lon="135.182">
    <tag k="amenity" v="pub"/>
    <tag k="name" v="Beer Garden"/>
    <tag k="beer_garden" v="yes"/>
  </node>
  <node id="29110000013" version="1" timestamp="2017-04-30T13:03:17Z" uid="112" user="SomeoneElse" changeset="101472" lat="-24.986" lon="135.183">
    <tag k="amenity" v="pub"/>
    <tag k="name" v="Outdoor Seating"/>
    <tag k="outdoor_seating" v="yes"/>
  </node>
  <node id="29110000014" version="1" timestamp="2017-04-30T13:03:17Z" uid="112" user="SomeoneElse" changeset="101472" lat="-24.986" lon="135.184">
    <tag k="amenity" v="pub"/>
    <tag k="name" v="Combination"/>
    <tag k="real_ale" v="An interesting selection"/>
    <tag k="food" v="Some sort of description"/>
    <tag k="microbrewery" v="yes"/>
    <tag k="floor:material" v="tiles"/>
    <tag k="wheelchair" v="yes"/>
  </node>
  <node id="29110000015" version="1" timestamp="2017-04-30T13:03:17Z" uid="112" user="SomeoneElse" changeset="101472" lat="-24.986" lon="135.185">
    <tag k="disused:amenity" v="pub"/>
    <tag k="name" v="Shut"/>
  </node>
  <node id="29110000016" version="1" timestamp="2017-04-30T13:03:17Z" uid="112" user="SomeoneElse" changeset="101472" lat="-24.986" lon="135.186">
    <tag k="amenity" v="pub"/>
    <tag k="name" v="... due to Covid 19"/>
    <tag k="opening_hours:covid19" v="off"/>
  </node>
  <node id="29111000001" version="1" timestamp="2017-04-30T13:03:17Z" uid="112" user="SomeoneElse" changeset="101472" lat="-24.9858" lon="135.171">
    <tag k="place" v="legend_text"/>
    <tag k="name" v="Pubs"/>
  </node>
  <node id="29120000001" version="1" timestamp="2017-04-30T13:03:17Z" uid="112" user="SomeoneElse" changeset="101472" lat="-24.987" lon="135.171">
    <tag k="amenity" v="fast_food"/>
    <tag k="name" v="Generic Fast Food"/>
  </node>
  <node id="29120000002" version="1" timestamp="2017-04-30T13:03:17Z" uid="112" user="SomeoneElse" changeset="101472" lat="-24.987" lon="135.172">
    <tag k="amenity" v="fast_food"/>
    <tag k="name" v="American, Burger"/>
    <tag k="cuisine" v="burger"/>
  </node>
  <node id="29120000003" version="1" timestamp="2017-04-30T13:03:17Z" uid="112" user="SomeoneElse" changeset="101472" lat="-24.987" lon="135.173">
    <tag k="amenity" v="fast_food"/>
    <tag k="name" v="Chicken"/>
    <tag k="cuisine" v="chicken"/>
  </node>
  <node id="29120000004" version="1" timestamp="2017-04-30T13:03:17Z" uid="112" user="SomeoneElse" changeset="101472" lat="-24.987" lon="135.174">
    <tag k="amenity" v="fast_food"/>
    <tag k="name" v="Chinese, Japanese, etc."/>
    <tag k="cuisine" v="chinese"/>
  </node>
  <node id="29120000005" version="1" timestamp="2017-04-30T13:03:17Z" uid="112" user="SomeoneElse" changeset="101472" lat="-24.987" lon="135.175">
    <tag k="amenity" v="fast_food"/>
    <tag k="name" v="Coffee"/>
    <tag k="cuisine" v="coffee"/>
  </node>
  <node id="29120000006" version="1" timestamp="2017-04-30T13:03:17Z" uid="112" user="SomeoneElse" changeset="101472" lat="-24.987" lon="135.176">
    <tag k="amenity" v="fast_food"/>
    <tag k="name" v="Fish and Chips"/>
    <tag k="cuisine" v="fish_and_chips"/>
  </node>
  <node id="29120000007" version="1" timestamp="2017-04-30T13:03:17Z" uid="112" user="SomeoneElse" changeset="101472" lat="-24.987" lon="135.177">
    <tag k="amenity" v="fast_food"/>
    <tag k="name" v="Ice Cream"/>
    <tag k="cuisine" v="ice_cream"/>
  </node>
  <node id="29120000008" version="1" timestamp="2017-04-30T13:03:17Z" uid="112" user="SomeoneElse" changeset="101472" lat="-24.987" lon="135.178">
    <tag k="amenity" v="fast_food"/>
    <tag k="name" v="Indian"/>
    <tag k="cuisine" v="indian"/>
  </node>
  <node id="29120000009" version="1" timestamp="2017-04-30T13:03:17Z" uid="112" user="SomeoneElse" changeset="101472" lat="-24.987" lon="135.179">
    <tag k="amenity" v="fast_food"/>
    <tag k="name" v="Kebab, Turkish"/>
    <tag k="cuisine" v="kebab"/>
  </node>
  <node id="29120000010" version="1" timestamp="2017-04-30T13:03:17Z" uid="112" user="SomeoneElse" changeset="101472" lat="-24.987" lon="135.18">
    <tag k="amenity" v="fast_food"/>
    <tag k="name" v="Pies, Pasties"/>
    <tag k="cuisine" v="pie"/>
  </node>
  <node id="29120000011" version="1" timestamp="2017-04-30T13:03:17Z" uid="112" user="SomeoneElse" changeset="101472" lat="-24.987" lon="135.181">
    <tag k="amenity" v="fast_food"/>
    <tag k="name" v="Pizza, Italian"/>
    <tag k="cuisine" v="pizza"/>
  </node>
  <node id="29120000012" version="1" timestamp="2017-04-30T13:03:17Z" uid="112" user="SomeoneElse" changeset="101472" lat="-24.987" lon="135.182">
    <tag k="amenity" v="fast_food"/>
    <tag k="name" v="Sandwich"/>
    <tag k="cuisine" v="sandwich"/>
  </node>
  <node id="29120000013" version="1" timestamp="2017-04-30T13:03:17Z" uid="112" user="SomeoneElse" changeset="101472" lat="-24.987" lon="135.183">
    <tag k="amenity" v="fast_food"/>
    <tag k="name" v="British"/>
    <tag k="cuisine" v="british"/>
  </node>
  <node id="29120000014" version="1" timestamp="2017-04-30T13:03:17Z" uid="112" user="SomeoneElse" changeset="101472" lat="-24.987" lon="135.184">
    <tag k="amenity" v="fast_food"/>
    <tag k="name" v="Regional"/>
    <tag k="cuisine" v="regional"/>
  </node>
  <node id="29120000015" version="1" timestamp="2017-04-30T13:03:17Z" uid="112" user="SomeoneElse" changeset="101472" lat="-24.987" lon="135.185">
    <tag k="amenity" v="fast_food"/>
    <tag k="name" v="Mexican"/>
    <tag k="cuisine" v="mexican"/>
  </node>
  <node id="29120000016" version="1" timestamp="2017-04-30T13:03:17Z" uid="112" user="SomeoneElse" changeset="101472" lat="-24.987" lon="135.186">
    <tag k="amenity" v="fast_food"/>
    <tag k="name" v="Greek"/>
    <tag k="cuisine" v="greek"/>
  </node>
  <node id="29120000017" version="1" timestamp="2017-04-30T13:03:17Z" uid="112" user="SomeoneElse" changeset="101472" lat="-24.987" lon="135.187">
    <tag k="amenity" v="fast_food"/>
    <tag k="name" v="French"/>
    <tag k="cuisine" v="french"/>
  </node>
  <node id="29120000018" version="1" timestamp="2017-04-30T13:03:17Z" uid="112" user="SomeoneElse" changeset="101472" lat="-24.987" lon="135.188">
    <tag k="amenity" v="fast_food"/>
    <tag k="name" v="Seafood rather than fish or fish and chips"/>
    <tag k="cuisine" v="seafood"/>
  </node>
  <node id="29120000019" version="1" timestamp="2017-04-30T13:03:17Z" uid="112" user="SomeoneElse" changeset="101472" lat="-24.987" lon="135.189">
    <tag k="amenity" v="fast_food"/>
    <tag k="name" v="Caribbean or similar"/>
    <tag k="cuisine" v="caribbean"/>
  </node>
  <node id="29120000020" version="1" timestamp="2017-04-30T13:03:17Z" uid="112" user="SomeoneElse" changeset="101472" lat="-24.987" lon="135.19">
    <tag k="amenity" v="fast_food"/>
    <tag k="name" v="Lebanese or similar"/>
    <tag k="cuisine" v="lebanese"/>
  </node>
  <node id="29120000021" version="1" timestamp="2017-04-30T13:03:17Z" uid="112" user="SomeoneElse" changeset="101472" lat="-24.987" lon="135.191">
    <tag k="amenity" v="fast_food"/>
    <tag k="name" v="Desserts"/>
    <tag k="cuisine" v="dessert"/>
  </node>
  <node id="29121000001" version="1" timestamp="2017-04-30T13:03:17Z" uid="112" user="SomeoneElse" changeset="101472" lat="-24.9868" lon="135.171">
    <tag k="place" v="legend_text"/>
    <tag k="name" v="Fast Food"/>
  </node>
  <node id="29130000001" version="1" timestamp="2017-04-30T13:03:17Z" uid="112" user="SomeoneElse" changeset="101472" lat="-24.988" lon="135.171">
    <tag k="amenity" v="restaurant"/>
    <tag k="name" v="Restaurant"/>
  </node>
  <node id="29130000002" version="1" timestamp="2017-04-30T13:03:17Z" uid="112" user="SomeoneElse" changeset="101472" lat="-24.988" lon="135.172">
    <tag k="amenity" v="restaccomm"/>
    <tag k="name" v="with rooms"/>
  </node>
  <node id="29130000003" version="1" timestamp="2017-04-30T13:03:17Z" uid="112" user="SomeoneElse" changeset="101472" lat="-24.988" lon="135.173">
    <tag k="amenity" v="restaurant"/>
    <tag k="cuisine" v="indian"/>
    <tag k="name" v="Indian"/>
  </node>
  <node id="29130000004" version="1" timestamp="2017-04-30T13:03:17Z" uid="112" user="SomeoneElse" changeset="101472" lat="-24.988" lon="135.174">
    <tag k="amenity" v="restaurant"/>
    <tag k="cuisine" v="chinese"/>
    <tag k="name" v="Chinese"/>
  </node>
  <node id="29130000005" version="1" timestamp="2017-04-30T13:03:17Z" uid="112" user="SomeoneElse" changeset="101472" lat="-24.988" lon="135.175">
    <tag k="amenity" v="restaurant"/>
    <tag k="cuisine" v="italian"/>
    <tag k="name" v="Italian"/>
  </node>
  <node id="29130000006" version="1" timestamp="2017-04-30T13:03:17Z" uid="112" user="SomeoneElse" changeset="101472" lat="-24.988" lon="135.176">
    <tag k="amenity" v="restaurant"/>
    <tag k="cuisine" v="fish_and_chips"/>
    <tag k="name" v="Fish and Chips"/>
  </node>
  <node id="29130000007" version="1" timestamp="2017-04-30T13:03:17Z" uid="112" user="SomeoneElse" changeset="101472" lat="-24.988" lon="135.177">
    <tag k="amenity" v="restaurant"/>
    <tag k="cuisine" v="burger"/>
    <tag k="name" v="Burger"/>
  </node>
  <node id="29130000008" version="1" timestamp="2017-04-30T13:03:17Z" uid="112" user="SomeoneElse" changeset="101472" lat="-24.988" lon="135.178">
    <tag k="amenity" v="restaurant"/>
    <tag k="cuisine" v="coffee"/>
    <tag k="name" v="Coffee"/>
  </node>
  <node id="29130000009" version="1" timestamp="2017-04-30T13:03:17Z" uid="112" user="SomeoneElse" changeset="101472" lat="-24.988" lon="135.179">
    <tag k="amenity" v="restaurant"/>
    <tag k="cuisine" v="sandwich"/>
    <tag k="name" v="Sandwich"/>
  </node>
  <node id="29130000010" version="1" timestamp="2017-04-30T13:03:17Z" uid="112" user="SomeoneElse" changeset="101472" lat="-24.988" lon="135.18">
    <tag k="amenity" v="restaurant"/>
    <tag k="cuisine" v="chicken"/>
    <tag k="name" v="Chicken"/>
  </node>
  <node id="29130000011" version="1" timestamp="2017-04-30T13:03:17Z" uid="112" user="SomeoneElse" changeset="101472" lat="-24.988" lon="135.181">
    <tag k="amenity" v="restaurant"/>
    <tag k="cuisine" v="kebab"/>
    <tag k="name" v="Kebab"/>
  </node>
  <node id="29130000012" version="1" timestamp="2017-04-30T13:03:17Z" uid="112" user="SomeoneElse" changeset="101472" lat="-24.988" lon="135.182">
    <tag k="amenity" v="restaurant"/>
    <tag k="cuisine" v="british"/>
    <tag k="name" v="British"/>
  </node>
  <node id="29130000013" version="1" timestamp="2017-04-30T13:03:17Z" uid="112" user="SomeoneElse" changeset="101472" lat="-24.988" lon="135.183">
    <tag k="amenity" v="restaurant"/>
    <tag k="cuisine" v="regional"/>
    <tag k="name" v="Regional"/>
  </node>
  <node id="29130000014" version="1" timestamp="2017-04-30T13:03:17Z" uid="112" user="SomeoneElse" changeset="101472" lat="-24.988" lon="135.184">
    <tag k="amenity" v="restaurant"/>
    <tag k="cuisine" v="mexican"/>
    <tag k="name" v="Mexican"/>
  </node>
  <node id="29130000015" version="1" timestamp="2017-04-30T13:03:17Z" uid="112" user="SomeoneElse" changeset="101472" lat="-24.988" lon="135.185">
    <tag k="amenity" v="restaurant"/>
    <tag k="cuisine" v="greek"/>
    <tag k="name" v="Greek"/>
  </node>
  <node id="29130000016" version="1" timestamp="2017-04-30T13:03:17Z" uid="112" user="SomeoneElse" changeset="101472" lat="-24.988" lon="135.186">
    <tag k="amenity" v="restaurant"/>
    <tag k="cuisine" v="french"/>
    <tag k="name" v="French"/>
  </node>
  <node id="29130000017" version="1" timestamp="2017-04-30T13:03:17Z" uid="112" user="SomeoneElse" changeset="101472" lat="-24.988" lon="135.187">
    <tag k="amenity" v="restaurant"/>
    <tag k="cuisine" v="seafood"/>
    <tag k="name" v="Seafood rather than fish or fish and chips"/>
  </node>
  <node id="29130000018" version="1" timestamp="2017-04-30T13:03:17Z" uid="112" user="SomeoneElse" changeset="101472" lat="-24.988" lon="135.188">
    <tag k="amenity" v="restaurant"/>
    <tag k="cuisine" v="ice_cream"/>
    <tag k="name" v="Ice Cream restaurant"/>
  </node>
  <node id="29130000019" version="1" timestamp="2017-04-30T13:03:17Z" uid="112" user="SomeoneElse" changeset="101472" lat="-24.988" lon="135.189">
    <tag k="amenity" v="restaurant"/>
    <tag k="cuisine" v="caribbean"/>
    <tag k="name" v="Caribbean or similar"/>
  </node>
  <node id="29130000020" version="1" timestamp="2017-04-30T13:03:17Z" uid="112" user="SomeoneElse" changeset="101472" lat="-24.988" lon="135.19">
    <tag k="amenity" v="restaurant"/>
    <tag k="cuisine" v="lebanese"/>
    <tag k="name" v="Lebanese or similar"/>
  </node>
  <node id="29130000021" version="1" timestamp="2017-04-30T13:03:17Z" uid="112" user="SomeoneElse" changeset="101472" lat="-24.988" lon="135.191">
    <tag k="amenity" v="restaurant"/>
    <tag k="cuisine" v="dessert"/>
    <tag k="name" v="Desserts"/>
  </node>
  <node id="29131000001" version="1" timestamp="2017-04-30T13:03:17Z" uid="112" user="SomeoneElse" changeset="101472" lat="-24.9878" lon="135.171">
    <tag k="place" v="legend_text"/>
    <tag k="name" v="Restaurants"/>
  </node>
  <node id="29140000001" version="1" timestamp="2017-04-30T13:03:17Z" uid="112" user="SomeoneElse" changeset="101472" lat="-24.989" lon="135.171">
    <tag k="amenity" v="bar"/>
    <tag k="name" v="Bar"/>
  </node>
  <node id="29140000002" version="1" timestamp="2017-04-30T13:03:17Z" uid="112" user="SomeoneElse" changeset="101472" lat="-24.989" lon="135.172">
    <tag k="amenity" v="bar"/>
    <tag k="accommodation" v="yes"/>
    <tag k="name" v="Bar with rooms"/>
  </node>
  <node id="29140000003" version="1" timestamp="2017-04-30T13:03:17Z" uid="112" user="SomeoneElse" changeset="101472" lat="-24.989" lon="135.173">
    <tag k="amenity" v="bar"/>
    <tag k="wheelchair" v="yes"/>
    <tag k="name" v="with wheelchair access"/>
  </node>
  <node id="29140000004" version="1" timestamp="2017-04-30T13:03:17Z" uid="112" user="SomeoneElse" changeset="101472" lat="-24.989" lon="135.174">
    <tag k="amenity" v="bar"/>
    <tag k="outdoor_seating" v="yes"/>
    <tag k="name" v="with outdoor seating"/>
  </node>
  <node id="29140000005" version="1" timestamp="2017-04-30T13:03:17Z" uid="112" user="SomeoneElse" changeset="101472" lat="-24.989" lon="135.175">
    <tag k="amenity" v="nightclub"/>
    <tag k="name" v="Nightclub"/>
  </node>
  <node id="29140000006" version="1" timestamp="2017-04-30T13:03:17Z" uid="112" user="SomeoneElse" changeset="101472" lat="-24.989" lon="135.176">
    <tag k="amenity" v="social_club"/>
    <tag k="name" v="Social Club"/>
  </node>
  <node id="29140000007" version="1" timestamp="2017-04-30T13:03:17Z" uid="112" user="SomeoneElse" changeset="101472" lat="-24.989" lon="135.177">
    <tag k="amenity" v="cafe"/>
    <tag k="name" v="Cafe"/>
  </node>
  <node id="29140000008" version="1" timestamp="2017-04-30T13:03:17Z" uid="112" user="SomeoneElse" changeset="101472" lat="-24.989" lon="135.178">
    <tag k="amenity" v="cafe"/>
    <tag k="accommodation" v="yes"/>
    <tag k="name" v="Cafe with rooms"/>
  </node>
  <node id="29140000009" version="1" timestamp="2017-04-30T13:03:17Z" uid="112" user="SomeoneElse" changeset="101472" lat="-24.989" lon="135.179">
    <tag k="amenity" v="cafe"/>
    <tag k="wheelchair" v="yes"/>
    <tag k="name" v="with wheelchair access"/>
  </node>
  <node id="29140000010" version="1" timestamp="2017-04-30T13:03:17Z" uid="112" user="SomeoneElse" changeset="101472" lat="-24.989" lon="135.18">
    <tag k="amenity" v="cafe"/>
    <tag k="outdoor_seating" v="yes"/>
    <tag k="name" v="with outdoor seating"/>
  </node>
  <node id="29140000011" version="1" timestamp="2017-04-30T13:03:17Z" uid="112" user="SomeoneElse" changeset="101472" lat="-24.989" lon="135.181">
    <tag k="amenity" v="biergarten"/>
    <tag k="name" v="Biergarten"/>
  </node>
  <node id="29141000001" version="1" timestamp="2017-04-30T13:03:17Z" uid="112" user="SomeoneElse" changeset="101472" lat="-24.9888" lon="135.171">
    <tag k="place" v="legend_text"/>
    <tag k="name" v="Other Eating and Drinking"/>
  </node>
  <node id="29150000001" version="1" timestamp="2017-04-30T13:03:17Z" uid="112" user="SomeoneElse" changeset="101472" lat="-24.99" lon="135.171">
    <tag k="shop" v="convenience"/>
    <tag k="name" v="Convenience, Kiosk, Newsagent, Food"/>
  </node>
  <node id="29150000002" version="1" timestamp="2017-04-30T13:03:17Z" uid="112" user="SomeoneElse" changeset="101472" lat="-24.99" lon="135.172">
    <tag k="shop" v="zero_waste"/>
    <tag k="name" v="Zero Waste / Refill Shop"/>
  </node>
  <node id="29150000003" version="1" timestamp="2017-04-30T13:03:17Z" uid="112" user="SomeoneElse" changeset="101472" lat="-24.99" lon="135.173">
    <tag k="shop" v="supermarket"/>
    <tag k="name" v="Supermarket"/>
  </node>
  <node id="29150000004" version="1" timestamp="2017-04-30T13:03:17Z" uid="112" user="SomeoneElse" changeset="101472" lat="-24.99" lon="135.174">
    <tag k="shop" v="supermarket"/>
    <tag k="zero_waste" v="only"/>
    <tag k="name" v="Zero Waste Supermarket"/>
  </node>
  <node id="29150000005" version="1" timestamp="2017-04-30T13:03:17Z" uid="112" user="SomeoneElse" changeset="101472" lat="-24.99" lon="135.175">
    <tag k="shop" v="health_food"/>
    <tag k="name" v="Health Food"/>
  </node>
  <node id="29150000006" version="1" timestamp="2017-04-30T13:03:17Z" uid="112" user="SomeoneElse" changeset="101472" lat="-24.99" lon="135.176">
    <tag k="shop" v="health_food"/>
    <tag k="zero_waste" v="only"/>
    <tag k="name" v="Zero Waste Health Food"/>
  </node>
  <node id="29150000007" version="1" timestamp="2017-04-30T13:03:17Z" uid="112" user="SomeoneElse" changeset="101472" lat="-24.99" lon="135.177">
    <tag k="shop" v="bakery"/>
    <tag k="name" v="Bakery"/>
  </node>
  <node id="29150000008" version="1" timestamp="2017-04-30T13:03:17Z" uid="112" user="SomeoneElse" changeset="101472" lat="-24.99" lon="135.178">
    <tag k="shop" v="butcher"/>
    <tag k="name" v="Butcher"/>
  </node>
  <node id="29150000009" version="1" timestamp="2017-04-30T13:03:17Z" uid="112" user="SomeoneElse" changeset="101472" lat="-24.99" lon="135.179">
    <tag k="shop" v="fish"/>
    <tag k="name" v="Fish"/>
  </node>
  <node id="29150000010" version="1" timestamp="2017-04-30T13:03:17Z" uid="112" user="SomeoneElse" changeset="101472" lat="-24.99" lon="135.18">
    <tag k="shop" v="greengrocer"/>
    <tag k="name" v="Greengrocer"/>
  </node>
  <node id="29150000011" version="1" timestamp="2017-04-30T13:03:17Z" uid="112" user="SomeoneElse" changeset="101472" lat="-24.99" lon="135.181">
    <tag k="shop" v="greengrocer"/>
    <tag k="zero_waste" v="only"/>
    <tag k="name" v="Zero Waste Greengrocer"/>
  </node>
  <node id="29150000012" version="1" timestamp="2017-04-30T13:03:17Z" uid="112" user="SomeoneElse" changeset="101472" lat="-24.99" lon="135.182">
    <tag k="shop" v="farm"/>
    <tag k="name" v="Farm Shop"/>
  </node>
  <node id="29150000013" version="1" timestamp="2017-04-30T13:03:17Z" uid="112" user="SomeoneElse" changeset="101472" lat="-24.99" lon="135.183">
    <tag k="shop" v="deli"/>
    <tag k="name" v="Deli"/>
  </node>
  <node id="29150000014" version="1" timestamp="2017-04-30T13:03:17Z" uid="112" user="SomeoneElse" changeset="101472" lat="-24.99" lon="135.184">
    <tag k="shop" v="alcohol"/>
    <tag k="name" v="Alcohol"/>
  </node>
  <node id="29150000015" version="1" timestamp="2017-04-30T13:03:17Z" uid="112" user="SomeoneElse" changeset="101472" lat="-24.99" lon="135.185">
    <tag k="shop" v="coffee"/>
    <tag k="name" v="Coffee, Tea, etc."/>
  </node>
  <node id="29150000016" version="1" timestamp="2017-04-30T13:03:17Z" uid="112" user="SomeoneElse" changeset="101472" lat="-24.99" lon="135.186">
    <tag k="shop" v="confectionery"/>
    <tag k="name" v="Confectionery"/>
  </node>
  <node id="29150000017" version="1" timestamp="2017-04-30T13:03:17Z" uid="112" user="SomeoneElse" changeset="101472" lat="-24.99" lon="135.187">
    <tag k="shop" v="variety_store"/>
    <tag k="name" v="Variety, Discount"/>
  </node>
  <node id="29151000001" version="1" timestamp="2017-04-30T13:03:17Z" uid="112" user="SomeoneElse" changeset="101472" lat="-24.9898" lon="135.171">
    <tag k="place" v="legend_text"/>
    <tag k="name" v="Food Shops"/>
  </node>
  <node id="29160000001" version="1" timestamp="2017-04-30T13:03:17Z" uid="112" user="SomeoneElse" changeset="101472" lat="-24.991" lon="135.171">
    <tag k="shop" v="yes"/>
    <tag k="name" v="Generic Shop"/>
  </node>
  <node id="29160000002" version="1" timestamp="2017-04-30T13:03:17Z" uid="112" user="SomeoneElse" changeset="101472" lat="-24.991" lon="135.172">
    <tag k="shop" v="catalogue"/>
    <tag k="name" v="Catalogue"/>
  </node>
  <node id="29160000003" version="1" timestamp="2017-04-30T13:03:17Z" uid="112" user="SomeoneElse" changeset="101472" lat="-24.991" lon="135.173">
    <tag k="shop" v="clothes"/>
    <tag k="name" v="Clothes, Boutique, Tailor, Fashion, Baby Goods"/>
  </node>
  <node id="29160000004" version="1" timestamp="2017-04-30T13:03:17Z" uid="112" user="SomeoneElse" changeset="101472" lat="-24.991" lon="135.174">
    <tag k="shop" v="shoes"/>
    <tag k="name" v="Shoes"/>
  </node>
  <node id="29160000005" version="1" timestamp="2017-04-30T13:03:17Z" uid="112" user="SomeoneElse" changeset="101472" lat="-24.991" lon="135.175">
    <tag k="shop" v="gift"/>
    <tag k="name" v="Gift"/>
  </node>
  <node id="29160000006" version="1" timestamp="2017-04-30T13:03:17Z" uid="112" user="SomeoneElse" changeset="101472" lat="-24.991" lon="135.176">
    <tag k="shop" v="toys"/>
    <tag k="name" v="Toys"/>
  </node>
  <node id="29160000007" version="1" timestamp="2017-04-30T13:03:17Z" uid="112" user="SomeoneElse" changeset="101472" lat="-24.991" lon="135.177">
    <tag k="shop" v="furniture"/>
    <tag k="name" v="Furniture"/>
  </node>
  <node id="29160000008" version="1" timestamp="2017-04-30T13:03:17Z" uid="112" user="SomeoneElse" changeset="101472" lat="-24.991" lon="135.178">
    <tag k="shop" v="homeware"/>
    <tag k="name" v="Homeware"/>
  </node>
  <node id="29160000009" version="1" timestamp="2017-04-30T13:03:17Z" uid="112" user="SomeoneElse" changeset="101472" lat="-24.991" lon="135.179">
    <tag k="shop" v="florist"/>
    <tag k="name" v="Florist"/>
  </node>
  <node id="29160000010" version="1" timestamp="2017-04-30T13:03:17Z" uid="112" user="SomeoneElse" changeset="101472" lat="-24.991" lon="135.18">
    <tag k="shop" v="doityourself"/>
    <tag k="name" v="Do-It-Yourself, Hardware"/>
  </node>
  <node id="29160000011" version="1" timestamp="2017-04-30T13:03:17Z" uid="112" user="SomeoneElse" changeset="101472" lat="-24.991" lon="135.181">
    <tag k="shop" v="locksmith"/>
    <tag k="name" v="Locksmith"/>
  </node>
  <node id="29160000012" version="1" timestamp="2017-04-30T13:03:17Z" uid="112" user="SomeoneElse" changeset="101472" lat="-24.991" lon="135.182">
    <tag k="shop" v="shoe_repair_etc"/>
    <tag k="name" v="Shoe Repair etc."/>
  </node>
  <node id="29160000013" version="1" timestamp="2017-04-30T13:03:17Z" uid="112" user="SomeoneElse" changeset="101472" lat="-24.991" lon="135.183">
    <tag k="shop" v="storage_rental"/>
    <tag k="name" v="Storage Rental"/>
  </node>
  <node id="29160000014" version="1" timestamp="2017-04-30T13:03:17Z" uid="112" user="SomeoneElse" changeset="101472" lat="-24.991" lon="135.184">
    <tag k="shop" v="electrical"/>
    <tag k="name" v="Electrical"/>
  </node>
  <node id="29160000015" version="1" timestamp="2017-04-30T13:03:17Z" uid="112" user="SomeoneElse" changeset="101472" lat="-24.991" lon="135.185">
    <tag k="shop" v="electronics"/>
    <tag k="name" v="Electronics"/>
  </node>
  <node id="29160000016" version="1" timestamp="2017-04-30T13:03:17Z" uid="112" user="SomeoneElse" changeset="101472" lat="-24.991" lon="135.186">
    <tag k="shop" v="mobile_phone"/>
    <tag k="name" v="Mobile Phone"/>
  </node>
  <node id="29160000017" version="1" timestamp="2017-04-30T13:03:17Z" uid="112" user="SomeoneElse" changeset="101472" lat="-24.991" lon="135.187">
    <tag k="shop" v="computer"/>
    <tag k="name" v="Computer"/>
  </node>
  <node id="29160000018" version="1" timestamp="2017-04-30T13:03:17Z" uid="112" user="SomeoneElse" changeset="101472" lat="-24.991" lon="135.188">
    <tag k="shop" v="bicycle"/>
    <tag k="name" v="Bike Shop"/>
  </node>
  <node id="29160000019" version="1" timestamp="2017-04-30T13:03:17Z" uid="112" user="SomeoneElse" changeset="101472" lat="-24.991" lon="135.189">
    <tag k="shop" v="jewellery"/>
    <tag k="name" v="Jewellery, Watches"/>
  </node>
  <node id="29160000020" version="1" timestamp="2017-04-30T13:03:17Z" uid="112" user="SomeoneElse" changeset="101472" lat="-24.991" lon="135.19">
    <tag k="shop" v="department_store"/>
    <tag k="name" v="Department Store"/>
  </node>
  <node id="29160000021" version="1" timestamp="2017-04-30T13:03:17Z" uid="112" user="SomeoneElse" changeset="101472" lat="-24.991" lon="135.191">
    <tag k="shop" v="sports"/>
    <tag k="name" v="Sports, Fishing, Scuba Diving"/>
  </node>
  <node id="29160000022" version="1" timestamp="2017-04-30T13:03:17Z" uid="112" user="SomeoneElse" changeset="101472" lat="-24.991" lon="135.192">
    <tag k="shop" v="garden_centre"/>
    <tag k="name" v="Garden Centre"/>
  </node>
  <node id="29160000023" version="1" timestamp="2017-04-30T13:03:17Z" uid="112" user="SomeoneElse" changeset="101472" lat="-24.991" lon="135.193">
    <tag k="shop" v="outdoor"/>
    <tag k="name" v="Outdoor"/>
  </node>
  <node id="29160000024" version="1" timestamp="2017-04-30T13:03:17Z" uid="112" user="SomeoneElse" changeset="101472" lat="-24.991" lon="135.194">
    <tag k="shop" v="art"/>
    <tag k="name" v="Art"/>
  </node>
  <node id="29160000025" version="1" timestamp="2017-04-30T13:03:17Z" uid="112" user="SomeoneElse" changeset="101472" lat="-24.991" lon="135.195">
    <tag k="shop" v="photo"/>
    <tag k="name" v="Photo"/>
  </node>
  <node id="29160000026" version="1" timestamp="2017-04-30T13:03:17Z" uid="112" user="SomeoneElse" changeset="101472" lat="-24.991" lon="135.196">
    <tag k="shop" v="charity"/>
    <tag k="name" v="Charity"/>
  </node>
  <node id="29160000027" version="1" timestamp="2017-04-30T13:03:17Z" uid="112" user="SomeoneElse" changeset="101472" lat="-24.991" lon="135.197">
    <tag k="shop" v="antiques"/>
    <tag k="name" v="Antiques"/>
  </node>
  <node id="29160000028" version="1" timestamp="2017-04-30T13:03:17Z" uid="112" user="SomeoneElse" changeset="101472" lat="-24.991" lon="135.198">
    <tag k="shop" v="e-cigarette"/>
    <tag k="name" v="E-Cigarette"/>
  </node>
  <node id="29160000029" version="1" timestamp="2017-04-30T13:03:17Z" uid="112" user="SomeoneElse" changeset="101472" lat="-24.991" lon="135.199">
    <tag k="shop" v="pet"/>
    <tag k="name" v="Pet"/>
  </node>
  <node id="29160000030" version="1" timestamp="2017-04-30T13:03:17Z" uid="112" user="SomeoneElse" changeset="101472" lat="-24.991" lon="135.2">
    <tag k="shop" v="pet_food"/>
    <tag k="name" v="Pet Food"/>
  </node>
  <node id="29160000031" version="1" timestamp="2017-04-30T13:03:17Z" uid="112" user="SomeoneElse" changeset="101472" lat="-24.991" lon="135.201">
    <tag k="shop" v="books"/>
    <tag k="name" v="Books"/>
  </node>
  <node id="29160000032" version="1" timestamp="2017-04-30T13:03:17Z" uid="112" user="SomeoneElse" changeset="101472" lat="-24.991" lon="135.202">
    <tag k="shop" v="stationery"/>
    <tag k="name" v="Stationery"/>
  </node>
  <node id="29160000033" version="1" timestamp="2017-04-30T13:03:17Z" uid="112" user="SomeoneElse" changeset="101472" lat="-24.991" lon="135.203">
    <tag k="shop" v="music"/>
    <tag k="name" v="Music"/>
  </node>
  <node id="29160000034" version="1" timestamp="2017-04-30T13:03:17Z" uid="112" user="SomeoneElse" changeset="101472" lat="-24.991" lon="135.204">
    <tag k="shop" v="musical_instrument"/>
    <tag k="name" v="Musical Instrument"/>
  </node>
  <node id="29160000035" version="1" timestamp="2017-04-30T13:03:17Z" uid="112" user="SomeoneElse" changeset="101472" lat="-24.991" lon="135.205">
    <tag k="shop" v="motorcycle"/>
    <tag k="name" v="Motorcycle"/>
  </node>
  <node id="29161000001" version="1" timestamp="2017-04-30T13:03:17Z" uid="112" user="SomeoneElse" changeset="101472" lat="-24.9908" lon="135.171">
    <tag k="place" v="legend_text"/>
    <tag k="name" v="Other Shops"/>
  </node>
  <node id="29170000001" version="1" timestamp="2017-04-30T13:03:17Z" uid="112" user="SomeoneElse" changeset="101472" lat="-24.992" lon="135.171">
    <tag k="shop" v="hairdresser"/>
    <tag k="name" v="Hairdresser"/>
  </node>
  <node id="29170000002" version="1" timestamp="2017-04-30T13:03:17Z" uid="112" user="SomeoneElse" changeset="101472" lat="-24.992" lon="135.172">
    <tag k="shop" v="beauty"/>
    <tag k="name" v="Beauty"/>
  </node>
  <node id="29170000003" version="1" timestamp="2017-04-30T13:03:17Z" uid="112" user="SomeoneElse" changeset="101472" lat="-24.992" lon="135.173">
    <tag k="shop" v="bookmaker"/>
    <tag k="name" v="Bookmaker"/>
  </node>
  <node id="29170000004" version="1" timestamp="2017-04-30T13:03:17Z" uid="112" user="SomeoneElse" changeset="101472" lat="-24.992" lon="135.174">
    <tag k="shop" v="pawnbroker"/>
    <tag k="name" v="Pawnbroker, Money Lender"/>
  </node>
  <node id="29170000005" version="1" timestamp="2017-04-30T13:03:17Z" uid="112" user="SomeoneElse" changeset="101472" lat="-24.992" lon="135.175">
    <tag k="shop" v="estate_agent"/>
    <tag k="name" v="Estate Agent"/>
  </node>
  <node id="29170000006" version="1" timestamp="2017-04-30T13:03:17Z" uid="112" user="SomeoneElse" changeset="101472" lat="-24.992" lon="135.176">
    <tag k="shop" v="tattoo"/>
    <tag k="name" v="Tattoo"/>
  </node>
  <node id="29170000007" version="1" timestamp="2017-04-30T13:03:17Z" uid="112" user="SomeoneElse" changeset="101472" lat="-24.992" lon="135.177">
    <tag k="shop" v="funeral_directors"/>
    <tag k="name" v="Funerals, Stonemasons, etc."/>
  </node>
  <node id="29170000008" version="1" timestamp="2017-04-30T13:03:17Z" uid="112" user="SomeoneElse" changeset="101472" lat="-24.992" lon="135.178">
    <tag k="shop" v="laundry"/>
    <tag k="name" v="Laundry, Dry Cleaning"/>
  </node>
  <node id="29170000009" version="1" timestamp="2017-04-30T13:03:17Z" uid="112" user="SomeoneElse" changeset="101472" lat="-24.992" lon="135.179">
    <tag k="shop" v="travel_agent"/>
    <tag k="name" v="Travel Agent"/>
  </node>
  <node id="29170000010" version="1" timestamp="2017-04-30T13:03:17Z" uid="112" user="SomeoneElse" changeset="101472" lat="-24.992" lon="135.18">
    <tag k="shop" v="copyshop"/>
    <tag k="name" v="Copyshop, Printers"/>
  </node>
  <node id="29170000011" version="1" timestamp="2017-04-30T13:03:17Z" uid="112" user="SomeoneElse" changeset="101472" lat="-24.992" lon="135.181">
    <tag k="shop" v="pet_grooming"/>
    <tag k="name" v="Pet Grooming"/>
  </node>
  <node id="29170000012" version="1" timestamp="2017-04-30T13:03:17Z" uid="112" user="SomeoneElse" changeset="101472" lat="-24.992" lon="135.182">
    <tag k="amenity" v="veterinary"/>
    <tag k="name" v="Vet"/>
  </node>
  <node id="29170000013" version="1" timestamp="2017-04-30T13:03:17Z" uid="112" user="SomeoneElse" changeset="101472" lat="-24.992" lon="135.183">
    <tag k="amenity" v="animal_boarding"/>
    <tag k="name" v="Animal Boarding"/>
  </node>
  <node id="29170000014" version="1" timestamp="2017-04-30T13:03:17Z" uid="112" user="SomeoneElse" changeset="101472" lat="-24.992" lon="135.184">
    <tag k="amenity" v="animal_shelter"/>
    <tag k="name" v="Animal Shelter"/>
  </node>
  <node id="29171000001" version="1" timestamp="2017-04-30T13:03:17Z" uid="112" user="SomeoneElse" changeset="101472" lat="-24.9918" lon="135.171">
    <tag k="place" v="legend_text"/>
    <tag k="name" v="Services"/>
  </node>
  <node id="29180000001" version="1" timestamp="2017-04-30T13:03:17Z" uid="112" user="SomeoneElse" changeset="101472" lat="-24.993" lon="135.171">
    <tag k="amenity" v="fuel"/>
    <tag k="name" v="Name"/>
  </node>
  <node id="29180000002" version="1" timestamp="2017-04-30T13:03:17Z" uid="112" user="SomeoneElse" changeset="101472" lat="-24.993" lon="135.172">
    <tag k="amenity" v="fuel"/>
    <tag k="fuel:diesel" v="yes"/>
    <tag k="fuel:electricity" v="yes"/>
    <tag k="name" v="Name"/>
  </node>
  <node id="29180000003" version="1" timestamp="2017-04-30T13:03:17Z" uid="112" user="SomeoneElse" changeset="101472" lat="-24.993" lon="135.173">
    <tag k="amenity" v="fuel"/>
    <tag k="fuel:lpg" v="yes"/>
    <tag k="name" v="Name"/>
  </node>
  <node id="29180000004" version="1" timestamp="2017-04-30T13:03:17Z" uid="112" user="SomeoneElse" changeset="101472" lat="-24.993" lon="135.174">
    <tag k="amenity" v="fuel"/>
    <tag k="fuel:LH2" v="yes"/>
    <tag k="name" v="Name"/>
  </node>
  <node id="29180000005" version="1" timestamp="2017-04-30T13:03:17Z" uid="112" user="SomeoneElse" changeset="101472" lat="-24.993" lon="135.175">
    <tag k="amenity" v="charging_station"/>
    <tag k="name" v="Operator"/>
  </node>
  <node id="29180000006" version="1" timestamp="2017-04-30T13:03:17Z" uid="112" user="SomeoneElse" changeset="101472" lat="-24.993" lon="135.176">
    <tag k="shop" v="car"/>
    <tag k="name" v="Name"/>
  </node>
  <node id="29180000007" version="1" timestamp="2017-04-30T13:03:17Z" uid="112" user="SomeoneElse" changeset="101472" lat="-24.993" lon="135.177">
    <tag k="shop" v="car_repair"/>
    <tag k="name" v="Name"/>
  </node>
  <node id="29180000008" version="1" timestamp="2017-04-30T13:03:17Z" uid="112" user="SomeoneElse" changeset="101472" lat="-24.993" lon="135.178">
    <tag k="shop" v="car_parts"/>
    <tag k="name" v="Name"/>
  </node>
  <node id="29180000009" version="1" timestamp="2017-04-30T13:03:17Z" uid="112" user="SomeoneElse" changeset="101472" lat="-24.993" lon="135.179">
    <tag k="amenity" v="car_wash"/>
    <tag k="name" v="Name"/>
  </node>
  <node id="29180000010" version="1" timestamp="2017-04-30T13:03:17Z" uid="112" user="SomeoneElse" changeset="101472" lat="-24.993" lon="135.18">
    <tag k="amenity" v="compressed_air"/>
    <tag k="name" v="Name"/>
  </node>
  <node id="29180000011" version="1" timestamp="2017-04-30T13:03:17Z" uid="112" user="SomeoneElse" changeset="101472" lat="-24.993" lon="135.181">
    <tag k="shop" v="caravan"/>
    <tag k="name" v="Name"/>
  </node>
  <node id="29181000001" version="1" timestamp="2017-04-30T13:03:17Z" uid="112" user="SomeoneElse" changeset="101472" lat="-24.9928" lon="135.171">
    <tag k="place" v="legend_text"/>
    <tag k="name" v="Petrol / Diesel"/>
  </node>
  <node id="29181000002" version="1" timestamp="2017-04-30T13:03:17Z" uid="112" user="SomeoneElse" changeset="101472" lat="-24.9928" lon="135.172">
    <tag k="place" v="legend_text"/>
    <tag k="name" v="Petrol / Electric"/>
  </node>
  <node id="29181000003" version="1" timestamp="2017-04-30T13:03:17Z" uid="112" user="SomeoneElse" changeset="101472" lat="-24.9928" lon="135.173">
    <tag k="place" v="legend_text"/>
    <tag k="name" v="LPG"/>
  </node>
  <node id="29181000004" version="1" timestamp="2017-04-30T13:03:17Z" uid="112" user="SomeoneElse" changeset="101472" lat="-24.9928" lon="135.174">
    <tag k="place" v="legend_text"/>
    <tag k="name" v="Hydrogen"/>
  </node>
  <node id="29181000005" version="1" timestamp="2017-04-30T13:03:17Z" uid="112" user="SomeoneElse" changeset="101472" lat="-24.9928" lon="135.175">
    <tag k="place" v="legend_text"/>
    <tag k="name" v="Charging Station"/>
  </node>
  <node id="29181000006" version="1" timestamp="2017-04-30T13:03:17Z" uid="112" user="SomeoneElse" changeset="101472" lat="-24.9928" lon="135.176">
    <tag k="place" v="legend_text"/>
    <tag k="name" v="Car Sales"/>
  </node>
  <node id="29181000007" version="1" timestamp="2017-04-30T13:03:17Z" uid="112" user="SomeoneElse" changeset="101472" lat="-24.9928" lon="135.177">
    <tag k="place" v="legend_text"/>
    <tag k="name" v="Car Repair"/>
  </node>
  <node id="29181000008" version="1" timestamp="2017-04-30T13:03:17Z" uid="112" user="SomeoneElse" changeset="101472" lat="-24.9928" lon="135.178">
    <tag k="place" v="legend_text"/>
    <tag k="name" v="Car Parts"/>
  </node>
  <node id="29181000009" version="1" timestamp="2017-04-30T13:03:17Z" uid="112" user="SomeoneElse" changeset="101472" lat="-24.9928" lon="135.179">
    <tag k="place" v="legend_text"/>
    <tag k="name" v="Car Wash"/>
  </node>
  <node id="29181000010" version="1" timestamp="2017-04-30T13:03:17Z" uid="112" user="SomeoneElse" changeset="101472" lat="-24.9928" lon="135.18">
    <tag k="place" v="legend_text"/>
    <tag k="name" v="Compressed Air"/>
  </node>
  <node id="29181000011" version="1" timestamp="2017-04-30T13:03:17Z" uid="112" user="SomeoneElse" changeset="101472" lat="-24.9928" lon="135.181">
    <tag k="place" v="legend_text"/>
    <tag k="name" v="Caravan, Boat, etc."/>
  </node>
  <node id="29190000001" version="1" timestamp="2017-04-30T13:03:17Z" uid="112" user="SomeoneElse" changeset="101472" lat="-24.994" lon="135.171">
    <tag k="shop" v="vacant"/>
  </node>
  <node id="29190000002" version="1" timestamp="2017-04-30T13:03:17Z" uid="112" user="SomeoneElse" changeset="101472" lat="-24.994" lon="135.172">
    <tag k="office" v="yes"/>
    <tag k="name" v="Office Name"/>
  </node>
  <node id="29190000003" version="1" timestamp="2017-04-30T13:03:17Z" uid="112" user="SomeoneElse" changeset="101472" lat="-24.994" lon="135.173">
    <tag k="craft" v="brewery"/>
    <tag k="name" v="Name"/>
  </node>
  <node id="29190000004" version="1" timestamp="2017-04-30T13:03:17Z" uid="112" user="SomeoneElse" changeset="101472" lat="-24.994" lon="135.174">
    <tag k="craft" v="cider"/>
    <tag k="name" v="Name"/>
  </node>
  <node id="29190000005" version="1" timestamp="2017-04-30T13:03:17Z" uid="112" user="SomeoneElse" changeset="101472" lat="-24.994" lon="135.175">
    <tag k="man_made" v="monitoring_station"/>
    <tag k="monitoring:water_level" v="yes"/>
    <tag k="name" v="Name"/>
  </node>
  <node id="29190000006" version="1" timestamp="2017-04-30T13:03:17Z" uid="112" user="SomeoneElse" changeset="101472" lat="-24.994" lon="135.176">
    <tag k="man_made" v="monitoring_station"/>
    <tag k="monitoring:weather" v="yes"/>
    <tag k="name" v="Name"/>
  </node>
  <node id="29190000007" version="1" timestamp="2017-04-30T13:03:17Z" uid="112" user="SomeoneElse" changeset="101472" lat="-24.994" lon="135.177">
    <tag k="man_made" v="monitoring_station"/>
    <tag k="monitoring:rainfall" v="yes"/>
    <tag k="name" v="Name"/>
  </node>
  <node id="29190000008" version="1" timestamp="2017-04-30T13:03:17Z" uid="112" user="SomeoneElse" changeset="101472" lat="-24.994" lon="135.178">
    <tag k="man_made" v="monitoring_station"/>
    <tag k="monitoring:seismic_activity" v="yes"/>
    <tag k="name" v="Name"/>
  </node>
  <node id="29190000009" version="1" timestamp="2017-04-30T13:03:17Z" uid="112" user="SomeoneElse" changeset="101472" lat="-24.994" lon="135.179">
    <tag k="man_made" v="monitoring_station"/>
    <tag k="monitoring:sky_brightness" v="yes"/>
    <tag k="name" v="Name"/>
  </node>
  <node id="29190000010" version="1" timestamp="2017-04-30T13:03:17Z" uid="112" user="SomeoneElse" changeset="101472" lat="-24.994" lon="135.18">
    <tag k="man_made" v="pipeline_marker"/>
    <tag k="Ref" v="Ref"/>
  </node>
  <node id="29190000011" version="1" timestamp="2017-04-30T13:03:17Z" uid="112" user="SomeoneElse" changeset="101472" lat="-24.994" lon="135.181">
    <tag k="military" v="range_marker"/>
    <tag k="name" v="Name"/>
  </node>
  <node id="29190000012" version="1" timestamp="2017-04-30T13:03:17Z" uid="112" user="SomeoneElse" changeset="101472" lat="-24.994" lon="135.182">
    <tag k="military" v="bunker"/>
    <tag k="name" v="Name"/>
  </node>
  <node id="29191000001" version="1" timestamp="2017-04-30T13:03:17Z" uid="112" user="SomeoneElse" changeset="101472" lat="-24.9938" lon="135.171">
    <tag k="place" v="legend_text"/>
    <tag k="name" v="Vacant"/>
  </node>
  <node id="29191000002" version="1" timestamp="2017-04-30T13:03:17Z" uid="112" user="SomeoneElse" changeset="101472" lat="-24.9938" lon="135.172">
    <tag k="place" v="legend_text"/>
    <tag k="name" v="Various Offices"/>
  </node>
  <node id="29191000003" version="1" timestamp="2017-04-30T13:03:17Z" uid="112" user="SomeoneElse" changeset="101472" lat="-24.9938" lon="135.173">
    <tag k="place" v="legend_text"/>
    <tag k="name" v="Craft Brewery"/>
  </node>
  <node id="29191000004" version="1" timestamp="2017-04-30T13:03:17Z" uid="112" user="SomeoneElse" changeset="101472" lat="-24.9938" lon="135.174">
    <tag k="place" v="legend_text"/>
    <tag k="name" v="Craft Cider"/>
  </node>
  <node id="29191000005" version="1" timestamp="2017-04-30T13:03:17Z" uid="112" user="SomeoneElse" changeset="101472" lat="-24.9938" lon="135.175">
    <tag k="place" v="legend_text"/>
    <tag k="name" v="Water Monitoring Station"/>
  </node>
  <node id="29191000006" version="1" timestamp="2017-04-30T13:03:17Z" uid="112" user="SomeoneElse" changeset="101472" lat="-24.9938" lon="135.176">
    <tag k="place" v="legend_text"/>
    <tag k="name" v="Weather Monitoring Station"/>
  </node>
  <node id="29191000007" version="1" timestamp="2017-04-30T13:03:17Z" uid="112" user="SomeoneElse" changeset="101472" lat="-24.9938" lon="135.177">
    <tag k="place" v="legend_text"/>
    <tag k="name" v="Rainfall Monitoring"/>
  </node>
  <node id="29191000008" version="1" timestamp="2017-04-30T13:03:17Z" uid="112" user="SomeoneElse" changeset="101472" lat="-24.9938" lon="135.178">
    <tag k="place" v="legend_text"/>
    <tag k="name" v="Seismic Monitoring"/>
  </node>
  <node id="29191000009" version="1" timestamp="2017-04-30T13:03:17Z" uid="112" user="SomeoneElse" changeset="101472" lat="-24.9938" lon="135.179">
    <tag k="place" v="legend_text"/>
    <tag k="name" v="Sky Brightness Monitoring"/>
  </node>
  <node id="29191000010" version="1" timestamp="2017-04-30T13:03:17Z" uid="112" user="SomeoneElse" changeset="101472" lat="-24.9938" lon="135.18">
    <tag k="place" v="legend_text"/>
    <tag k="name" v="Pipeline Marker"/>
  </node>
  <node id="29191000011" version="1" timestamp="2017-04-30T13:03:17Z" uid="112" user="SomeoneElse" changeset="101472" lat="-24.9938" lon="135.181">
    <tag k="place" v="legend_text"/>
    <tag k="name" v="Military Marker"/>
  </node>
  <node id="29191000012" version="1" timestamp="2017-04-30T13:03:17Z" uid="112" user="SomeoneElse" changeset="101472" lat="-24.9938" lon="135.182">
    <tag k="place" v="legend_text"/>
    <tag k="name" v="Military Bunker"/>
  </node>
  <node id="29200000001" version="1" timestamp="2017-04-30T13:03:17Z" uid="112" user="SomeoneElse" changeset="101472" lat="-24.995" lon="135.171">
    <tag k="amenity" v="hospital"/>
    <tag k="name" v="Name"/>
  </node>
  <node id="29200000002" version="1" timestamp="2017-04-30T13:03:17Z" uid="112" user="SomeoneElse" changeset="101472" lat="-24.995" lon="135.172">
    <tag k="amenity" v="doctors"/>
    <tag k="name" v="Name"/>
  </node>
  <node id="29200000003" version="1" timestamp="2017-04-30T13:03:17Z" uid="112" user="SomeoneElse" changeset="101472" lat="-24.995" lon="135.173">
    <tag k="amenity" v="dentist"/>
    <tag k="name" v="Name"/>
  </node>
  <node id="29200000004" version="1" timestamp="2017-04-30T13:03:17Z" uid="112" user="SomeoneElse" changeset="101472" lat="-24.995" lon="135.174">
    <tag k="shop" v="optician"/>
    <tag k="name" v="Name"/>
  </node>
  <node id="29200000005" version="1" timestamp="2017-04-30T13:03:17Z" uid="112" user="SomeoneElse" changeset="101472" lat="-24.995" lon="135.175">
    <tag k="shop" v="chiropodist"/>
    <tag k="name" v="Name"/>
  </node>
  <node id="29200000006" version="1" timestamp="2017-04-30T13:03:17Z" uid="112" user="SomeoneElse" changeset="101472" lat="-24.995" lon="135.176">
    <tag k="amenity" v="pharmacy"/>
    <tag k="name" v="Name"/>
  </node>
  <node id="29200000007" version="1" timestamp="2017-04-30T13:03:17Z" uid="112" user="SomeoneElse" changeset="101472" lat="-24.995" lon="135.177">
    <tag k="amenity" v="ambulance_station"/>
    <tag k="name" v="Name"/>
  </node>
  <node id="29200000008" version="1" timestamp="2017-04-30T13:03:17Z" uid="112" user="SomeoneElse" changeset="101472" lat="-24.995" lon="135.178">
    <tag k="emergency" v="water_rescue"/>
    <tag k="building" v="yes"/>
    <tag k="name" v="Name"/>
  </node>
  <node id="29200000009" version="1" timestamp="2017-04-30T13:03:17Z" uid="112" user="SomeoneElse" changeset="101472" lat="-24.995" lon="135.179">
    <tag k="amenity" v="lifeboat"/>
    <tag k="name" v="Name"/>
  </node>
  <node id="29200000010" version="1" timestamp="2017-04-30T13:03:17Z" uid="112" user="SomeoneElse" changeset="101472" lat="-24.995" lon="135.18">
    <tag k="amenity" v="mountain_rescue"/>
    <tag k="name" v="Name"/>
  </node>
  <node id="29200000011" version="1" timestamp="2017-04-30T13:03:17Z" uid="112" user="SomeoneElse" changeset="101472" lat="-24.995" lon="135.181">
    <tag k="emergency" v="rescue_box"/>
    <tag k="name" v="Name"/>
  </node>
  <node id="29200000012" version="1" timestamp="2017-04-30T13:03:17Z" uid="112" user="SomeoneElse" changeset="101472" lat="-24.995" lon="135.182">
    <tag k="emergency" v="defibrillator"/>
    <tag k="name" v="Name"/>
  </node>
  <node id="29200000013" version="1" timestamp="2017-04-30T13:03:17Z" uid="112" user="SomeoneElse" changeset="101472" lat="-24.995" lon="135.183">
    <tag k="emergency" v="life_ring"/>
    <tag k="name" v="Name"/>
  </node>
  <node id="29200000014" version="1" timestamp="2017-04-30T13:03:17Z" uid="112" user="SomeoneElse" changeset="101472" lat="-24.995" lon="135.184">
    <tag k="emergency" v="fire_extinguisher"/>
    <tag k="name" v="Name"/>
  </node>
  <node id="29200000015" version="1" timestamp="2017-04-30T13:03:17Z" uid="112" user="SomeoneElse" changeset="101472" lat="-24.995" lon="135.185">
    <tag k="emergency" v="fire_hydrant"/>
    <tag k="name" v="Name"/>
  </node>
  <node id="29200000016" version="1" timestamp="2017-04-30T13:03:17Z" uid="112" user="SomeoneElse" changeset="101472" lat="-24.995" lon="135.186">
    <tag k="emergency" v="access_point"/>
    <tag k="name" v="Name"/>
  </node>
  <node id="29201000001" version="1" timestamp="2017-04-30T13:03:17Z" uid="112" user="SomeoneElse" changeset="101472" lat="-24.9948" lon="135.171">
    <tag k="place" v="legend_text"/>
    <tag k="name" v="Hospital"/>
  </node>
  <node id="29201000002" version="1" timestamp="2017-04-30T13:03:17Z" uid="112" user="SomeoneElse" changeset="101472" lat="-24.9948" lon="135.172">
    <tag k="place" v="legend_text"/>
    <tag k="name" v="Doctors"/>
  </node>
  <node id="29201000003" version="1" timestamp="2017-04-30T13:03:17Z" uid="112" user="SomeoneElse" changeset="101472" lat="-24.9948" lon="135.173">
    <tag k="place" v="legend_text"/>
    <tag k="name" v="Dentist"/>
  </node>
  <node id="29201000004" version="1" timestamp="2017-04-30T13:03:17Z" uid="112" user="SomeoneElse" changeset="101472" lat="-24.9948" lon="135.174">
    <tag k="place" v="legend_text"/>
    <tag k="name" v="Optician"/>
  </node>
  <node id="29201000005" version="1" timestamp="2017-04-30T13:03:17Z" uid="112" user="SomeoneElse" changeset="101472" lat="-24.9948" lon="135.175">
    <tag k="place" v="legend_text"/>
    <tag k="name" v="Other Healthcare"/>
  </node>
  <node id="29201000006" version="1" timestamp="2017-04-30T13:03:17Z" uid="112" user="SomeoneElse" changeset="101472" lat="-24.9948" lon="135.176">
    <tag k="place" v="legend_text"/>
    <tag k="name" v="Pharmacy"/>
  </node>
  <node id="29201000007" version="1" timestamp="2017-04-30T13:03:17Z" uid="112" user="SomeoneElse" changeset="101472" lat="-24.9948" lon="135.177">
    <tag k="place" v="legend_text"/>
    <tag k="name" v="Ambulance Station"/>
  </node>
  <node id="29201000008" version="1" timestamp="2017-04-30T13:03:17Z" uid="112" user="SomeoneElse" changeset="101472" lat="-24.9948" lon="135.178">
    <tag k="place" v="legend_text"/>
    <tag k="name" v="Lifeboat Station"/>
  </node>
  <node id="29201000009" version="1" timestamp="2017-04-30T13:03:17Z" uid="112" user="SomeoneElse" changeset="101472" lat="-24.9948" lon="135.179">
    <tag k="place" v="legend_text"/>
    <tag k="name" v="Lifeboat"/>
  </node>
  <node id="29201000010" version="1" timestamp="2017-04-30T13:03:17Z" uid="112" user="SomeoneElse" changeset="101472" lat="-24.9948" lon="135.18">
    <tag k="place" v="legend_text"/>
    <tag k="name" v="Mountain Rescue"/>
  </node>
  <node id="29201000011" version="1" timestamp="2017-04-30T13:03:17Z" uid="112" user="SomeoneElse" changeset="101472" lat="-24.9948" lon="135.181">
    <tag k="place" v="legend_text"/>
    <tag k="name" v="Mountain Rescue Supplies"/>
  </node>
  <node id="29201000012" version="1" timestamp="2017-04-30T13:03:17Z" uid="112" user="SomeoneElse" changeset="101472" lat="-24.9948" lon="135.182">
    <tag k="place" v="legend_text"/>
    <tag k="name" v="Defibrillator"/>
  </node>
  <node id="29201000013" version="1" timestamp="2017-04-30T13:03:17Z" uid="112" user="SomeoneElse" changeset="101472" lat="-24.9948" lon="135.183">
    <tag k="place" v="legend_text"/>
    <tag k="name" v="Life Ring"/>
  </node>
  <node id="29201000014" version="1" timestamp="2017-04-30T13:03:17Z" uid="112" user="SomeoneElse" changeset="101472" lat="-24.9948" lon="135.184">
    <tag k="place" v="legend_text"/>
    <tag k="name" v="Fire Extinguisher"/>
  </node>
  <node id="29201000015" version="1" timestamp="2017-04-30T13:03:17Z" uid="112" user="SomeoneElse" changeset="101472" lat="-24.9948" lon="135.185">
    <tag k="place" v="legend_text"/>
    <tag k="name" v="Fire Hydrant"/>
  </node>
  <node id="29201000016" version="1" timestamp="2017-04-30T13:03:17Z" uid="112" user="SomeoneElse" changeset="101472" lat="-24.9948" lon="135.186">
    <tag k="place" v="legend_text"/>
    <tag k="name" v="Emergency Access Point"/>
  </node>
  <node id="29210000001" version="1" timestamp="2017-04-30T13:03:17Z" uid="112" user="SomeoneElse" changeset="101472" lat="-24.996" lon="135.171">
    <tag k="tourism" v="hotel"/>
    <tag k="name" v="Name"/>
  </node>
  <node id="29210000002" version="1" timestamp="2017-04-30T13:03:17Z" uid="112" user="SomeoneElse" changeset="101472" lat="-24.996" lon="135.172">
    <tag k="tourism" v="motel"/>
    <tag k="name" v="Name"/>
  </node>
  <node id="29210000003" version="1" timestamp="2017-04-30T13:03:17Z" uid="112" user="SomeoneElse" changeset="101472" lat="-24.996" lon="135.173">
    <tag k="leisure" v="resort"/>
    <tag k="name" v="Name"/>
  </node>
  <node id="29210000004" version="1" timestamp="2017-04-30T13:03:17Z" uid="112" user="SomeoneElse" changeset="101472" lat="-24.996" lon="135.174">
    <tag k="tourism" v="guest_house"/>
    <tag k="name" v="Name"/>
  </node>
  <node id="29210000005" version="1" timestamp="2017-04-30T13:03:17Z" uid="112" user="SomeoneElse" changeset="101472" lat="-24.996" lon="135.175">
    <tag k="tourism" v="bed_and_breakfast"/>
    <tag k="name" v="Name"/>
  </node>
  <node id="29210000006" version="1" timestamp="2017-04-30T13:03:17Z" uid="112" user="SomeoneElse" changeset="101472" lat="-24.996" lon="135.176">
    <tag k="tourism" v="chalet"/>
    <tag k="name" v="Name"/>
  </node>
  <node id="29210000007" version="1" timestamp="2017-04-30T13:03:17Z" uid="112" user="SomeoneElse" changeset="101472" lat="-24.996" lon="135.177">
    <tag k="tourism" v="alpine_hut"/>
    <tag k="name" v="Name"/>
  </node>
  <node id="29210000008" version="1" timestamp="2017-04-30T13:03:17Z" uid="112" user="SomeoneElse" changeset="101472" lat="-24.996" lon="135.178">
    <tag k="tourism" v="hostel"/>
    <tag k="name" v="Name"/>
  </node>
  <node id="29210000009" version="1" timestamp="2017-04-30T13:03:17Z" uid="112" user="SomeoneElse" changeset="101472" lat="-24.996" lon="135.179">
    <tag k="tourism" v="apartment"/>
    <tag k="name" v="Name"/>
  </node>
  <node id="29210000010" version="1" timestamp="2017-04-30T13:03:17Z" uid="112" user="SomeoneElse" changeset="101472" lat="-24.996" lon="135.18">
    <tag k="tourism" v="apartments"/>
    <tag k="name" v="Name"/>
  </node>
  <node id="29210000011" version="1" timestamp="2017-04-30T13:03:17Z" uid="112" user="SomeoneElse" changeset="101472" lat="-24.996" lon="135.181">
    <tag k="tourism" v="holiday_park"/>
    <tag k="name" v="Name"/>
  </node>
  <node id="29210000012" version="1" timestamp="2017-04-30T13:03:17Z" uid="112" user="SomeoneElse" changeset="101472" lat="-24.996" lon="135.182">
    <tag k="tourism" v="self_catering"/>
    <tag k="name" v="Name"/>
  </node>
  <node id="29210000013" version="1" timestamp="2017-04-30T13:03:17Z" uid="112" user="SomeoneElse" changeset="101472" lat="-24.996" lon="135.183">
    <tag k="tourism" v="holiday_cottage"/>
    <tag k="name" v="Name"/>
  </node>
  <node id="29210000014" version="1" timestamp="2017-04-30T13:03:17Z" uid="112" user="SomeoneElse" changeset="101472" lat="-24.996" lon="135.184">
    <tag k="tourism" v="caravan_site"/>
    <tag k="name" v="Name"/>
  </node>
  <node id="29210000015" version="1" timestamp="2017-04-30T13:03:17Z" uid="112" user="SomeoneElse" changeset="101472" lat="-24.996" lon="135.185">
    <tag k="tourism" v="camp_site"/>
    <tag k="name" v="Name"/>
  </node>
  <node id="29210000016" version="1" timestamp="2017-04-30T13:03:17Z" uid="112" user="SomeoneElse" changeset="101472" lat="-24.996" lon="135.186">
    <tag k="tourism" v="camp_pitch"/>
    <tag k="name" v="Name"/>
  </node>
  <node id="29211000001" version="1" timestamp="2017-04-30T13:03:17Z" uid="112" user="SomeoneElse" changeset="101472" lat="-24.9958" lon="135.171">
    <tag k="place" v="legend_text"/>
    <tag k="name" v="Hotel"/>
  </node>
  <node id="29211000002" version="1" timestamp="2017-04-30T13:03:17Z" uid="112" user="SomeoneElse" changeset="101472" lat="-24.9958" lon="135.172">
    <tag k="place" v="legend_text"/>
    <tag k="name" v="Motel"/>
  </node>
  <node id="29211000003" version="1" timestamp="2017-04-30T13:03:17Z" uid="112" user="SomeoneElse" changeset="101472" lat="-24.9958" lon="135.173">
    <tag k="place" v="legend_text"/>
    <tag k="name" v="Resort"/>
  </node>
  <node id="29211000004" version="1" timestamp="2017-04-30T13:03:17Z" uid="112" user="SomeoneElse" changeset="101472" lat="-24.9958" lon="135.174">
    <tag k="place" v="legend_text"/>
    <tag k="name" v="Guest House"/>
  </node>
  <node id="29211000005" version="1" timestamp="2017-04-30T13:03:17Z" uid="112" user="SomeoneElse" changeset="101472" lat="-24.9958" lon="135.175">
    <tag k="place" v="legend_text"/>
    <tag k="name" v="Bed and Breakfast"/>
  </node>
  <node id="29211000006" version="1" timestamp="2017-04-30T13:03:17Z" uid="112" user="SomeoneElse" changeset="101472" lat="-24.9958" lon="135.176">
    <tag k="place" v="legend_text"/>
    <tag k="name" v="Chalet"/>
  </node>
  <node id="29211000007" version="1" timestamp="2017-04-30T13:03:17Z" uid="112" user="SomeoneElse" changeset="101472" lat="-24.9958" lon="135.177">
    <tag k="place" v="legend_text"/>
    <tag k="name" v="Alpine Hut"/>
  </node>
  <node id="29211000008" version="1" timestamp="2017-04-30T13:03:17Z" uid="112" user="SomeoneElse" changeset="101472" lat="-24.9958" lon="135.178">
    <tag k="place" v="legend_text"/>
    <tag k="name" v="Hostel"/>
  </node>
  <node id="29211000009" version="1" timestamp="2017-04-30T13:03:17Z" uid="112" user="SomeoneElse" changeset="101472" lat="-24.9958" lon="135.179">
    <tag k="place" v="legend_text"/>
    <tag k="name" v="Apartment"/>
  </node>
  <node id="29211000010" version="1" timestamp="2017-04-30T13:03:17Z" uid="112" user="SomeoneElse" changeset="101472" lat="-24.9958" lon="135.18">
    <tag k="place" v="legend_text"/>
    <tag k="name" v="Apartment Hotel"/>
  </node>
  <node id="29211000011" version="1" timestamp="2017-04-30T13:03:17Z" uid="112" user="SomeoneElse" changeset="101472" lat="-24.9958" lon="135.181">
    <tag k="place" v="legend_text"/>
    <tag k="name" v="Holiday Park"/>
  </node>
  <node id="29211000012" version="1" timestamp="2017-04-30T13:03:17Z" uid="112" user="SomeoneElse" changeset="101472" lat="-24.9958" lon="135.182">
    <tag k="place" v="legend_text"/>
    <tag k="name" v="Self Catering"/>
  </node>
  <node id="29211000013" version="1" timestamp="2017-04-30T13:03:17Z" uid="112" user="SomeoneElse" changeset="101472" lat="-24.9958" lon="135.183">
    <tag k="place" v="legend_text"/>
    <tag k="name" v="Holiday Cottage"/>
  </node>
  <node id="29211000014" version="1" timestamp="2017-04-30T13:03:17Z" uid="112" user="SomeoneElse" changeset="101472" lat="-24.9958" lon="135.184">
    <tag k="place" v="legend_text"/>
    <tag k="name" v="Caravan Site"/>
  </node>
  <node id="29211000015" version="1" timestamp="2017-04-30T13:03:17Z" uid="112" user="SomeoneElse" changeset="101472" lat="-24.9958" lon="135.185">
    <tag k="place" v="legend_text"/>
    <tag k="name" v="Camp Site"/>
  </node>
  <node id="29211000016" version="1" timestamp="2017-04-30T13:03:17Z" uid="112" user="SomeoneElse" changeset="101472" lat="-24.9958" lon="135.186">
    <tag k="place" v="legend_text"/>
    <tag k="name" v="Camp Pitch"/>
  </node>
  <node id="29220000001" version="1" timestamp="2017-04-30T13:03:17Z" uid="112" user="SomeoneElse" changeset="101472" lat="-24.997" lon="135.171">
    <tag k="amenity" v="cinema"/>
    <tag k="name" v="Cinema"/>
  </node>
  <node id="29220000002" version="1" timestamp="2017-04-30T13:03:17Z" uid="112" user="SomeoneElse" changeset="101472" lat="-24.997" lon="135.172">
    <tag k="amenity" v="concert_hall"/>
    <tag k="name" v="Concert Hall"/>
  </node>
  <node id="29220000003" version="1" timestamp="2017-04-30T13:03:17Z" uid="112" user="SomeoneElse" changeset="101472" lat="-24.997" lon="135.173">
    <tag k="amenity" v="library"/>
    <tag k="name" v="Library"/>
  </node>
  <node id="29220000004" version="1" timestamp="2017-04-30T13:03:17Z" uid="112" user="SomeoneElse" changeset="101472" lat="-24.997" lon="135.174">
    <tag k="amenity" v="theatre"/>
    <tag k="name" v="Theatre"/>
  </node>
  <node id="29220000005" version="1" timestamp="2017-04-30T13:03:17Z" uid="112" user="SomeoneElse" changeset="101472" lat="-24.997" lon="135.175">
    <tag k="tourism" v="museum"/>
    <tag k="name" v="Museum"/>
  </node>
  <node id="29220000006" version="1" timestamp="2017-04-30T13:03:17Z" uid="112" user="SomeoneElse" changeset="101472" lat="-24.997" lon="135.176">
    <tag k="tourism" v="zoo"/>
    <tag k="name" v="Zoo"/>
  </node>
  <node id="29220000007" version="1" timestamp="2017-04-30T13:03:17Z" uid="112" user="SomeoneElse" changeset="101472" lat="-24.997" lon="135.177">
    <tag k="tourism" v="aquarium"/>
    <tag k="name" v="Aquarium"/>
  </node>
  <node id="29220000008" version="1" timestamp="2017-04-30T13:03:17Z" uid="112" user="SomeoneElse" changeset="101472" lat="-24.997" lon="135.178">
    <tag k="amenity" v="zooaviary"/>
    <tag k="name" v="Aviary"/>
  </node>
  <node id="29220000009" version="1" timestamp="2017-04-30T13:03:17Z" uid="112" user="SomeoneElse" changeset="101472" lat="-24.997" lon="135.179">
    <tag k="amenity" v="zooenclosure"/>
    <tag k="name" v="Zoo Enclosure"/>
  </node>
  <node id="29220000010" version="1" timestamp="2017-04-30T13:03:17Z" uid="112" user="SomeoneElse" changeset="101472" lat="-24.997" lon="135.18">
    <tag k="tourism" v="theme_park"/>
    <tag k="name" v="Theme Park"/>
  </node>
  <node id="29220000011" version="1" timestamp="2017-04-30T13:03:17Z" uid="112" user="SomeoneElse" changeset="101472" lat="-24.997" lon="135.181">
    <tag k="tourism" v="attraction"/>
    <tag k="name" v="Attraction"/>
  </node>
  <node id="29221000001" version="1" timestamp="2017-04-30T13:03:17Z" uid="112" user="SomeoneElse" changeset="101472" lat="-24.9968" lon="135.171">
    <tag k="place" v="legend_text"/>
    <tag k="name" v="Other Tourism"/>
  </node>
  <node id="29230000001" version="1" timestamp="2017-04-30T13:03:17Z" uid="112" user="SomeoneElse" changeset="101472" lat="-24.998" lon="135.171">
    <tag k="amenity" v="toilets"/>
    <tag k="name" v="Name"/>
  </node>
  <node id="29230000002" version="1" timestamp="2017-04-30T13:03:17Z" uid="112" user="SomeoneElse" changeset="101472" lat="-24.998" lon="135.172">
    <tag k="amenity" v="toilets"/>
    <tag k="access" v="customers"/>
    <tag k="name" v="Name"/>
  </node>
  <node id="29230000003" version="1" timestamp="2017-04-30T13:03:17Z" uid="112" user="SomeoneElse" changeset="101472" lat="-24.998" lon="135.173">
    <tag k="amenity" v="toilets"/>
    <tag k="fee" v="yes"/>
    <tag k="name" v="Name"/>
  </node>
  <node id="29230000004" version="1" timestamp="2017-04-30T13:03:17Z" uid="112" user="SomeoneElse" changeset="101472" lat="-24.998" lon="135.174">
    <tag k="amenity" v="toilets"/>
    <tag k="male" v="yes"/>
    <tag k="name" v="Name"/>
  </node>
  <node id="29230000005" version="1" timestamp="2017-04-30T13:03:17Z" uid="112" user="SomeoneElse" changeset="101472" lat="-24.998" lon="135.175">
    <tag k="amenity" v="shower"/>
    <tag k="name" v="Name"/>
  </node>
  <node id="29230000006" version="1" timestamp="2017-04-30T13:03:17Z" uid="112" user="SomeoneElse" changeset="101472" lat="-24.998" lon="135.176">
    <tag k="amenity" v="shower"/>
    <tag k="access" v="customers"/>
    <tag k="name" v="Name"/>
  </node>
  <node id="29230000007" version="1" timestamp="2017-04-30T13:03:17Z" uid="112" user="SomeoneElse" changeset="101472" lat="-24.998" lon="135.177">
    <tag k="amenity" v="shower"/>
    <tag k="fee" v="yes"/>
    <tag k="name" v="Name"/>
  </node>
  <node id="29230000008" version="1" timestamp="2017-04-30T13:03:17Z" uid="112" user="SomeoneElse" changeset="101472" lat="-24.998" lon="135.178">
    <tag k="amenity" v="shower"/>
    <tag k="female" v="yes"/>
    <tag k="name" v="Name"/>
  </node>
  <node id="29231000001" version="1" timestamp="2017-04-30T13:03:17Z" uid="112" user="SomeoneElse" changeset="101472" lat="-24.9978" lon="135.171">
    <tag k="place" v="legend_text"/>
    <tag k="name" v="Toilets"/>
  </node>
  <node id="29231000002" version="1" timestamp="2017-04-30T13:03:17Z" uid="112" user="SomeoneElse" changeset="101472" lat="-24.9978" lon="135.172">
    <tag k="place" v="legend_text"/>
    <tag k="name" v="(customers)"/>
  </node>
  <node id="29231000003" version="1" timestamp="2017-04-30T13:03:17Z" uid="112" user="SomeoneElse" changeset="101472" lat="-24.9978" lon="135.173">
    <tag k="place" v="legend_text"/>
    <tag k="name" v="(pay)"/>
  </node>
  <node id="29231000004" version="1" timestamp="2017-04-30T13:03:17Z" uid="112" user="SomeoneElse" changeset="101472" lat="-24.9978" lon="135.174">
    <tag k="place" v="legend_text"/>
    <tag k="name" v="(male)"/>
  </node>
  <node id="29231000005" version="1" timestamp="2017-04-30T13:03:17Z" uid="112" user="SomeoneElse" changeset="101472" lat="-24.9978" lon="135.175">
    <tag k="place" v="legend_text"/>
    <tag k="name" v="Shower"/>
  </node>
  <node id="29231000006" version="1" timestamp="2017-04-30T13:03:17Z" uid="112" user="SomeoneElse" changeset="101472" lat="-24.9978" lon="135.176">
    <tag k="place" v="legend_text"/>
    <tag k="name" v="(customers)"/>
  </node>
  <node id="29231000007" version="1" timestamp="2017-04-30T13:03:17Z" uid="112" user="SomeoneElse" changeset="101472" lat="-24.9978" lon="135.177">
    <tag k="place" v="legend_text"/>
    <tag k="name" v="(pay)"/>
  </node>
  <node id="29231000008" version="1" timestamp="2017-04-30T13:03:17Z" uid="112" user="SomeoneElse" changeset="101472" lat="-24.9978" lon="135.178">
    <tag k="place" v="legend_text"/>
    <tag k="name" v="(female)"/>
  </node>
  <node id="29240000001" version="1" timestamp="2017-04-30T13:03:17Z" uid="112" user="SomeoneElse" changeset="101472" lat="-24.999" lon="135.171">
    <tag k="tourism" v="picnic_site"/>
    <tag k="name" v="Name"/>
  </node>
  <node id="29240000002" version="1" timestamp="2017-04-30T13:03:17Z" uid="112" user="SomeoneElse" changeset="101472" lat="-24.999" lon="135.172">
    <tag k="amenity" v="shelter"/>
    <tag k="name" v="Name"/>
  </node>
  <node id="29240000003" version="1" timestamp="2017-04-30T13:03:17Z" uid="112" user="SomeoneElse" changeset="101472" lat="-24.999" lon="135.173">
    <tag k="leisure" v="picnic_table"/>
    <tag k="name" v="Name"/>
  </node>
  <node id="29240000004" version="1" timestamp="2017-04-30T13:03:17Z" uid="112" user="SomeoneElse" changeset="101472" lat="-24.999" lon="135.174">
    <tag k="amenity" v="bbq"/>
    <tag k="name" v="Name"/>
  </node>
  <node id="29240000005" version="1" timestamp="2017-04-30T13:03:17Z" uid="112" user="SomeoneElse" changeset="101472" lat="-24.999" lon="135.175">
    <tag k="leisure" v="playground"/>
    <tag k="name" v="Name"/>
  </node>
  <node id="29240000006" version="1" timestamp="2017-04-30T13:03:17Z" uid="112" user="SomeoneElse" changeset="101472" lat="-24.999" lon="135.176">
    <tag k="leisure" v="slipway"/>
    <tag k="name" v="Name"/>
  </node>
  <node id="29240000007" version="1" timestamp="2017-04-30T13:03:17Z" uid="112" user="SomeoneElse" changeset="101472" lat="-24.999" lon="135.177">
    <tag k="whitewater" v="put_in"/>
    <tag k="name" v="Name"/>
  </node>
  <node id="29240000008" version="1" timestamp="2017-04-30T13:03:17Z" uid="112" user="SomeoneElse" changeset="101472" lat="-24.999" lon="135.178">
    <tag k="leisure" v="marina"/>
    <tag k="name" v="Name"/>
  </node>
  <node id="29240000009" version="1" timestamp="2017-04-30T13:03:17Z" uid="112" user="SomeoneElse" changeset="101472" lat="-24.999" lon="135.179">
    <tag k="amenity" v="boatyard"/>
    <tag k="name" v="Name"/>
  </node>
  <node id="29240000010" version="1" timestamp="2017-04-30T13:03:17Z" uid="112" user="SomeoneElse" changeset="101472" lat="-24.999" lon="135.18">
    <tag k="waterway" v="fuel"/>
    <tag k="name" v="Name"/>
  </node>
  <node id="29240000011" version="1" timestamp="2017-04-30T13:03:17Z" uid="112" user="SomeoneElse" changeset="101472" lat="-24.999" lon="135.181">
    <tag k="leisure" v="bird_hide"/>
    <tag k="name" v="Name"/>
  </node>
  <node id="29240000012" version="1" timestamp="2017-04-30T13:03:17Z" uid="112" user="SomeoneElse" changeset="101472" lat="-24.999" lon="135.182">
    <tag k="leisure" v="hunting_stand"/>
    <tag k="name" v="Name"/>
  </node>
  <node id="29240000013" version="1" timestamp="2017-04-30T13:03:17Z" uid="112" user="SomeoneElse" changeset="101472" lat="-24.999" lon="135.183">
    <tag k="leisure" v="grouse_butt"/>
    <tag k="name" v="Name"/>
  </node>
  <node id="29240000014" version="1" timestamp="2017-04-30T13:03:17Z" uid="112" user="SomeoneElse" changeset="101472" lat="-24.999" lon="135.184">
    <tag k="man_made" v="survey_point"/>
    <tag k="name" v="Name"/>
  </node>
  <node id="29240000015" version="1" timestamp="2017-04-30T13:03:17Z" uid="112" user="SomeoneElse" changeset="101472" lat="-24.999" lon="135.185">
    <tag k="man_made" v="boundary_stone"/>
    <tag k="name" v="Name"/>
  </node>
  <node id="29240000016" version="1" timestamp="2017-04-30T13:03:17Z" uid="112" user="SomeoneElse" changeset="101472" lat="-24.999" lon="135.186">
    <tag k="man_made" v="cairn"/>
    <tag k="name" v="Name"/>
  </node>
  <node id="29240000017" version="1" timestamp="2017-04-30T13:03:17Z" uid="112" user="SomeoneElse" changeset="101472" lat="-24.999" lon="135.187">
    <tag k="man_made" v="mounting_block"/>
    <tag k="name" v="Name"/>
  </node>
  <node id="29240000018" version="1" timestamp="2017-04-30T13:03:17Z" uid="112" user="SomeoneElse" changeset="101472" lat="-24.999" lon="135.188">
    <tag k="leisure" v="firepit"/>
    <tag k="name" v="Name"/>
  </node>
  <node id="29240000019" version="1" timestamp="2017-04-30T13:03:17Z" uid="112" user="SomeoneElse" changeset="101472" lat="-24.999" lon="135.189">
    <tag k="amenity" v="watering_place"/>
    <tag k="name" v="Name"/>
  </node>
  <node id="29241000001" version="1" timestamp="2017-04-30T13:03:17Z" uid="112" user="SomeoneElse" changeset="101472" lat="-24.9988" lon="135.171">
    <tag k="place" v="legend_text"/>
    <tag k="name" v="Picnic Site"/>
  </node>
  <node id="29241000002" version="1" timestamp="2017-04-30T13:03:17Z" uid="112" user="SomeoneElse" changeset="101472" lat="-24.9988" lon="135.172">
    <tag k="place" v="legend_text"/>
    <tag k="name" v="Shelter"/>
  </node>
  <node id="29241000003" version="1" timestamp="2017-04-30T13:03:17Z" uid="112" user="SomeoneElse" changeset="101472" lat="-24.9988" lon="135.173">
    <tag k="place" v="legend_text"/>
    <tag k="name" v="Picnic Table"/>
  </node>
  <node id="29241000004" version="1" timestamp="2017-04-30T13:03:17Z" uid="112" user="SomeoneElse" changeset="101472" lat="-24.9988" lon="135.174">
    <tag k="place" v="legend_text"/>
    <tag k="name" v="BBQ"/>
  </node>
  <node id="29241000005" version="1" timestamp="2017-04-30T13:03:17Z" uid="112" user="SomeoneElse" changeset="101472" lat="-24.9988" lon="135.175">
    <tag k="place" v="legend_text"/>
    <tag k="name" v="Playground"/>
  </node>
  <node id="29241000006" version="1" timestamp="2017-04-30T13:03:17Z" uid="112" user="SomeoneElse" changeset="101472" lat="-24.9988" lon="135.176">
    <tag k="place" v="legend_text"/>
    <tag k="name" v="Slipway"/>
  </node>
  <node id="29241000007" version="1" timestamp="2017-04-30T13:03:17Z" uid="112" user="SomeoneElse" changeset="101472" lat="-24.9988" lon="135.177">
    <tag k="place" v="legend_text"/>
    <tag k="name" v="Canoe Put In"/>
  </node>
  <node id="29241000008" version="1" timestamp="2017-04-30T13:03:17Z" uid="112" user="SomeoneElse" changeset="101472" lat="-24.9988" lon="135.178">
    <tag k="place" v="legend_text"/>
    <tag k="name" v="Marina"/>
  </node>
  <node id="29241000009" version="1" timestamp="2017-04-30T13:03:17Z" uid="112" user="SomeoneElse" changeset="101472" lat="-24.9988" lon="135.179">
    <tag k="place" v="legend_text"/>
    <tag k="name" v="Boatyard"/>
  </node>
  <node id="29241000010" version="1" timestamp="2017-04-30T13:03:17Z" uid="112" user="SomeoneElse" changeset="101472" lat="-24.9988" lon="135.18">
    <tag k="place" v="legend_text"/>
    <tag k="name" v="Waterway fuel"/>
  </node>
  <node id="29241000011" version="1" timestamp="2017-04-30T13:03:17Z" uid="112" user="SomeoneElse" changeset="101472" lat="-24.9988" lon="135.181">
    <tag k="place" v="legend_text"/>
    <tag k="name" v="Bird Hide"/>
  </node>
  <node id="29241000012" version="1" timestamp="2017-04-30T13:03:17Z" uid="112" user="SomeoneElse" changeset="101472" lat="-24.9988" lon="135.182">
    <tag k="place" v="legend_text"/>
    <tag k="name" v="Hunting Stand"/>
  </node>
  <node id="29241000013" version="1" timestamp="2017-04-30T13:03:17Z" uid="112" user="SomeoneElse" changeset="101472" lat="-24.9988" lon="135.183">
    <tag k="place" v="legend_text"/>
    <tag k="name" v="Grouse Butt"/>
  </node>
  <node id="29241000014" version="1" timestamp="2017-04-30T13:03:17Z" uid="112" user="SomeoneElse" changeset="101472" lat="-24.9988" lon="135.184">
    <tag k="place" v="legend_text"/>
    <tag k="name" v="Trig Point"/>
  </node>
  <node id="29241000015" version="1" timestamp="2017-04-30T13:03:17Z" uid="112" user="SomeoneElse" changeset="101472" lat="-24.9988" lon="135.185">
    <tag k="place" v="legend_text"/>
    <tag k="name" v="Boundary Stone"/>
  </node>
  <node id="29241000016" version="1" timestamp="2017-04-30T13:03:17Z" uid="112" user="SomeoneElse" changeset="101472" lat="-24.9988" lon="135.186">
    <tag k="place" v="legend_text"/>
    <tag k="name" v="Cairn"/>
  </node>
  <node id="29241000017" version="1" timestamp="2017-04-30T13:03:17Z" uid="112" user="SomeoneElse" changeset="101472" lat="-24.9988" lon="135.187">
    <tag k="place" v="legend_text"/>
    <tag k="name" v="Mounting Block"/>
  </node>
  <node id="29241000018" version="1" timestamp="2017-04-30T13:03:17Z" uid="112" user="SomeoneElse" changeset="101472" lat="-24.9988" lon="135.188">
    <tag k="place" v="legend_text"/>
    <tag k="name" v="Firepit"/>
  </node>
  <node id="29241000019" version="1" timestamp="2017-04-30T13:03:17Z" uid="112" user="SomeoneElse" changeset="101472" lat="-24.9988" lon="135.189">
    <tag k="place" v="legend_text"/>
    <tag k="name" v="Watering Place"/>
  </node>
  <node id="29250000001" version="1" timestamp="2017-04-30T13:03:17Z" uid="112" user="SomeoneElse" changeset="101472" lat="-25" lon="135.171">
    <tag k="playground" v="swing"/>
    <tag k="name" v="Name"/>
  </node>
  <node id="29250000002" version="1" timestamp="2017-04-30T13:03:17Z" uid="112" user="SomeoneElse" changeset="101472" lat="-25" lon="135.172">
    <tag k="playground" v="structure"/>
    <tag k="name" v="Name"/>
  </node>
  <node id="29250000003" version="1" timestamp="2017-04-30T13:03:17Z" uid="112" user="SomeoneElse" changeset="101472" lat="-25" lon="135.173">
    <tag k="playground" v="climbingframe"/>
    <tag k="name" v="Name"/>
  </node>
  <node id="29250000004" version="1" timestamp="2017-04-30T13:03:17Z" uid="112" user="SomeoneElse" changeset="101472" lat="-25" lon="135.174">
    <tag k="playground" v="slide"/>
    <tag k="name" v="Name"/>
  </node>
  <node id="29250000005" version="1" timestamp="2017-04-30T13:03:17Z" uid="112" user="SomeoneElse" changeset="101472" lat="-25" lon="135.175">
    <tag k="playground" v="springy"/>
    <tag k="name" v="Name"/>
  </node>
  <node id="29250000006" version="1" timestamp="2017-04-30T13:03:17Z" uid="112" user="SomeoneElse" changeset="101472" lat="-25" lon="135.176">
    <tag k="playground" v="roundabout"/>
    <tag k="name" v="Name"/>
  </node>
  <node id="29250000007" version="1" timestamp="2017-04-30T13:03:17Z" uid="112" user="SomeoneElse" changeset="101472" lat="-25" lon="135.177">
    <tag k="playground" v="zipwire"/>
    <tag k="name" v="Name"/>
  </node>
  <node id="29250000008" version="1" timestamp="2017-04-30T13:03:17Z" uid="112" user="SomeoneElse" changeset="101472" lat="-25" lon="135.178">
    <tag k="playground" v="seesaw"/>
    <tag k="name" v="Name"/>
  </node>
  <node id="29251000001" version="1" timestamp="2017-04-30T13:03:17Z" uid="112" user="SomeoneElse" changeset="101472" lat="-24.9998" lon="135.171">
    <tag k="place" v="legend_text"/>
    <tag k="name" v="Playground Swing"/>
  </node>
  <node id="29251000002" version="1" timestamp="2017-04-30T13:03:17Z" uid="112" user="SomeoneElse" changeset="101472" lat="-24.9998" lon="135.172">
    <tag k="place" v="legend_text"/>
    <tag k="name" v="Structure"/>
  </node>
  <node id="29251000003" version="1" timestamp="2017-04-30T13:03:17Z" uid="112" user="SomeoneElse" changeset="101472" lat="-24.9998" lon="135.173">
    <tag k="place" v="legend_text"/>
    <tag k="name" v="Climbing Frame"/>
  </node>
  <node id="29251000004" version="1" timestamp="2017-04-30T13:03:17Z" uid="112" user="SomeoneElse" changeset="101472" lat="-24.9998" lon="135.174">
    <tag k="place" v="legend_text"/>
    <tag k="name" v="Slide"/>
  </node>
  <node id="29251000005" version="1" timestamp="2017-04-30T13:03:17Z" uid="112" user="SomeoneElse" changeset="101472" lat="-24.9998" lon="135.175">
    <tag k="place" v="legend_text"/>
    <tag k="name" v="Springy"/>
  </node>
  <node id="29251000006" version="1" timestamp="2017-04-30T13:03:17Z" uid="112" user="SomeoneElse" changeset="101472" lat="-24.9998" lon="135.176">
    <tag k="place" v="legend_text"/>
    <tag k="name" v="Roundabout"/>
  </node>
  <node id="29251000007" version="1" timestamp="2017-04-30T13:03:17Z" uid="112" user="SomeoneElse" changeset="101472" lat="-24.9998" lon="135.177">
    <tag k="place" v="legend_text"/>
    <tag k="name" v="Zipwire"/>
  </node>
  <node id="29251000008" version="1" timestamp="2017-04-30T13:03:17Z" uid="112" user="SomeoneElse" changeset="101472" lat="-24.9998" lon="135.178">
    <tag k="place" v="legend_text"/>
    <tag k="name" v="Seesaw"/>
  </node>
  <node id="29260000001" version="1" timestamp="2017-04-30T13:03:17Z" uid="112" user="SomeoneElse" changeset="101472" lat="-25.001" lon="135.171">
    <tag k="leisure" v="pitch"/>
    <tag k="sport" v="tennis"/>
    <tag k="name" v="Name"/>
  </node>
  <node id="29260000002" version="1" timestamp="2017-04-30T13:03:17Z" uid="112" user="SomeoneElse" changeset="101472" lat="-25.001" lon="135.172">
    <tag k="leisure" v="pitch"/>
    <tag k="sport" v="soccer"/>
    <tag k="name" v="Name"/>
  </node>
  <node id="29260000003" version="1" timestamp="2017-04-30T13:03:17Z" uid="112" user="SomeoneElse" changeset="101472" lat="-25.001" lon="135.173">
    <tag k="leisure" v="pitch"/>
    <tag k="sport" v="equestrian"/>
    <tag k="name" v="Name"/>
  </node>
  <node id="29260000004" version="1" timestamp="2017-04-30T13:03:17Z" uid="112" user="SomeoneElse" changeset="101472" lat="-25.001" lon="135.174">
    <tag k="leisure" v="pitch"/>
    <tag k="sport" v="bowls"/>
    <tag k="name" v="Name"/>
  </node>
  <node id="29260000005" version="1" timestamp="2017-04-30T13:03:17Z" uid="112" user="SomeoneElse" changeset="101472" lat="-25.001" lon="135.175">
    <tag k="leisure" v="pitch"/>
    <tag k="sport" v="cricket"/>
    <tag k="name" v="Name"/>
  </node>
  <node id="29260000006" version="1" timestamp="2017-04-30T13:03:17Z" uid="112" user="SomeoneElse" changeset="101472" lat="-25.001" lon="135.176">
    <tag k="leisure" v="pitch"/>
    <tag k="sport" v="basketball"/>
    <tag k="name" v="Name"/>
  </node>
  <node id="29260000007" version="1" timestamp="2017-04-30T13:03:17Z" uid="112" user="SomeoneElse" changeset="101472" lat="-25.001" lon="135.177">
    <tag k="leisure" v="pitch"/>
    <tag k="sport" v="multi"/>
    <tag k="name" v="Name"/>
  </node>
  <node id="29260000008" version="1" timestamp="2017-04-30T13:03:17Z" uid="112" user="SomeoneElse" changeset="101472" lat="-25.001" lon="135.178">
    <tag k="leisure" v="pitch"/>
    <tag k="sport" v="rugby"/>
    <tag k="name" v="Name"/>
  </node>
  <node id="29260000009" version="1" timestamp="2017-04-30T13:03:17Z" uid="112" user="SomeoneElse" changeset="101472" lat="-25.001" lon="135.179">
    <tag k="leisure" v="pitch"/>
    <tag k="sport" v="gaelic_games"/>
    <tag k="name" v="Name"/>
  </node>
  <node id="29260000010" version="1" timestamp="2017-04-30T13:03:17Z" uid="112" user="SomeoneElse" changeset="101472" lat="-25.001" lon="135.18">
    <tag k="leisure" v="pitch"/>
    <tag k="sport" v="skateboard"/>
    <tag k="name" v="Name"/>
  </node>
  <node id="29260000011" version="1" timestamp="2017-04-30T13:03:17Z" uid="112" user="SomeoneElse" changeset="101472" lat="-25.001" lon="135.181">
    <tag k="leisure" v="pitch"/>
    <tag k="sport" v="athletics"/>
    <tag k="name" v="Name"/>
  </node>
  <node id="29260000012" version="1" timestamp="2017-04-30T13:03:17Z" uid="112" user="SomeoneElse" changeset="101472" lat="-25.001" lon="135.182">
    <tag k="leisure" v="pitch"/>
    <tag k="sport" v="netball"/>
    <tag k="name" v="Name"/>
  </node>
  <node id="29260000013" version="1" timestamp="2017-04-30T13:03:17Z" uid="112" user="SomeoneElse" changeset="101472" lat="-25.001" lon="135.183">
    <tag k="leisure" v="pitch"/>
    <tag k="sport" v="climbing"/>
    <tag k="name" v="Name"/>
  </node>
  <node id="29260000014" version="1" timestamp="2017-04-30T13:03:17Z" uid="112" user="SomeoneElse" changeset="101472" lat="-25.001" lon="135.184">
    <tag k="natural" v="climbing"/>
    <tag k="name" v="Name"/>
  </node>
  <node id="29260000015" version="1" timestamp="2017-04-30T13:03:17Z" uid="112" user="SomeoneElse" changeset="101472" lat="-25.001" lon="135.185">
    <tag k="leisure" v="pitch"/>
    <tag k="sport" v="cycling"/>
    <tag k="name" v="Name"/>
  </node>
  <node id="29260000016" version="1" timestamp="2017-04-30T13:03:17Z" uid="112" user="SomeoneElse" changeset="101472" lat="-25.001" lon="135.186">
    <tag k="leisure" v="pitch"/>
    <tag k="sport" v="table_tennis"/>
    <tag k="name" v="Name"/>
  </node>
  <node id="29260000017" version="1" timestamp="2017-04-30T13:03:17Z" uid="112" user="SomeoneElse" changeset="101472" lat="-25.001" lon="135.187">
    <tag k="leisure" v="pitch"/>
    <tag k="sport" v="hockey"/>
    <tag k="name" v="Name"/>
  </node>
  <node id="29260000018" version="1" timestamp="2017-04-30T13:03:17Z" uid="112" user="SomeoneElse" changeset="101472" lat="-25.001" lon="135.188">
    <tag k="leisure" v="pitch"/>
    <tag k="sport" v="shooting"/>
    <tag k="name" v="Name"/>
  </node>
  <node id="29260000019" version="1" timestamp="2017-04-30T13:03:17Z" uid="112" user="SomeoneElse" changeset="101472" lat="-25.001" lon="135.189">
    <tag k="leisure" v="pitch"/>
    <tag k="sport" v="boules"/>
    <tag k="name" v="Name"/>
  </node>
  <node id="29260000020" version="1" timestamp="2017-04-30T13:03:17Z" uid="112" user="SomeoneElse" changeset="101472" lat="-25.001" lon="135.19">
    <tag k="leisure" v="pitch"/>
    <tag k="sport" v="polo"/>
    <tag k="name" v="Name"/>
  </node>
  <node id="29260000021" version="1" timestamp="2017-04-30T13:03:17Z" uid="112" user="SomeoneElse" changeset="101472" lat="-25.001" lon="135.191">
    <tag k="leisure" v="pitch"/>
    <tag k="sport" v="croquet"/>
    <tag k="name" v="Name"/>
  </node>
  <node id="29260000022" version="1" timestamp="2017-04-30T13:03:17Z" uid="112" user="SomeoneElse" changeset="101472" lat="-25.001" lon="135.192">
    <tag k="leisure" v="pitch"/>
    <tag k="sport" v="baseball"/>
    <tag k="name" v="Name"/>
  </node>
  <node id="29260000023" version="1" timestamp="2017-04-30T13:03:17Z" uid="112" user="SomeoneElse" changeset="101472" lat="-25.001" lon="135.193">
    <tag k="leisure" v="pitch"/>
    <tag k="sport" v="chess"/>
    <tag k="name" v="Name"/>
  </node>
  <node id="29261000001" version="1" timestamp="2017-04-30T13:03:17Z" uid="112" user="SomeoneElse" changeset="101472" lat="-25.0008" lon="135.171">
    <tag k="place" v="legend_text"/>
    <tag k="name" v="Tennis Court"/>
  </node>
  <node id="29261000002" version="1" timestamp="2017-04-30T13:03:17Z" uid="112" user="SomeoneElse" changeset="101472" lat="-25.0008" lon="135.172">
    <tag k="place" v="legend_text"/>
    <tag k="name" v="Football Pitch"/>
  </node>
  <node id="29261000003" version="1" timestamp="2017-04-30T13:03:17Z" uid="112" user="SomeoneElse" changeset="101472" lat="-25.0008" lon="135.173">
    <tag k="place" v="legend_text"/>
    <tag k="name" v="Equestrian Area"/>
  </node>
  <node id="29261000004" version="1" timestamp="2017-04-30T13:03:17Z" uid="112" user="SomeoneElse" changeset="101472" lat="-25.0008" lon="135.174">
    <tag k="place" v="legend_text"/>
    <tag k="name" v="Bowling Green"/>
  </node>
  <node id="29261000005" version="1" timestamp="2017-04-30T13:03:17Z" uid="112" user="SomeoneElse" changeset="101472" lat="-25.0008" lon="135.175">
    <tag k="place" v="legend_text"/>
    <tag k="name" v="Cricket Pitch"/>
  </node>
  <node id="29261000006" version="1" timestamp="2017-04-30T13:03:17Z" uid="112" user="SomeoneElse" changeset="101472" lat="-25.0008" lon="135.176">
    <tag k="place" v="legend_text"/>
    <tag k="name" v="Basketball Court"/>
  </node>
  <node id="29261000007" version="1" timestamp="2017-04-30T13:03:17Z" uid="112" user="SomeoneElse" changeset="101472" lat="-25.0008" lon="135.177">
    <tag k="place" v="legend_text"/>
    <tag k="name" v="Multi-use Area"/>
  </node>
  <node id="29261000008" version="1" timestamp="2017-04-30T13:03:17Z" uid="112" user="SomeoneElse" changeset="101472" lat="-25.0008" lon="135.178">
    <tag k="place" v="legend_text"/>
    <tag k="name" v="Rugby Pitch"/>
  </node>
  <node id="29261000009" version="1" timestamp="2017-04-30T13:03:17Z" uid="112" user="SomeoneElse" changeset="101472" lat="-25.0008" lon="135.179">
    <tag k="place" v="legend_text"/>
    <tag k="name" v="Gaelic Games"/>
  </node>
  <node id="29261000010" version="1" timestamp="2017-04-30T13:03:17Z" uid="112" user="SomeoneElse" changeset="101472" lat="-25.0008" lon="135.18">
    <tag k="place" v="legend_text"/>
    <tag k="name" v="Skateboard Park"/>
  </node>
  <node id="29261000011" version="1" timestamp="2017-04-30T13:03:17Z" uid="112" user="SomeoneElse" changeset="101472" lat="-25.0008" lon="135.181">
    <tag k="place" v="legend_text"/>
    <tag k="name" v="Athletics"/>
  </node>
  <node id="29261000012" version="1" timestamp="2017-04-30T13:03:17Z" uid="112" user="SomeoneElse" changeset="101472" lat="-25.0008" lon="135.182">
    <tag k="place" v="legend_text"/>
    <tag k="name" v="Netball Court"/>
  </node>
  <node id="29261000013" version="1" timestamp="2017-04-30T13:03:17Z" uid="112" user="SomeoneElse" changeset="101472" lat="-25.0008" lon="135.183">
    <tag k="place" v="legend_text"/>
    <tag k="name" v="Climbing"/>
  </node>
  <node id="29261000014" version="1" timestamp="2017-04-30T13:03:17Z" uid="112" user="SomeoneElse" changeset="101472" lat="-25.0008" lon="135.184">
    <tag k="place" v="legend_text"/>
    <tag k="name" v="Climbing Boulder"/>
  </node>
  <node id="29261000015" version="1" timestamp="2017-04-30T13:03:17Z" uid="112" user="SomeoneElse" changeset="101472" lat="-25.0008" lon="135.185">
    <tag k="place" v="legend_text"/>
    <tag k="name" v="Cycling Area"/>
  </node>
  <node id="29261000016" version="1" timestamp="2017-04-30T13:03:17Z" uid="112" user="SomeoneElse" changeset="101472" lat="-25.0008" lon="135.186">
    <tag k="place" v="legend_text"/>
    <tag k="name" v="Table Tennis Table"/>
  </node>
  <node id="29261000017" version="1" timestamp="2017-04-30T13:03:17Z" uid="112" user="SomeoneElse" changeset="101472" lat="-25.0008" lon="135.187">
    <tag k="place" v="legend_text"/>
    <tag k="name" v="Hockey Pitch"/>
  </node>
  <node id="29261000018" version="1" timestamp="2017-04-30T13:03:17Z" uid="112" user="SomeoneElse" changeset="101472" lat="-25.0008" lon="135.188">
    <tag k="place" v="legend_text"/>
    <tag k="name" v="Shooting Ground"/>
  </node>
  <node id="29261000019" version="1" timestamp="2017-04-30T13:03:17Z" uid="112" user="SomeoneElse" changeset="101472" lat="-25.0008" lon="135.189">
    <tag k="place" v="legend_text"/>
    <tag k="name" v="Boules Court"/>
  </node>
  <node id="29261000020" version="1" timestamp="2017-04-30T13:03:17Z" uid="112" user="SomeoneElse" changeset="101472" lat="-25.0008" lon="135.19">
    <tag k="place" v="legend_text"/>
    <tag k="name" v="Polo Pitch"/>
  </node>
  <node id="29261000021" version="1" timestamp="2017-04-30T13:03:17Z" uid="112" user="SomeoneElse" changeset="101472" lat="-25.0008" lon="135.191">
    <tag k="place" v="legend_text"/>
    <tag k="name" v="Croquet Pitch"/>
  </node>
  <node id="29261000022" version="1" timestamp="2017-04-30T13:03:17Z" uid="112" user="SomeoneElse" changeset="101472" lat="-25.0008" lon="135.192">
    <tag k="place" v="legend_text"/>
    <tag k="name" v="Baseball Pitch"/>
  </node>
  <node id="29261000023" version="1" timestamp="2017-04-30T13:03:17Z" uid="112" user="SomeoneElse" changeset="101472" lat="-25.0008" lon="135.193">
    <tag k="place" v="legend_text"/>
    <tag k="name" v="Chess Board"/>
  </node>
  <node id="29270000001" version="1" timestamp="2017-04-30T13:03:17Z" uid="112" user="SomeoneElse" changeset="101472" lat="-25.002" lon="135.171">
    <tag k="leisure" v="sports_centre"/>
    <tag k="name" v="Name"/>
  </node>
  <node id="29270000002" version="1" timestamp="2017-04-30T13:03:17Z" uid="112" user="SomeoneElse" changeset="101472" lat="-25.002" lon="135.172">
    <tag k="leisure" v="swimming_pool"/>
    <tag k="name" v="Name"/>
  </node>
  <node id="29270000003" version="1" timestamp="2017-04-30T13:03:17Z" uid="112" user="SomeoneElse" changeset="101472" lat="-25.002" lon="135.173">
    <tag k="leisure" v="swimming_area"/>
    <tag k="name" v="Name"/>
  </node>
  <node id="29270000004" version="1" timestamp="2017-04-30T13:03:17Z" uid="112" user="SomeoneElse" changeset="101472" lat="-25.002" lon="135.174">
    <tag k="leisure" v="water_park"/>
    <tag k="name" v="Name"/>
  </node>
  <node id="29270000005" version="1" timestamp="2017-04-30T13:03:17Z" uid="112" user="SomeoneElse" changeset="101472" lat="-25.002" lon="135.175">
    <tag k="leisure" v="ice_rink"/>
    <tag k="name" v="Name"/>
  </node>
  <node id="29270000006" version="1" timestamp="2017-04-30T13:03:17Z" uid="112" user="SomeoneElse" changeset="101472" lat="-25.002" lon="135.176">
    <tag k="leisure" v="stadium"/>
    <tag k="name" v="Name"/>
  </node>
  <node id="29270000007" version="1" timestamp="2017-04-30T13:03:17Z" uid="112" user="SomeoneElse" changeset="101472" lat="-25.002" lon="135.177">
    <tag k="leisure" v="golf_course"/>
    <tag k="name" v="Name"/>
  </node>
  <node id="29270000008" version="1" timestamp="2017-04-30T13:03:17Z" uid="112" user="SomeoneElse" changeset="101472" lat="-25.002" lon="135.178">
    <tag k="golf" v="pin"/>
    <tag k="name" v="Name"/>
  </node>
  <node id="29270000009" version="1" timestamp="2017-04-30T13:03:17Z" uid="112" user="SomeoneElse" changeset="101472" lat="-25.002" lon="135.179">
    <tag k="leisure" v="miniature_golf"/>
    <tag k="name" v="Name"/>
  </node>
  <node id="29270000010" version="1" timestamp="2017-04-30T13:03:17Z" uid="112" user="SomeoneElse" changeset="101472" lat="-25.002" lon="135.18">
    <tag k="golf" v="ball_washer"/>
    <tag k="name" v="Name"/>
  </node>
  <node id="29270000011" version="1" timestamp="2017-04-30T13:03:17Z" uid="112" user="SomeoneElse" changeset="101472" lat="-25.002" lon="135.181">
    <tag k="leisure" v="bowling_alley"/>
    <tag k="name" v="Name"/>
  </node>
  <node id="29270000012" version="1" timestamp="2017-04-30T13:03:17Z" uid="112" user="SomeoneElse" changeset="101472" lat="-25.002" lon="135.182">
    <tag k="leisure" v="recreation_ground"/>
    <tag k="name" v="Name"/>
  </node>
  <node id="29270000013" version="1" timestamp="2017-04-30T13:03:17Z" uid="112" user="SomeoneElse" changeset="101472" lat="-25.002" lon="135.183">
    <tag k="leisure" v="dance"/>
    <tag k="name" v="Name"/>
  </node>
  <node id="29270000014" version="1" timestamp="2017-04-30T13:03:17Z" uid="112" user="SomeoneElse" changeset="101472" lat="-25.002" lon="135.184">
    <tag k="leisure" v="club"/>
    <tag k="name" v="Name"/>
  </node>
  <node id="29270000015" version="1" timestamp="2017-04-30T13:03:17Z" uid="112" user="SomeoneElse" changeset="101472" lat="-25.002" lon="135.185">
    <tag k="leisure" v="fitness_centre"/>
    <tag k="name" v="Name"/>
  </node>
  <node id="29270000016" version="1" timestamp="2017-04-30T13:03:17Z" uid="112" user="SomeoneElse" changeset="101472" lat="-25.002" lon="135.186">
    <tag k="leisure" v="fitness_station"/>
    <tag k="name" v="Name"/>
  </node>
  <node id="29270000017" version="1" timestamp="2017-04-30T13:03:17Z" uid="112" user="SomeoneElse" changeset="101472" lat="-25.002" lon="135.187">
    <tag k="leisure" v="dog_park"/>
    <tag k="name" v="Name"/>
  </node>
  <node id="29270000018" version="1" timestamp="2017-04-30T13:03:17Z" uid="112" user="SomeoneElse" changeset="101472" lat="-25.002" lon="135.188">
    <tag k="leisure" v="sauna"/>
    <tag k="name" v="Name"/>
  </node>
  <node id="29270000019" version="1" timestamp="2017-04-30T13:03:17Z" uid="112" user="SomeoneElse" changeset="101472" lat="-25.002" lon="135.189">
    <tag k="leisure" v="horse_riding"/>
    <tag k="name" v="Name"/>
  </node>
  <node id="29270000020" version="1" timestamp="2017-04-30T13:03:17Z" uid="112" user="SomeoneElse" changeset="101472" lat="-25.002" lon="135.19">
    <tag k="leisure" v="fishing"/>
    <tag k="name" v="Name"/>
  </node>
  <node id="29270000021" version="1" timestamp="2017-04-30T13:03:17Z" uid="112" user="SomeoneElse" changeset="101472" lat="-25.002" lon="135.191">
    <tag k="leisure" v="bandstand"/>
    <tag k="name" v="Name"/>
  </node>
  <node id="29270000022" version="1" timestamp="2017-04-30T13:03:17Z" uid="112" user="SomeoneElse" changeset="101472" lat="-25.002" lon="135.192">
    <tag k="leisure" v="bleachers"/>
    <tag k="name" v="Name"/>
  </node>
  <node id="29271000001" version="1" timestamp="2017-04-30T13:03:17Z" uid="112" user="SomeoneElse" changeset="101472" lat="-25.0018" lon="135.171">
    <tag k="place" v="legend_text"/>
    <tag k="name" v="Sports Centre"/>
  </node>
  <node id="29271000002" version="1" timestamp="2017-04-30T13:03:17Z" uid="112" user="SomeoneElse" changeset="101472" lat="-25.0018" lon="135.172">
    <tag k="place" v="legend_text"/>
    <tag k="name" v="Swimming Pool"/>
  </node>
  <node id="29271000003" version="1" timestamp="2017-04-30T13:03:17Z" uid="112" user="SomeoneElse" changeset="101472" lat="-25.0018" lon="135.173">
    <tag k="place" v="legend_text"/>
    <tag k="name" v="Swimming Area"/>
  </node>
  <node id="29271000004" version="1" timestamp="2017-04-30T13:03:17Z" uid="112" user="SomeoneElse" changeset="101472" lat="-25.0018" lon="135.174">
    <tag k="place" v="legend_text"/>
    <tag k="name" v="Water Park"/>
  </node>
  <node id="29271000005" version="1" timestamp="2017-04-30T13:03:17Z" uid="112" user="SomeoneElse" changeset="101472" lat="-25.0018" lon="135.175">
    <tag k="place" v="legend_text"/>
    <tag k="name" v="Ice Rink"/>
  </node>
  <node id="29271000006" version="1" timestamp="2017-04-30T13:03:17Z" uid="112" user="SomeoneElse" changeset="101472" lat="-25.0018" lon="135.176">
    <tag k="place" v="legend_text"/>
    <tag k="name" v="Stadium"/>
  </node>
  <node id="29271000007" version="1" timestamp="2017-04-30T13:03:17Z" uid="112" user="SomeoneElse" changeset="101472" lat="-25.0018" lon="135.177">
    <tag k="place" v="legend_text"/>
    <tag k="name" v="Golf Course"/>
  </node>
  <node id="29271000008" version="1" timestamp="2017-04-30T13:03:17Z" uid="112" user="SomeoneElse" changeset="101472" lat="-25.0018" lon="135.178">
    <tag k="place" v="legend_text"/>
    <tag k="name" v="Golf Pin"/>
  </node>
  <node id="29271000009" version="1" timestamp="2017-04-30T13:03:17Z" uid="112" user="SomeoneElse" changeset="101472" lat="-25.0018" lon="135.179">
    <tag k="place" v="legend_text"/>
    <tag k="name" v="Mini Golf"/>
  </node>
  <node id="29271000010" version="1" timestamp="2017-04-30T13:03:17Z" uid="112" user="SomeoneElse" changeset="101472" lat="-25.0018" lon="135.18">
    <tag k="place" v="legend_text"/>
    <tag k="name" v="Golf Ball Washer"/>
  </node>
  <node id="29271000011" version="1" timestamp="2017-04-30T13:03:17Z" uid="112" user="SomeoneElse" changeset="101472" lat="-25.0018" lon="135.181">
    <tag k="place" v="legend_text"/>
    <tag k="name" v="Bowling Alley"/>
  </node>
  <node id="29271000012" version="1" timestamp="2017-04-30T13:03:17Z" uid="112" user="SomeoneElse" changeset="101472" lat="-25.0018" lon="135.182">
    <tag k="place" v="legend_text"/>
    <tag k="name" v="Rec. Ground"/>
  </node>
  <node id="29271000013" version="1" timestamp="2017-04-30T13:03:17Z" uid="112" user="SomeoneElse" changeset="101472" lat="-25.0018" lon="135.183">
    <tag k="place" v="legend_text"/>
    <tag k="name" v="Dancing"/>
  </node>
  <node id="29271000014" version="1" timestamp="2017-04-30T13:03:17Z" uid="112" user="SomeoneElse" changeset="101472" lat="-25.0018" lon="135.184">
    <tag k="place" v="legend_text"/>
    <tag k="name" v="Club"/>
  </node>
  <node id="29271000015" version="1" timestamp="2017-04-30T13:03:17Z" uid="112" user="SomeoneElse" changeset="101472" lat="-25.0018" lon="135.185">
    <tag k="place" v="legend_text"/>
    <tag k="name" v="Fitness Centre"/>
  </node>
  <node id="29271000016" version="1" timestamp="2017-04-30T13:03:17Z" uid="112" user="SomeoneElse" changeset="101472" lat="-25.0018" lon="135.186">
    <tag k="place" v="legend_text"/>
    <tag k="name" v="Fitness Station"/>
  </node>
  <node id="29271000017" version="1" timestamp="2017-04-30T13:03:17Z" uid="112" user="SomeoneElse" changeset="101472" lat="-25.0018" lon="135.187">
    <tag k="place" v="legend_text"/>
    <tag k="name" v="Dog Park"/>
  </node>
  <node id="29271000018" version="1" timestamp="2017-04-30T13:03:17Z" uid="112" user="SomeoneElse" changeset="101472" lat="-25.0018" lon="135.188">
    <tag k="place" v="legend_text"/>
    <tag k="name" v="Sauna"/>
  </node>
  <node id="29271000019" version="1" timestamp="2017-04-30T13:03:17Z" uid="112" user="SomeoneElse" changeset="101472" lat="-25.0018" lon="135.189">
    <tag k="place" v="legend_text"/>
    <tag k="name" v="Horse Riding"/>
  </node>
  <node id="29271000020" version="1" timestamp="2017-04-30T13:03:17Z" uid="112" user="SomeoneElse" changeset="101472" lat="-25.0018" lon="135.19">
    <tag k="place" v="legend_text"/>
    <tag k="name" v="Fishing"/>
  </node>
  <node id="29271000021" version="1" timestamp="2017-04-30T13:03:17Z" uid="112" user="SomeoneElse" changeset="101472" lat="-25.0018" lon="135.191">
    <tag k="place" v="legend_text"/>
    <tag k="name" v="Bandstand"/>
  </node>
  <node id="29271000022" version="1" timestamp="2017-04-30T13:03:17Z" uid="112" user="SomeoneElse" changeset="101472" lat="-25.0018" lon="135.192">
    <tag k="place" v="legend_text"/>
    <tag k="name" v="Bleachers"/>
  </node>
  <node id="29280000001" version="1" timestamp="2017-04-30T13:03:17Z" uid="112" user="SomeoneElse" changeset="101472" lat="-25.003" lon="135.171">
    <tag k="barrier" v="gate"/>
    <tag k="name" v="Gate"/>
  </node>
  <node id="29280000002" version="1" timestamp="2017-04-30T13:03:17Z" uid="112" user="SomeoneElse" changeset="101472" lat="-25.003" lon="135.172">
    <tag k="barrier" v="gate"/>
    <tag k="locked" v="yes"/>
    <tag k="name" v="Locked gate"/>
  </node>
  <node id="29280000003" version="1" timestamp="2017-04-30T13:03:17Z" uid="112" user="SomeoneElse" changeset="101472" lat="-25.003" lon="135.173">
    <tag k="barrier" v="stile"/>
    <tag k="name" v="Stile"/>
  </node>
  <node id="29280000004" version="1" timestamp="2017-04-30T13:03:17Z" uid="112" user="SomeoneElse" changeset="101472" lat="-25.003" lon="135.174">
    <tag k="barrier" v="dog_gate_stile"/>
    <tag k="name" v="(with dog gate)"/>
  </node>
  <node id="29280000005" version="1" timestamp="2017-04-30T13:03:17Z" uid="112" user="SomeoneElse" changeset="101472" lat="-25.003" lon="135.175">
    <tag k="barrier" v="bollard"/>
    <tag k="name" v="Bollard"/>
  </node>
  <node id="29280000006" version="1" timestamp="2017-04-30T13:03:17Z" uid="112" user="SomeoneElse" changeset="101472" lat="-25.003" lon="135.176">
    <tag k="barrier" v="kissing_gate"/>
    <tag k="name" v="Kissing Gate"/>
  </node>
  <node id="29280000007" version="1" timestamp="2017-04-30T13:03:17Z" uid="112" user="SomeoneElse" changeset="101472" lat="-25.003" lon="135.177">
    <tag k="barrier" v="cycle_barrier"/>
    <tag k="name" v="Cycle Barrier"/>
  </node>
  <node id="29280000008" version="1" timestamp="2017-04-30T13:03:17Z" uid="112" user="SomeoneElse" changeset="101472" lat="-25.003" lon="135.178">
    <tag k="barrier" v="cattle_grid"/>
    <tag k="name" v="Cattle Grid"/>
  </node>
  <node id="29280000009" version="1" timestamp="2017-04-30T13:03:17Z" uid="112" user="SomeoneElse" changeset="101472" lat="-25.003" lon="135.179">
    <tag k="barrier" v="lift_gate"/>
    <tag k="name" v="Lift Gate"/>
  </node>
  <node id="29280000010" version="1" timestamp="2017-04-30T13:03:17Z" uid="112" user="SomeoneElse" changeset="101472" lat="-25.003" lon="135.18">
    <tag k="barrier" v="door"/>
    <tag k="name" v="Door"/>
  </node>
  <node id="29280000011" version="1" timestamp="2017-04-30T13:03:17Z" uid="112" user="SomeoneElse" changeset="101472" lat="-25.003" lon="135.181">
    <tag k="barrier" v="toll_booth"/>
    <tag k="name" v="Toll Booth"/>
  </node>
  <node id="29280000012" version="1" timestamp="2017-04-30T13:03:17Z" uid="112" user="SomeoneElse" changeset="101472" lat="-25.003" lon="135.182">
    <tag k="highway" v="toll_gantry"/>
    <tag k="name" v="Toll Gantry"/>
  </node>
  <node id="29280000013" version="1" timestamp="2017-04-30T13:03:17Z" uid="112" user="SomeoneElse" changeset="101472" lat="-25.003" lon="135.183">
    <tag k="barrier" v="horse_stile"/>
    <tag k="name" v="Horse Stile"/>
  </node>
  <node id="29280000014" version="1" timestamp="2017-04-30T13:03:17Z" uid="112" user="SomeoneElse" changeset="101472" lat="-25.003" lon="135.184">
    <tag k="barrier" v="border_control"/>
    <tag k="name" v="Border Control"/>
  </node>
  <node id="29280000015" version="1" timestamp="2017-04-30T13:03:17Z" uid="112" user="SomeoneElse" changeset="101472" lat="-25.003" lon="135.185">
    <tag k="barrier" v="bus_trap"/>
    <tag k="name" v="Bus Trap"/>
  </node>
  <node id="29280000016" version="1" timestamp="2017-04-30T13:03:17Z" uid="112" user="SomeoneElse" changeset="101472" lat="-25.003" lon="135.186">
    <tag k="barrier" v="ticket_barrier"/>
    <tag k="name" v="Ticket Barrier"/>
  </node>
  <node id="29280000017" version="1" timestamp="2017-04-30T13:03:17Z" uid="112" user="SomeoneElse" changeset="101472" lat="-25.003" lon="135.187">
    <tag k="entrance" v="main"/>
    <tag k="name" v="Name"/>
  </node>
  <node id="29280000018" version="1" timestamp="2017-04-30T13:03:17Z" uid="112" user="SomeoneElse" changeset="101472" lat="-25.003" lon="135.188">
    <tag k="waterway" v="sluice_gate"/>
    <tag k="name" v="Name"/>
  </node>
  <node id="29280000019" version="1" timestamp="2017-04-30T13:03:17Z" uid="112" user="SomeoneElse" changeset="101472" lat="-25.003" lon="135.189">
    <tag k="waterway" v="lock_gate"/>
    <tag k="name" v="Name"/>
  </node>
  <node id="29281000001" version="1" timestamp="2017-04-30T13:03:17Z" uid="112" user="SomeoneElse" changeset="101472" lat="-25.0028" lon="135.171">
    <tag k="place" v="legend_text"/>
    <tag k="name" v="Barriers"/>
  </node>
  <node id="29281000017" version="1" timestamp="2017-04-30T13:03:17Z" uid="112" user="SomeoneElse" changeset="101472" lat="-25.0028" lon="135.187">
    <tag k="place" v="legend_text"/>
    <tag k="name" v="Main Entrance"/>
  </node>
  <node id="29281000018" version="1" timestamp="2017-04-30T13:03:17Z" uid="112" user="SomeoneElse" changeset="101472" lat="-25.0028" lon="135.188">
    <tag k="place" v="legend_text"/>
    <tag k="name" v="Sluice"/>
  </node>
  <node id="29281000019" version="1" timestamp="2017-04-30T13:03:17Z" uid="112" user="SomeoneElse" changeset="101472" lat="-25.0028" lon="135.189">
    <tag k="place" v="legend_text"/>
    <tag k="name" v="Lock Gate"/>
  </node>
  <node id="29290000001" version="1" timestamp="2017-04-30T13:03:17Z" uid="112" user="SomeoneElse" changeset="101472" lat="-25.004" lon="135.171">
    <tag k="tourism" v="information"/>
    <tag k="name" v="Generic Information"/>
  </node>
  <node id="29290000002" version="1" timestamp="2017-04-30T13:03:17Z" uid="112" user="SomeoneElse" changeset="101472" lat="-25.004" lon="135.172">
    <tag k="tourism" v="information"/>
    <tag k="information" v="board"/>
    <tag k="name" v="Board"/>
  </node>
  <node id="29290000003" version="1" timestamp="2017-04-30T13:03:17Z" uid="112" user="SomeoneElse" changeset="101472" lat="-25.004" lon="135.173">
    <tag k="tourism" v="information"/>
    <tag k="information" v="board"/>
    <tag k="board_type" v="public_transport"/>
    <tag k="name" v="Public Transport"/>
  </node>
  <node id="29290000004" version="1" timestamp="2017-04-30T13:03:17Z" uid="112" user="SomeoneElse" changeset="101472" lat="-25.004" lon="135.174">
    <tag k="tourism" v="information"/>
    <tag k="information" v="sign"/>
    <tag k="name" v="Sign"/>
  </node>
  <node id="29290000005" version="1" timestamp="2017-04-30T13:03:17Z" uid="112" user="SomeoneElse" changeset="101472" lat="-25.004" lon="135.175">
    <tag k="tourism" v="information"/>
    <tag k="information" v="sign"/>
    <tag k="operator:type" v="military"/>
    <tag k="name" v="Military"/>
  </node>
  <node id="29290000006" version="1" timestamp="2017-04-30T13:03:17Z" uid="112" user="SomeoneElse" changeset="101472" lat="-25.004" lon="135.176">
    <tag k="tourism" v="information"/>
    <tag k="information" v="guidepost"/>
    <tag k="name" v="Guidepost"/>
  </node>
  <node id="29290000007" version="1" timestamp="2017-04-30T13:03:17Z" uid="112" user="SomeoneElse" changeset="101472" lat="-25.004" lon="135.177">
    <tag k="tourism" v="information"/>
    <tag k="information" v="guidepost"/>
    <tag k="guidepost_type" v="PROW"/>
    <tag k="name" v="PROW"/>
  </node>
  <node id="29290000008" version="1" timestamp="2017-04-30T13:03:17Z" uid="112" user="SomeoneElse" changeset="101472" lat="-25.004" lon="135.178">
    <tag k="tourism" v="information"/>
    <tag k="information" v="route_marker"/>
    <tag k="name" v="Route marker"/>
  </node>
  <node id="29290000009" version="1" timestamp="2017-04-30T13:03:17Z" uid="112" user="SomeoneElse" changeset="101472" lat="-25.004" lon="135.179">
    <tag k="tourism" v="information"/>
    <tag k="information" v="office"/>
    <tag k="name" v="Office"/>
  </node>
  <node id="29290000010" version="1" timestamp="2017-04-30T13:03:17Z" uid="112" user="SomeoneElse" changeset="101472" lat="-25.004" lon="135.18">
    <tag k="tourism" v="information"/>
    <tag k="information" v="plaque"/>
    <tag k="name" v="Plaque"/>
  </node>
  <node id="29290000011" version="1" timestamp="2017-04-30T13:03:17Z" uid="112" user="SomeoneElse" changeset="101472" lat="-25.004" lon="135.181">
    <tag k="tourism" v="information"/>
    <tag k="information" v="audioguide"/>
    <tag k="name" v="Audioguide"/>
  </node>
  <node id="29290000012" version="1" timestamp="2017-04-30T13:03:17Z" uid="112" user="SomeoneElse" changeset="101472" lat="-25.004" lon="135.182">
    <tag k="tourism" v="information"/>
    <tag k="information" v="artwork"/>
    <tag k="name" v="Artwork"/>
  </node>
  <node id="29290000013" version="1" timestamp="2017-04-30T13:03:17Z" uid="112" user="SomeoneElse" changeset="101472" lat="-25.004" lon="135.183">
    <tag k="tourism" v="information"/>
    <tag k="information" v="stele"/>
    <tag k="name" v="Stele"/>
  </node>
  <node id="29290000014" version="1" timestamp="2017-04-30T13:03:17Z" uid="112" user="SomeoneElse" changeset="101472" lat="-25.004" lon="135.184">
    <tag k="tourism" v="information"/>
    <tag k="operator" v="Peak and Northern Footpaths Society"/>
    <tag k="ref" v="Ref"/>
    <tag k="name" v="PNFS Signpost"/>
  </node>
  <node id="29290000015" version="1" timestamp="2017-04-30T13:03:17Z" uid="112" user="SomeoneElse" changeset="101472" lat="-25.004" lon="135.185">
    <tag k="ncn_milepost" v="dudgeon"/>
    <tag k="sustrans_ref" v="Dudgeon"/>
  </node>
  <node id="29290000016" version="1" timestamp="2017-04-30T13:03:17Z" uid="112" user="SomeoneElse" changeset="101472" lat="-25.004" lon="135.186">
    <tag k="ncn_milepost" v="mccoll"/>
    <tag k="sustrans_ref" v="McColl"/>
  </node>
  <node id="29290000017" version="1" timestamp="2017-04-30T13:03:17Z" uid="112" user="SomeoneElse" changeset="101472" lat="-25.004" lon="135.187">
    <tag k="ncn_milepost" v="mills"/>
    <tag k="sustrans_ref" v="Mills"/>
  </node>
  <node id="29290000018" version="1" timestamp="2017-04-30T13:03:17Z" uid="112" user="SomeoneElse" changeset="101472" lat="-25.004" lon="135.188">
    <tag k="ncn_milepost" v="rowe"/>
    <tag k="sustrans_ref" v="Rowe"/>
  </node>
  <node id="29290000019" version="1" timestamp="2017-04-30T13:03:17Z" uid="112" user="SomeoneElse" changeset="101472" lat="-25.004" lon="135.189">
    <tag k="ncn_milepost" v="yes"/>
    <tag k="sustrans_ref" v="Unknown"/>
  </node>
  <node id="29291000001" version="1" timestamp="2017-04-30T13:03:17Z" uid="112" user="SomeoneElse" changeset="101472" lat="-25.0038" lon="135.171">
    <tag k="place" v="legend_text"/>
    <tag k="name" v="Tourist Information"/>
  </node>
  <node id="29291000015" version="1" timestamp="2017-04-30T13:03:17Z" uid="112" user="SomeoneElse" changeset="101472" lat="-25.0038" lon="135.185">
    <tag k="place" v="legend_text"/>
    <tag k="name" v="Sustrans markers"/>
  </node>
  <node id="29300000001" version="1" timestamp="2017-04-30T13:03:17Z" uid="112" user="SomeoneElse" changeset="101472" lat="-25.005" lon="135.171">
    <tag k="amenity" v="place_of_worship"/>
    <tag k="religion" v="christian"/>
    <tag k="name" v="Christian"/>
  </node>
  <node id="29300000002" version="1" timestamp="2017-04-30T13:03:17Z" uid="112" user="SomeoneElse" changeset="101472" lat="-25.005" lon="135.172">
    <tag k="amenity" v="place_of_worship"/>
    <tag k="religion" v="muslim"/>
    <tag k="name" v="Muslim"/>
  </node>
  <node id="29300000003" version="1" timestamp="2017-04-30T13:03:17Z" uid="112" user="SomeoneElse" changeset="101472" lat="-25.005" lon="135.173">
    <tag k="amenity" v="place_of_worship"/>
    <tag k="religion" v="hindu"/>
    <tag k="name" v="Hindu"/>
  </node>
  <node id="29300000004" version="1" timestamp="2017-04-30T13:03:17Z" uid="112" user="SomeoneElse" changeset="101472" lat="-25.005" lon="135.174">
    <tag k="amenity" v="place_of_worship"/>
    <tag k="religion" v="sikh"/>
    <tag k="name" v="Sikh"/>
  </node>
  <node id="29300000005" version="1" timestamp="2017-04-30T13:03:17Z" uid="112" user="SomeoneElse" changeset="101472" lat="-25.005" lon="135.175">
    <tag k="amenity" v="place_of_worship"/>
    <tag k="religion" v="jewish"/>
    <tag k="name" v="Jewish"/>
  </node>
  <node id="29300000006" version="1" timestamp="2017-04-30T13:03:17Z" uid="112" user="SomeoneElse" changeset="101472" lat="-25.005" lon="135.176">
    <tag k="amenity" v="place_of_worship"/>
    <tag k="religion" v="buddhist"/>
    <tag k="name" v="Buddhist"/>
  </node>
  <node id="29300000007" version="1" timestamp="2017-04-30T13:03:17Z" uid="112" user="SomeoneElse" changeset="101472" lat="-25.005" lon="135.177">
    <tag k="amenity" v="place_of_worship"/>
    <tag k="religion" v="shinto"/>
    <tag k="name" v="Shinto"/>
  </node>
  <node id="29300000008" version="1" timestamp="2017-04-30T13:03:17Z" uid="112" user="SomeoneElse" changeset="101472" lat="-25.005" lon="135.178">
    <tag k="amenity" v="place_of_worship"/>
    <tag k="religion" v="taoist"/>
    <tag k="name" v="Taoist"/>
  </node>
  <node id="29300000009" version="1" timestamp="2017-04-30T13:03:17Z" uid="112" user="SomeoneElse" changeset="101472" lat="-25.005" lon="135.179">
    <tag k="place_of_worship" v="holy_well"/>
    <tag k="man_made" v="water_well"/>
    <tag k="name" v="Holy Well"/>
  </node>
  <node id="29300000010" version="1" timestamp="2017-04-30T13:03:17Z" uid="112" user="SomeoneElse" changeset="101472" lat="-25.005" lon="135.18">
    <tag k="place_of_worship" v="holy_well"/>
    <tag k="natural" v="spring"/>
    <tag k="name" v="Holy Spring"/>
  </node>
  <node id="29300000011" version="1" timestamp="2017-04-30T13:03:17Z" uid="112" user="SomeoneElse" changeset="101472" lat="-25.005" lon="135.181">
    <tag k="amenity" v="monastery"/>
    <tag k="name" v="Monastery"/>
  </node>
  <node id="29300000012" version="1" timestamp="2017-04-30T13:03:17Z" uid="112" user="SomeoneElse" changeset="101472" lat="-25.005" lon="135.182">
    <tag k="man_made" v="cross"/>
    <tag k="name" v="Cross"/>
  </node>
  <node id="29301000001" version="1" timestamp="2017-04-30T13:03:17Z" uid="112" user="SomeoneElse" changeset="101472" lat="-25.0048" lon="135.171">
    <tag k="place" v="legend_text"/>
    <tag k="name" v="Places of Worship etc."/>
  </node>
  <node id="29310000001" version="1" timestamp="2017-04-30T13:03:17Z" uid="112" user="SomeoneElse" changeset="101472" lat="-25.006" lon="135.171">
    <tag k="amenity" v="post_office"/>
    <tag k="name" v="Name"/>
  </node>
  <node id="29310000002" version="1" timestamp="2017-04-30T13:03:17Z" uid="112" user="SomeoneElse" changeset="101472" lat="-25.006" lon="135.172">
    <tag k="amenity" v="fire_station"/>
    <tag k="name" v="Name"/>
  </node>
  <node id="29310000003" version="1" timestamp="2017-04-30T13:03:17Z" uid="112" user="SomeoneElse" changeset="101472" lat="-25.006" lon="135.173">
    <tag k="amenity" v="police"/>
    <tag k="name" v="Name"/>
  </node>
  <node id="29310000004" version="1" timestamp="2017-04-30T13:03:17Z" uid="112" user="SomeoneElse" changeset="101472" lat="-25.006" lon="135.174">
    <tag k="amenity" v="embassy"/>
    <tag k="name" v="Name"/>
  </node>
  <node id="29310000005" version="1" timestamp="2017-04-30T13:03:17Z" uid="112" user="SomeoneElse" changeset="101472" lat="-25.006" lon="135.175">
    <tag k="amenity" v="courthouse"/>
    <tag k="name" v="Name"/>
  </node>
  <node id="29310000006" version="1" timestamp="2017-04-30T13:03:17Z" uid="112" user="SomeoneElse" changeset="101472" lat="-25.006" lon="135.176">
    <tag k="amenity" v="prison"/>
    <tag k="name" v="Name"/>
  </node>
  <node id="29310000007" version="1" timestamp="2017-04-30T13:03:17Z" uid="112" user="SomeoneElse" changeset="101472" lat="-25.006" lon="135.177">
    <tag k="office" v="government"/>
    <tag k="name" v="Name"/>
  </node>
  <node id="29311000001" version="1" timestamp="2017-04-30T13:03:17Z" uid="112" user="SomeoneElse" changeset="101472" lat="-25.0058" lon="135.171">
    <tag k="place" v="legend_text"/>
    <tag k="name" v="Post Office"/>
  </node>
  <node id="29311000002" version="1" timestamp="2017-04-30T13:03:17Z" uid="112" user="SomeoneElse" changeset="101472" lat="-25.0058" lon="135.172">
    <tag k="place" v="legend_text"/>
    <tag k="name" v="Fire"/>
  </node>
  <node id="29311000003" version="1" timestamp="2017-04-30T13:03:17Z" uid="112" user="SomeoneElse" changeset="101472" lat="-25.0058" lon="135.173">
    <tag k="place" v="legend_text"/>
    <tag k="name" v="Police"/>
  </node>
  <node id="29311000004" version="1" timestamp="2017-04-30T13:03:17Z" uid="112" user="SomeoneElse" changeset="101472" lat="-25.0058" lon="135.174">
    <tag k="place" v="legend_text"/>
    <tag k="name" v="Embassy"/>
  </node>
  <node id="29311000005" version="1" timestamp="2017-04-30T13:03:17Z" uid="112" user="SomeoneElse" changeset="101472" lat="-25.0058" lon="135.175">
    <tag k="place" v="legend_text"/>
    <tag k="name" v="Courthouse"/>
  </node>
  <node id="29311000006" version="1" timestamp="2017-04-30T13:03:17Z" uid="112" user="SomeoneElse" changeset="101472" lat="-25.0058" lon="135.176">
    <tag k="place" v="legend_text"/>
    <tag k="name" v="Prison"/>
  </node>
  <node id="29311000007" version="1" timestamp="2017-04-30T13:03:17Z" uid="112" user="SomeoneElse" changeset="101472" lat="-25.0058" lon="135.177">
    <tag k="place" v="legend_text"/>
    <tag k="name" v="Other"/>
  </node>
  <node id="29320000001" version="1" timestamp="2017-04-30T13:03:17Z" uid="112" user="SomeoneElse" changeset="101472" lat="-25.007" lon="135.171">
    <tag k="amenity" v="bank"/>
    <tag k="name" v="Name"/>
  </node>
  <node id="29320000002" version="1" timestamp="2017-04-30T13:03:17Z" uid="112" user="SomeoneElse" changeset="101472" lat="-25.007" lon="135.172">
    <tag k="amenity" v="atm"/>
    <tag k="operator" v="Operator"/>
  </node>
  <node id="29321000001" version="1" timestamp="2017-04-30T13:03:17Z" uid="112" user="SomeoneElse" changeset="101472" lat="-25.0068" lon="135.171">
    <tag k="place" v="legend_text"/>
    <tag k="name" v="Bank / Building Society"/>
  </node>
  <node id="29321000002" version="1" timestamp="2017-04-30T13:03:17Z" uid="112" user="SomeoneElse" changeset="101472" lat="-25.0068" lon="135.172">
    <tag k="place" v="legend_text"/>
    <tag k="name" v="ATM"/>
  </node>
  <node id="29330000001" version="1" timestamp="2017-04-30T13:03:17Z" uid="112" user="SomeoneElse" changeset="101472" lat="-25.008" lon="135.171">
    <tag k="amenity" v="university"/>
    <tag k="name" v="Name"/>
  </node>
  <node id="29330000002" version="1" timestamp="2017-04-30T13:03:17Z" uid="112" user="SomeoneElse" changeset="101472" lat="-25.008" lon="135.172">
    <tag k="amenity" v="school"/>
    <tag k="name" v="Name"/>
  </node>
  <node id="29330000003" version="1" timestamp="2017-04-30T13:03:17Z" uid="112" user="SomeoneElse" changeset="101472" lat="-25.008" lon="135.173">
    <tag k="amenity" v="kindergarten"/>
    <tag k="name" v="Name"/>
  </node>
  <node id="29331000001" version="1" timestamp="2017-04-30T13:03:17Z" uid="112" user="SomeoneElse" changeset="101472" lat="-25.0078" lon="135.171">
    <tag k="place" v="legend_text"/>
    <tag k="name" v="University"/>
  </node>
  <node id="29331000002" version="1" timestamp="2017-04-30T13:03:17Z" uid="112" user="SomeoneElse" changeset="101472" lat="-25.0078" lon="135.172">
    <tag k="place" v="legend_text"/>
    <tag k="name" v="School / College"/>
  </node>
  <node id="29331000003" version="1" timestamp="2017-04-30T13:03:17Z" uid="112" user="SomeoneElse" changeset="101472" lat="-25.0078" lon="135.173">
    <tag k="place" v="legend_text"/>
    <tag k="name" v="Kindergarten"/>
  </node>
  <node id="29340000001" version="1" timestamp="2017-04-30T13:03:17Z" uid="112" user="SomeoneElse" changeset="101472" lat="-25.009" lon="135.171">
    <tag k="tourism" v="viewpoint"/>
    <tag k="name" v="Name"/>
  </node>
  <node id="29340000002" version="1" timestamp="2017-04-30T13:03:17Z" uid="112" user="SomeoneElse" changeset="101472" lat="-25.009" lon="135.172">
    <tag k="tourism" v="artwork"/>
    <tag k="name" v="Name"/>
  </node>
  <node id="29340000003" version="1" timestamp="2017-04-30T13:03:17Z" uid="112" user="SomeoneElse" changeset="101472" lat="-25.009" lon="135.173">
    <tag k="amenity" v="fountain"/>
    <tag k="name" v="Name"/>
  </node>
  <node id="29340000004" version="1" timestamp="2017-04-30T13:03:17Z" uid="112" user="SomeoneElse" changeset="101472" lat="-25.009" lon="135.174">
    <tag k="advertising" v="column"/>
    <tag k="name" v="Name"/>
  </node>
  <node id="29340000005" version="1" timestamp="2017-04-30T13:03:17Z" uid="112" user="SomeoneElse" changeset="101472" lat="-25.009" lon="135.175">
    <tag k="amenity" v="sundial"/>
    <tag k="name" v="Name"/>
  </node>
  <node id="29340000006" version="1" timestamp="2017-04-30T13:03:17Z" uid="112" user="SomeoneElse" changeset="101472" lat="-25.009" lon="135.176">
    <tag k="amenity" v="post_box"/>
    <tag k="name" v="Name"/>
  </node>
  <node id="29340000007" version="1" timestamp="2017-04-30T13:03:17Z" uid="112" user="SomeoneElse" changeset="101472" lat="-25.009" lon="135.177">
    <tag k="amenity" v="telephone"/>
    <tag k="name" v="Name"/>
  </node>
  <node id="29340000008" version="1" timestamp="2017-04-30T13:03:17Z" uid="112" user="SomeoneElse" changeset="101472" lat="-25.009" lon="135.178">
    <tag k="amenity" v="shopmobility"/>
    <tag k="name" v="Name"/>
  </node>
  <node id="29340000009" version="1" timestamp="2017-04-30T13:03:17Z" uid="112" user="SomeoneElse" changeset="101472" lat="-25.009" lon="135.179">
    <tag k="amenity" v="public_bookcase"/>
    <tag k="name" v="Name"/>
  </node>
  <node id="29340000010" version="1" timestamp="2017-04-30T13:03:17Z" uid="112" user="SomeoneElse" changeset="101472" lat="-25.009" lon="135.18">
    <tag k="amenity" v="left_luggage"/>
    <tag k="name" v="Name"/>
  </node>
  <node id="29340000011" version="1" timestamp="2017-04-30T13:03:17Z" uid="112" user="SomeoneElse" changeset="101472" lat="-25.009" lon="135.181">
    <tag k="amenity" v="parcel_locker"/>
    <tag k="name" v="Operator"/>
  </node>
  <node id="29340000012" version="1" timestamp="2017-04-30T13:03:17Z" uid="112" user="SomeoneElse" changeset="101472" lat="-25.009" lon="135.182">
    <tag k="amenity" v="vending_machine"/>
    <tag k="name" v="Name"/>
  </node>
  <node id="29340000013" version="1" timestamp="2017-04-30T13:03:17Z" uid="112" user="SomeoneElse" changeset="101472" lat="-25.009" lon="135.183">
    <tag k="amenity" v="vending_machine"/>
    <tag k="vending" v="excrement_bags"/>
    <tag k="name" v="Name"/>
  </node>
  <node id="29340000014" version="1" timestamp="2017-04-30T13:03:17Z" uid="112" user="SomeoneElse" changeset="101472" lat="-25.009" lon="135.184">
    <tag k="amenity" v="vending_machine"/>
    <tag k="vending" v="bottle_return"/>
    <tag k="name" v="Name"/>
  </node>
  <node id="29340000015" version="1" timestamp="2017-04-30T13:03:17Z" uid="112" user="SomeoneElse" changeset="101472" lat="-25.009" lon="135.185">
    <tag k="amenity" v="musical_instrument"/>
    <tag k="name" v="Name"/>
  </node>
  <node id="29340000016" version="1" timestamp="2017-04-30T13:03:17Z" uid="112" user="SomeoneElse" changeset="101472" lat="-25.009" lon="135.186">
    <tag k="amenity" v="recycling"/>
    <tag k="recycling_type" v="centre"/>
    <tag k="name" v="Name"/>
  </node>
  <node id="29340000017" version="1" timestamp="2017-04-30T13:03:17Z" uid="112" user="SomeoneElse" changeset="101472" lat="-25.009" lon="135.187">
    <tag k="amenity" v="recycling"/>
    <tag k="name" v="Name"/>
  </node>
  <node id="29340000018" version="1" timestamp="2017-04-30T13:03:17Z" uid="112" user="SomeoneElse" changeset="101472" lat="-25.009" lon="135.188">
    <tag k="amenity" v="waste_basket"/>
    <tag k="name" v="Name"/>
  </node>
  <node id="29340000019" version="1" timestamp="2017-04-30T13:03:17Z" uid="112" user="SomeoneElse" changeset="101472" lat="-25.009" lon="135.189">
    <tag k="amenity" v="waste_disposal"/>
    <tag k="name" v="Name"/>
  </node>
  <node id="29340000020" version="1" timestamp="2017-04-30T13:03:17Z" uid="112" user="SomeoneElse" changeset="101472" lat="-25.009" lon="135.19">
    <tag k="amenity" v="grit_bin"/>
    <tag k="name" v="Name"/>
  </node>
  <node id="29340000021" version="1" timestamp="2017-04-30T13:03:17Z" uid="112" user="SomeoneElse" changeset="101472" lat="-25.009" lon="135.191">
    <tag k="amenity" v="bench"/>
    <tag k="name" v="Name"/>
  </node>
  <node id="29340000022" version="1" timestamp="2017-04-30T13:03:17Z" uid="112" user="SomeoneElse" changeset="101472" lat="-25.009" lon="135.192">
    <tag k="amenity" v="drinking_water"/>
    <tag k="name" v="Name"/>
  </node>
  <node id="29340000023" version="1" timestamp="2017-04-30T13:03:17Z" uid="112" user="SomeoneElse" changeset="101472" lat="-25.009" lon="135.193">
    <tag k="amenity" v="nondrinking_water"/>
    <tag k="name" v="Name"/>
  </node>
  <node id="29340000024" version="1" timestamp="2017-04-30T13:03:17Z" uid="112" user="SomeoneElse" changeset="101472" lat="-25.009" lon="135.194">
    <tag k="man_made" v="water_well"/>
    <tag k="name" v="Name"/>
  </node>
  <node id="29340000025" version="1" timestamp="2017-04-30T13:03:17Z" uid="112" user="SomeoneElse" changeset="101472" lat="-25.009" lon="135.195">
    <tag k="man_made" v="outfall"/>
    <tag k="name" v="Name"/>
  </node>
  <node id="29341000001" version="1" timestamp="2017-04-30T13:03:17Z" uid="112" user="SomeoneElse" changeset="101472" lat="-25.0088" lon="135.171">
    <tag k="place" v="legend_text"/>
    <tag k="name" v="Viewpoint"/>
  </node>
  <node id="29341000002" version="1" timestamp="2017-04-30T13:03:17Z" uid="112" user="SomeoneElse" changeset="101472" lat="-25.0088" lon="135.172">
    <tag k="place" v="legend_text"/>
    <tag k="name" v="Artwork"/>
  </node>
  <node id="29341000003" version="1" timestamp="2017-04-30T13:03:17Z" uid="112" user="SomeoneElse" changeset="101472" lat="-25.0088" lon="135.173">
    <tag k="place" v="legend_text"/>
    <tag k="name" v="Fountain"/>
  </node>
  <node id="29341000004" version="1" timestamp="2017-04-30T13:03:17Z" uid="112" user="SomeoneElse" changeset="101472" lat="-25.0088" lon="135.174">
    <tag k="place" v="legend_text"/>
    <tag k="name" v="Advertising"/>
  </node>
  <node id="29341000005" version="1" timestamp="2017-04-30T13:03:17Z" uid="112" user="SomeoneElse" changeset="101472" lat="-25.0088" lon="135.175">
    <tag k="place" v="legend_text"/>
    <tag k="name" v="Sundial"/>
  </node>
  <node id="29341000006" version="1" timestamp="2017-04-30T13:03:17Z" uid="112" user="SomeoneElse" changeset="101472" lat="-25.0088" lon="135.176">
    <tag k="place" v="legend_text"/>
    <tag k="name" v="Postbox"/>
  </node>
  <node id="29341000007" version="1" timestamp="2017-04-30T13:03:17Z" uid="112" user="SomeoneElse" changeset="101472" lat="-25.0088" lon="135.177">
    <tag k="place" v="legend_text"/>
    <tag k="name" v="Telephone"/>
  </node>
  <node id="29341000008" version="1" timestamp="2017-04-30T13:03:17Z" uid="112" user="SomeoneElse" changeset="101472" lat="-25.0088" lon="135.178">
    <tag k="place" v="legend_text"/>
    <tag k="name" v="Shopmobility"/>
  </node>
  <node id="29341000009" version="1" timestamp="2017-04-30T13:03:17Z" uid="112" user="SomeoneElse" changeset="101472" lat="-25.0088" lon="135.179">
    <tag k="place" v="legend_text"/>
    <tag k="name" v="Public Bookcase"/>
  </node>
  <node id="29341000010" version="1" timestamp="2017-04-30T13:03:17Z" uid="112" user="SomeoneElse" changeset="101472" lat="-25.0088" lon="135.18">
    <tag k="place" v="legend_text"/>
    <tag k="name" v="Left Luggage"/>
  </node>
  <node id="29341000011" version="1" timestamp="2017-04-30T13:03:17Z" uid="112" user="SomeoneElse" changeset="101472" lat="-25.0088" lon="135.181">
    <tag k="place" v="legend_text"/>
    <tag k="name" v="Parcel Locker"/>
  </node>
  <node id="29341000012" version="1" timestamp="2017-04-30T13:03:17Z" uid="112" user="SomeoneElse" changeset="101472" lat="-25.0088" lon="135.182">
    <tag k="place" v="legend_text"/>
    <tag k="name" v="Vending Machine"/>
  </node>
  <node id="29341000013" version="1" timestamp="2017-04-30T13:03:17Z" uid="112" user="SomeoneElse" changeset="101472" lat="-25.0088" lon="135.183">
    <tag k="place" v="legend_text"/>
    <tag k="name" v="Poo bags"/>
  </node>
  <node id="29341000014" version="1" timestamp="2017-04-30T13:03:17Z" uid="112" user="SomeoneElse" changeset="101472" lat="-25.0088" lon="135.184">
    <tag k="place" v="legend_text"/>
    <tag k="name" v="Bottle Return"/>
  </node>
  <node id="29341000015" version="1" timestamp="2017-04-30T13:03:17Z" uid="112" user="SomeoneElse" changeset="101472" lat="-25.0088" lon="135.185">
    <tag k="place" v="legend_text"/>
    <tag k="name" v="Musical Instrument"/>
  </node>
  <node id="29341000016" version="1" timestamp="2017-04-30T13:03:17Z" uid="112" user="SomeoneElse" changeset="101472" lat="-25.0088" lon="135.186">
    <tag k="place" v="legend_text"/>
    <tag k="name" v="Recycling Centre"/>
  </node>
  <node id="29341000017" version="1" timestamp="2017-04-30T13:03:17Z" uid="112" user="SomeoneElse" changeset="101472" lat="-25.0088" lon="135.187">
    <tag k="place" v="legend_text"/>
    <tag k="name" v="Recycling bin"/>
  </node>
  <node id="29341000018" version="1" timestamp="2017-04-30T13:03:17Z" uid="112" user="SomeoneElse" changeset="101472" lat="-25.0088" lon="135.188">
    <tag k="place" v="legend_text"/>
    <tag k="name" v="Waste bin"/>
  </node>
  <node id="29341000019" version="1" timestamp="2017-04-30T13:03:17Z" uid="112" user="SomeoneElse" changeset="101472" lat="-25.0088" lon="135.189">
    <tag k="place" v="legend_text"/>
    <tag k="name" v="Large waste bin"/>
  </node>
  <node id="29341000020" version="1" timestamp="2017-04-30T13:03:17Z" uid="112" user="SomeoneElse" changeset="101472" lat="-25.0088" lon="135.19">
    <tag k="place" v="legend_text"/>
    <tag k="name" v="Grit bin"/>
  </node>
  <node id="29341000021" version="1" timestamp="2017-04-30T13:03:17Z" uid="112" user="SomeoneElse" changeset="101472" lat="-25.0088" lon="135.191">
    <tag k="place" v="legend_text"/>
    <tag k="name" v="Bench"/>
  </node>
  <node id="29341000022" version="1" timestamp="2017-04-30T13:03:17Z" uid="112" user="SomeoneElse" changeset="101472" lat="-25.0088" lon="135.192">
    <tag k="place" v="legend_text"/>
    <tag k="name" v="Drinking water"/>
  </node>
  <node id="29341000023" version="1" timestamp="2017-04-30T13:03:17Z" uid="112" user="SomeoneElse" changeset="101472" lat="-25.0088" lon="135.193">
    <tag k="place" v="legend_text"/>
    <tag k="name" v="Non-drinking water"/>
  </node>
  <node id="29341000024" version="1" timestamp="2017-04-30T13:03:17Z" uid="112" user="SomeoneElse" changeset="101472" lat="-25.0088" lon="135.194">
    <tag k="place" v="legend_text"/>
    <tag k="name" v="Well"/>
  </node>
  <node id="29341000025" version="1" timestamp="2017-04-30T13:03:17Z" uid="112" user="SomeoneElse" changeset="101472" lat="-25.0088" lon="135.195">
    <tag k="place" v="legend_text"/>
    <tag k="name" v="Outfall"/>
  </node>
  <node id="29350000001" version="1" timestamp="2017-04-30T13:03:17Z" uid="112" user="SomeoneElse" changeset="101472" lat="-25.01" lon="135.171">
    <tag k="historic" v="archaeological_site"/>
    <tag k="name" v="Name"/>
  </node>
  <node id="29350000002" version="1" timestamp="2017-04-30T13:03:17Z" uid="112" user="SomeoneElse" changeset="101472" lat="-25.01" lon="135.172">
    <tag k="geological" v="palaeontological_site"/>
    <tag k="name" v="Name"/>
  </node>
  <node id="29350000003" version="1" timestamp="2017-04-30T13:03:17Z" uid="112" user="SomeoneElse" changeset="101472" lat="-25.01" lon="135.173">
    <tag k="historic" v="archaeological_site"/>
    <tag k="archaeological_site" v="fortification"/>
    <tag k="name" v="Name"/>
  </node>
  <node id="29350000004" version="1" timestamp="2017-04-30T13:03:17Z" uid="112" user="SomeoneElse" changeset="101472" lat="-25.01" lon="135.174">
    <tag k="historic" v="archaeological_site"/>
    <tag k="archaeological_site" v="fortification"/>
    <tag k="fortification_type" v="ringfort"/>
    <tag k="name" v="Name"/>
  </node>
  <node id="29350000005" version="1" timestamp="2017-04-30T13:03:17Z" uid="112" user="SomeoneElse" changeset="101472" lat="-25.01" lon="135.175">
    <tag k="historic" v="archaeological_site"/>
    <tag k="archaeological_site" v="fortification"/>
    <tag k="fortification_type" v="hill_fort"/>
    <tag k="name" v="Name"/>
  </node>
  <node id="29350000006" version="1" timestamp="2017-04-30T13:03:17Z" uid="112" user="SomeoneElse" changeset="101472" lat="-25.01" lon="135.176">
    <tag k="historic" v="archaeological_site"/>
    <tag k="archaeological_site" v="fortification"/>
    <tag k="fortification_type" v="motte"/>
    <tag k="name" v="Name"/>
  </node>
  <node id="29350000007" version="1" timestamp="2017-04-30T13:03:17Z" uid="112" user="SomeoneElse" changeset="101472" lat="-25.01" lon="135.177">
    <tag k="historic" v="archaeological_site"/>
    <tag k="archaeological_site" v="fortification"/>
    <tag k="fortification_type" v="castle"/>
    <tag k="name" v="Name"/>
  </node>
  <node id="29350000008" version="1" timestamp="2017-04-30T13:03:17Z" uid="112" user="SomeoneElse" changeset="101472" lat="-25.01" lon="135.178">
    <tag k="historic" v="archaeological_site"/>
    <tag k="archaeological_site" v="fortification"/>
    <tag k="fortification_type" v="promontory_fort"/>
    <tag k="name" v="Name"/>
  </node>
  <node id="29350000009" version="1" timestamp="2017-04-30T13:03:17Z" uid="112" user="SomeoneElse" changeset="101472" lat="-25.01" lon="135.179">
    <tag k="historic" v="archaeological_site"/>
    <tag k="archaeological_site" v="crannog"/>
    <tag k="name" v="Name"/>
  </node>
  <node id="29350000010" version="1" timestamp="2017-04-30T13:03:17Z" uid="112" user="SomeoneElse" changeset="101472" lat="-25.01" lon="135.18">
    <tag k="historic" v="archaeological_site"/>
    <tag k="archaeological_site" v="tumulus"/>
    <tag k="name" v="Name"/>
  </node>
  <node id="29350000011" version="1" timestamp="2017-04-30T13:03:17Z" uid="112" user="SomeoneElse" changeset="101472" lat="-25.01" lon="135.181">
    <tag k="historic" v="stone"/>
    <tag k="name" v="Name"/>
  </node>
  <node id="29350000012" version="1" timestamp="2017-04-30T13:03:17Z" uid="112" user="SomeoneElse" changeset="101472" lat="-25.01" lon="135.182">
    <tag k="historic" v="standing_stone"/>
    <tag k="name" v="Name"/>
  </node>
  <node id="29350000013" version="1" timestamp="2017-04-30T13:03:17Z" uid="112" user="SomeoneElse" changeset="101472" lat="-25.01" lon="135.183">
    <tag k="historic" v="archaeological_site"/>
    <tag k="archaeological_site" v="megalith"/>
    <tag k="megalith_type" v="stone_circle"/>
    <tag k="name" v="Name"/>
  </node>
  <node id="29350000014" version="1" timestamp="2017-04-30T13:03:17Z" uid="112" user="SomeoneElse" changeset="101472" lat="-25.01" lon="135.184">
    <tag k="historic" v="archaeological_site"/>
    <tag k="archaeological_site" v="megalith"/>
    <tag k="megalith_type" v="dolmen"/>
    <tag k="name" v="Name"/>
  </node>
  <node id="29350000015" version="1" timestamp="2017-04-30T13:03:17Z" uid="112" user="SomeoneElse" changeset="101472" lat="-25.01" lon="135.185">
    <tag k="historic" v="archaeological_site"/>
    <tag k="archaeological_site" v="megalith"/>
    <tag k="megalith_type" v="stone_row"/>
    <tag k="name" v="Name"/>
  </node>
  <node id="29350000016" version="1" timestamp="2017-04-30T13:03:17Z" uid="112" user="SomeoneElse" changeset="101472" lat="-25.01" lon="135.186">
    <tag k="historic" v="ogham_stone"/>
    <tag k="stone_type" v="ogham_stone"/>
    <tag k="name" v="Name"/>
  </node>
  <node id="29350000017" version="1" timestamp="2017-04-30T13:03:17Z" uid="112" user="SomeoneElse" changeset="101472" lat="-25.01" lon="135.187">
    <tag k="historic" v="rune_stone"/>
    <tag k="name" v="Name"/>
  </node>
  <node id="29350000018" version="1" timestamp="2017-04-30T13:03:17Z" uid="112" user="SomeoneElse" changeset="101472" lat="-25.01" lon="135.188">
    <tag k="place_of_worship" v="mass_rock"/>
    <tag k="name" v="Name"/>
  </node>
  <node id="29350000019" version="1" timestamp="2017-04-30T13:03:17Z" uid="112" user="SomeoneElse" changeset="101472" lat="-25.01" lon="135.189">
    <tag k="historic" v="mineshaft"/>
    <tag k="name" v="Name"/>
  </node>
  <node id="29350000020" version="1" timestamp="2017-04-30T13:03:17Z" uid="112" user="SomeoneElse" changeset="101472" lat="-25.01" lon="135.19">
    <tag k="historic" v="castle"/>
    <tag k="name" v="Name"/>
  </node>
  <node id="29350000021" version="1" timestamp="2017-04-30T13:03:17Z" uid="112" user="SomeoneElse" changeset="101472" lat="-25.01" lon="135.191">
    <tag k="historic" v="folly"/>
    <tag k="name" v="Name"/>
  </node>
  <node id="29350000022" version="1" timestamp="2017-04-30T13:03:17Z" uid="112" user="SomeoneElse" changeset="101472" lat="-25.01" lon="135.192">
    <tag k="historic" v="martello_tower"/>
    <tag k="name" v="Name"/>
  </node>
  <node id="29350000023" version="1" timestamp="2017-04-30T13:03:17Z" uid="112" user="SomeoneElse" changeset="101472" lat="-25.01" lon="135.193">
    <tag k="historic" v="manor"/>
    <tag k="name" v="Name"/>
  </node>
  <node id="29350000024" version="1" timestamp="2017-04-30T13:03:17Z" uid="112" user="SomeoneElse" changeset="101472" lat="-25.01" lon="135.194">
    <tag k="historic" v="monastery"/>
    <tag k="name" v="Name"/>
  </node>
  <node id="29350000025" version="1" timestamp="2017-04-30T13:03:17Z" uid="112" user="SomeoneElse" changeset="101472" lat="-25.01" lon="135.195">
    <tag k="historic" v="city_gate"/>
    <tag k="name" v="Name"/>
  </node>
  <node id="29350000026" version="1" timestamp="2017-04-30T13:03:17Z" uid="112" user="SomeoneElse" changeset="101472" lat="-25.01" lon="135.196">
    <tag k="historic" v="battlefield"/>
    <tag k="name" v="Name"/>
  </node>
  <node id="29350000027" version="1" timestamp="2017-04-30T13:03:17Z" uid="112" user="SomeoneElse" changeset="101472" lat="-25.01" lon="135.197">
    <tag k="historic" v="cannon"/>
    <tag k="name" v="Name"/>
  </node>
  <node id="29350000028" version="1" timestamp="2017-04-30T13:03:17Z" uid="112" user="SomeoneElse" changeset="101472" lat="-25.01" lon="135.198">
    <tag k="historic" v="stocks"/>
    <tag k="name" v="Name"/>
  </node>
  <node id="29350000029" version="1" timestamp="2017-04-30T13:03:17Z" uid="112" user="SomeoneElse" changeset="101472" lat="-25.01" lon="135.199">
    <tag k="historic" v="well"/>
    <tag k="name" v="Name"/>
  </node>
  <node id="29350000030" version="1" timestamp="2017-04-30T13:03:17Z" uid="112" user="SomeoneElse" changeset="101472" lat="-25.01" lon="135.2">
    <tag k="historic" v="cross"/>
    <tag k="name" v="Name"/>
  </node>
  <node id="29350000031" version="1" timestamp="2017-04-30T13:03:17Z" uid="112" user="SomeoneElse" changeset="101472" lat="-25.01" lon="135.201">
    <tag k="historic" v="dovecote"/>
    <tag k="name" v="Name"/>
  </node>
  <node id="29350000032" version="1" timestamp="2017-04-30T13:03:17Z" uid="112" user="SomeoneElse" changeset="101472" lat="-25.01" lon="135.202">
    <tag k="historic" v="kiln"/>
    <tag k="name" v="Name"/>
  </node>
  <node id="29350000033" version="1" timestamp="2017-04-30T13:03:17Z" uid="112" user="SomeoneElse" changeset="101472" lat="-25.01" lon="135.203">
    <tag k="historic" v="ice_house"/>
    <tag k="name" v="Name"/>
  </node>
  <node id="29350000034" version="1" timestamp="2017-04-30T13:03:17Z" uid="112" user="SomeoneElse" changeset="101472" lat="-25.01" lon="135.204">
    <tag k="historic" v="pinfold"/>
    <tag k="name" v="Name"/>
  </node>
  <node id="29350000035" version="1" timestamp="2017-04-30T13:03:17Z" uid="112" user="SomeoneElse" changeset="101472" lat="-25.01" lon="135.205">
    <tag k="historic" v="water_pump"/>
    <tag k="name" v="Name"/>
  </node>
  <node id="29350000036" version="1" timestamp="2017-04-30T13:03:17Z" uid="112" user="SomeoneElse" changeset="101472" lat="-25.01" lon="135.206">
    <tag k="railway" v="water_crane"/>
    <tag k="name" v="Name"/>
  </node>
  <node id="29350000037" version="1" timestamp="2017-04-30T13:03:17Z" uid="112" user="SomeoneElse" changeset="101472" lat="-25.01" lon="135.207">
    <tag k="historic" v="church"/>
    <tag k="name" v="Name"/>
  </node>
  <node id="29350000038" version="1" timestamp="2017-04-30T13:03:17Z" uid="112" user="SomeoneElse" changeset="101472" lat="-25.01" lon="135.208">
    <tag k="historic" v="tower"/>
    <tag k="tower:type" v="round_tower"/>
    <tag k="name" v="Name"/>
  </node>
  <node id="29350000039" version="1" timestamp="2017-04-30T13:03:17Z" uid="112" user="SomeoneElse" changeset="101472" lat="-25.01" lon="135.209">
    <tag k="historic" v="tower"/>
    <tag k="tower:type" v="defensive"/>
    <tag k="name" v="Name"/>
  </node>
  <node id="29350000040" version="1" timestamp="2017-04-30T13:03:17Z" uid="112" user="SomeoneElse" changeset="101472" lat="-25.01" lon="135.21">
    <tag k="historic" v="tower"/>
    <tag k="tower:type" v="observation"/>
    <tag k="name" v="Name"/>
  </node>
  <node id="29350000041" version="1" timestamp="2017-04-30T13:03:17Z" uid="112" user="SomeoneElse" changeset="101472" lat="-25.01" lon="135.211">
    <tag k="historic" v="tower"/>
    <tag k="tower:type" v="bell_tower"/>
    <tag k="name" v="Name"/>
  </node>
  <node id="29350000042" version="1" timestamp="2017-04-30T13:03:17Z" uid="112" user="SomeoneElse" changeset="101472" lat="-25.01" lon="135.212">
    <tag k="historic" v="tower"/>
    <tag k="name" v="Name"/>
  </node>
  <node id="29350000043" version="1" timestamp="2017-04-30T13:03:17Z" uid="112" user="SomeoneElse" changeset="101472" lat="-25.01" lon="135.213">
    <tag k="historic" v="bunker"/>
    <tag k="name" v="Name"/>
  </node>
  <node id="29350000044" version="1" timestamp="2017-04-30T13:03:17Z" uid="112" user="SomeoneElse" changeset="101472" lat="-25.01" lon="135.214">
    <tag k="historic" v="windmill"/>
    <tag k="name" v="Name"/>
  </node>
  <node id="29350000045" version="1" timestamp="2017-04-30T13:03:17Z" uid="112" user="SomeoneElse" changeset="101472" lat="-25.01" lon="135.215">
    <tag k="historic" v="watermill"/>
    <tag k="name" v="Name"/>
  </node>
  <node id="29350000046" version="1" timestamp="2017-04-30T13:03:17Z" uid="112" user="SomeoneElse" changeset="101472" lat="-25.01" lon="135.216">
    <tag k="historic" v="mill"/>
    <tag k="name" v="Name"/>
  </node>
  <node id="29350000047" version="1" timestamp="2017-04-30T13:03:17Z" uid="112" user="SomeoneElse" changeset="101472" lat="-25.01" lon="135.217">
    <tag k="historic" v="tank"/>
    <tag k="name" v="Name"/>
  </node>
  <node id="29350000048" version="1" timestamp="2017-04-30T13:03:17Z" uid="112" user="SomeoneElse" changeset="101472" lat="-25.01" lon="135.218">
    <tag k="historic" v="ship"/>
    <tag k="name" v="Name"/>
  </node>
  <node id="29350000049" version="1" timestamp="2017-04-30T13:03:17Z" uid="112" user="SomeoneElse" changeset="101472" lat="-25.01" lon="135.219">
    <tag k="historic" v="wreck"/>
    <tag k="name" v="Name"/>
  </node>
  <node id="29350000050" version="1" timestamp="2017-04-30T13:03:17Z" uid="112" user="SomeoneElse" changeset="101472" lat="-25.01" lon="135.22">
    <tag k="historic" v="aircraft"/>
    <tag k="name" v="Name"/>
  </node>
  <node id="29350000051" version="1" timestamp="2017-04-30T13:03:17Z" uid="112" user="SomeoneElse" changeset="101472" lat="-25.01" lon="135.221">
    <tag k="historic" v="aircraft_wreck"/>
    <tag k="name" v="Name"/>
  </node>
  <node id="29350000052" version="1" timestamp="2017-04-30T13:03:17Z" uid="112" user="SomeoneElse" changeset="101472" lat="-25.01" lon="135.222">
    <tag k="historic" v="milk_churn_stand"/>
    <tag k="name" v="Name"/>
  </node>
  <node id="29350000053" version="1" timestamp="2017-04-30T13:03:17Z" uid="112" user="SomeoneElse" changeset="101472" lat="-25.01" lon="135.223">
    <tag k="historic" v="ruins"/>
    <tag k="name" v="Name"/>
  </node>
  <node id="29351000001" version="1" timestamp="2017-04-30T13:03:17Z" uid="112" user="SomeoneElse" changeset="101472" lat="-25.0098" lon="135.171">
    <tag k="place" v="legend_text"/>
    <tag k="name" v="Archaeology"/>
  </node>
  <node id="29351000002" version="1" timestamp="2017-04-30T13:03:17Z" uid="112" user="SomeoneElse" changeset="101472" lat="-25.0098" lon="135.172">
    <tag k="place" v="legend_text"/>
    <tag k="name" v="Palaeontology"/>
  </node>
  <node id="29351000003" version="1" timestamp="2017-04-30T13:03:17Z" uid="112" user="SomeoneElse" changeset="101472" lat="-25.0098" lon="135.173">
    <tag k="place" v="legend_text"/>
    <tag k="name" v="Fortification"/>
  </node>
  <node id="29351000004" version="1" timestamp="2017-04-30T13:03:17Z" uid="112" user="SomeoneElse" changeset="101472" lat="-25.0098" lon="135.174">
    <tag k="place" v="legend_text"/>
    <tag k="name" v="Ringfort"/>
  </node>
  <node id="29351000005" version="1" timestamp="2017-04-30T13:03:17Z" uid="112" user="SomeoneElse" changeset="101472" lat="-25.0098" lon="135.175">
    <tag k="place" v="legend_text"/>
    <tag k="name" v="Hill Fort"/>
  </node>
  <node id="29351000006" version="1" timestamp="2017-04-30T13:03:17Z" uid="112" user="SomeoneElse" changeset="101472" lat="-25.0098" lon="135.176">
    <tag k="place" v="legend_text"/>
    <tag k="name" v="Motte"/>
  </node>
  <node id="29351000007" version="1" timestamp="2017-04-30T13:03:17Z" uid="112" user="SomeoneElse" changeset="101472" lat="-25.0098" lon="135.177">
    <tag k="place" v="legend_text"/>
    <tag k="name" v="Archaeological Castle"/>
  </node>
  <node id="29351000008" version="1" timestamp="2017-04-30T13:03:17Z" uid="112" user="SomeoneElse" changeset="101472" lat="-25.0098" lon="135.178">
    <tag k="place" v="legend_text"/>
    <tag k="name" v="Promontory Fort"/>
  </node>
  <node id="29351000009" version="1" timestamp="2017-04-30T13:03:17Z" uid="112" user="SomeoneElse" changeset="101472" lat="-25.0098" lon="135.179">
    <tag k="place" v="legend_text"/>
    <tag k="name" v="Crannog"/>
  </node>
  <node id="29351000010" version="1" timestamp="2017-04-30T13:03:17Z" uid="112" user="SomeoneElse" changeset="101472" lat="-25.0098" lon="135.18">
    <tag k="place" v="legend_text"/>
    <tag k="name" v="Tumulus"/>
  </node>
  <node id="29351000011" version="1" timestamp="2017-04-30T13:03:17Z" uid="112" user="SomeoneElse" changeset="101472" lat="-25.0098" lon="135.181">
    <tag k="place" v="legend_text"/>
    <tag k="name" v="Stone"/>
  </node>
  <node id="29351000012" version="1" timestamp="2017-04-30T13:03:17Z" uid="112" user="SomeoneElse" changeset="101472" lat="-25.0098" lon="135.182">
    <tag k="place" v="legend_text"/>
    <tag k="name" v="Standing Stone"/>
  </node>
  <node id="29351000013" version="1" timestamp="2017-04-30T13:03:17Z" uid="112" user="SomeoneElse" changeset="101472" lat="-25.0098" lon="135.183">
    <tag k="place" v="legend_text"/>
    <tag k="name" v="Stone Circle"/>
  </node>
  <node id="29351000014" version="1" timestamp="2017-04-30T13:03:17Z" uid="112" user="SomeoneElse" changeset="101472" lat="-25.0098" lon="135.184">
    <tag k="place" v="legend_text"/>
    <tag k="name" v="Megalithic Tomb"/>
  </node>
  <node id="29351000015" version="1" timestamp="2017-04-30T13:03:17Z" uid="112" user="SomeoneElse" changeset="101472" lat="-25.0098" lon="135.185">
    <tag k="place" v="legend_text"/>
    <tag k="name" v="Stone Row"/>
  </node>
  <node id="29351000016" version="1" timestamp="2017-04-30T13:03:17Z" uid="112" user="SomeoneElse" changeset="101472" lat="-25.0098" lon="135.186">
    <tag k="place" v="legend_text"/>
    <tag k="name" v="Ogham Stone"/>
  </node>
  <node id="29351000017" version="1" timestamp="2017-04-30T13:03:17Z" uid="112" user="SomeoneElse" changeset="101472" lat="-25.0098" lon="135.187">
    <tag k="place" v="legend_text"/>
    <tag k="name" v="Rune Stone"/>
  </node>
  <node id="29351000018" version="1" timestamp="2017-04-30T13:03:17Z" uid="112" user="SomeoneElse" changeset="101472" lat="-25.0098" lon="135.188">
    <tag k="place" v="legend_text"/>
    <tag k="name" v="Mass Rock"/>
  </node>
  <node id="29351000019" version="1" timestamp="2017-04-30T13:03:17Z" uid="112" user="SomeoneElse" changeset="101472" lat="-25.0098" lon="135.189">
    <tag k="place" v="legend_text"/>
    <tag k="name" v="Historic Mineshaft"/>
  </node>
  <node id="29351000020" version="1" timestamp="2017-04-30T13:03:17Z" uid="112" user="SomeoneElse" changeset="101472" lat="-25.0098" lon="135.19">
    <tag k="place" v="legend_text"/>
    <tag k="name" v="Historic Castle"/>
  </node>
  <node id="29351000021" version="1" timestamp="2017-04-30T13:03:17Z" uid="112" user="SomeoneElse" changeset="101472" lat="-25.0098" lon="135.191">
    <tag k="place" v="legend_text"/>
    <tag k="name" v="Folly"/>
  </node>
  <node id="29351000022" version="1" timestamp="2017-04-30T13:03:17Z" uid="112" user="SomeoneElse" changeset="101472" lat="-25.0098" lon="135.192">
    <tag k="place" v="legend_text"/>
    <tag k="name" v="Martello Tower"/>
  </node>
  <node id="29351000023" version="1" timestamp="2017-04-30T13:03:17Z" uid="112" user="SomeoneElse" changeset="101472" lat="-25.0098" lon="135.193">
    <tag k="place" v="legend_text"/>
    <tag k="name" v="Manor"/>
  </node>
  <node id="29351000024" version="1" timestamp="2017-04-30T13:03:17Z" uid="112" user="SomeoneElse" changeset="101472" lat="-25.0098" lon="135.194">
    <tag k="place" v="legend_text"/>
    <tag k="name" v="Historic Monastery"/>
  </node>
  <node id="29351000025" version="1" timestamp="2017-04-30T13:03:17Z" uid="112" user="SomeoneElse" changeset="101472" lat="-25.0098" lon="135.195">
    <tag k="place" v="legend_text"/>
    <tag k="name" v="City Gate"/>
  </node>
  <node id="29351000026" version="1" timestamp="2017-04-30T13:03:17Z" uid="112" user="SomeoneElse" changeset="101472" lat="-25.0098" lon="135.196">
    <tag k="place" v="legend_text"/>
    <tag k="name" v="Battlefield"/>
  </node>
  <node id="29351000027" version="1" timestamp="2017-04-30T13:03:17Z" uid="112" user="SomeoneElse" changeset="101472" lat="-25.0098" lon="135.197">
    <tag k="place" v="legend_text"/>
    <tag k="name" v="Cannon"/>
  </node>
  <node id="29351000028" version="1" timestamp="2017-04-30T13:03:17Z" uid="112" user="SomeoneElse" changeset="101472" lat="-25.0098" lon="135.198">
    <tag k="place" v="legend_text"/>
    <tag k="name" v="Stocks"/>
  </node>
  <node id="29351000029" version="1" timestamp="2017-04-30T13:03:17Z" uid="112" user="SomeoneElse" changeset="101472" lat="-25.0098" lon="135.199">
    <tag k="place" v="legend_text"/>
    <tag k="name" v="Well"/>
  </node>
  <node id="29351000030" version="1" timestamp="2017-04-30T13:03:17Z" uid="112" user="SomeoneElse" changeset="101472" lat="-25.0098" lon="135.2">
    <tag k="place" v="legend_text"/>
    <tag k="name" v="Cross"/>
  </node>
  <node id="29351000031" version="1" timestamp="2017-04-30T13:03:17Z" uid="112" user="SomeoneElse" changeset="101472" lat="-25.0098" lon="135.201">
    <tag k="place" v="legend_text"/>
    <tag k="name" v="Dovecote"/>
  </node>
  <node id="29351000032" version="1" timestamp="2017-04-30T13:03:17Z" uid="112" user="SomeoneElse" changeset="101472" lat="-25.0098" lon="135.202">
    <tag k="place" v="legend_text"/>
    <tag k="name" v="Kiln"/>
  </node>
  <node id="29351000033" version="1" timestamp="2017-04-30T13:03:17Z" uid="112" user="SomeoneElse" changeset="101472" lat="-25.0098" lon="135.203">
    <tag k="place" v="legend_text"/>
    <tag k="name" v="Ice House"/>
  </node>
  <node id="29351000034" version="1" timestamp="2017-04-30T13:03:17Z" uid="112" user="SomeoneElse" changeset="101472" lat="-25.0098" lon="135.204">
    <tag k="place" v="legend_text"/>
    <tag k="name" v="Pinfold"/>
  </node>
  <node id="29351000035" version="1" timestamp="2017-04-30T13:03:17Z" uid="112" user="SomeoneElse" changeset="101472" lat="-25.0098" lon="135.205">
    <tag k="place" v="legend_text"/>
    <tag k="name" v="Water Pump"/>
  </node>
  <node id="29351000036" version="1" timestamp="2017-04-30T13:03:17Z" uid="112" user="SomeoneElse" changeset="101472" lat="-25.0098" lon="135.206">
    <tag k="place" v="legend_text"/>
    <tag k="name" v="Water Crane"/>
  </node>
  <node id="29351000037" version="1" timestamp="2017-04-30T13:03:17Z" uid="112" user="SomeoneElse" changeset="101472" lat="-25.0098" lon="135.207">
    <tag k="place" v="legend_text"/>
    <tag k="name" v="Historic Church"/>
  </node>
  <node id="29351000038" version="1" timestamp="2017-04-30T13:03:17Z" uid="112" user="SomeoneElse" changeset="101472" lat="-25.0098" lon="135.208">
    <tag k="place" v="legend_text"/>
    <tag k="name" v="Round Tower"/>
  </node>
  <node id="29351000039" version="1" timestamp="2017-04-30T13:03:17Z" uid="112" user="SomeoneElse" changeset="101472" lat="-25.0098" lon="135.209">
    <tag k="place" v="legend_text"/>
    <tag k="name" v="Historic Defensive Tower"/>
  </node>
  <node id="29351000040" version="1" timestamp="2017-04-30T13:03:17Z" uid="112" user="SomeoneElse" changeset="101472" lat="-25.0098" lon="135.21">
    <tag k="place" v="legend_text"/>
    <tag k="name" v="Historic Observation Tower"/>
  </node>
  <node id="29351000041" version="1" timestamp="2017-04-30T13:03:17Z" uid="112" user="SomeoneElse" changeset="101472" lat="-25.0098" lon="135.211">
    <tag k="place" v="legend_text"/>
    <tag k="name" v="Historic Bell Tower"/>
  </node>
  <node id="29351000042" version="1" timestamp="2017-04-30T13:03:17Z" uid="112" user="SomeoneElse" changeset="101472" lat="-25.0098" lon="135.212">
    <tag k="place" v="legend_text"/>
    <tag k="name" v="Other Historic Tower"/>
  </node>
  <node id="29351000043" version="1" timestamp="2017-04-30T13:03:17Z" uid="112" user="SomeoneElse" changeset="101472" lat="-25.0098" lon="135.213">
    <tag k="place" v="legend_text"/>
    <tag k="name" v="Historic Military Bunker"/>
  </node>
  <node id="29351000044" version="1" timestamp="2017-04-30T13:03:17Z" uid="112" user="SomeoneElse" changeset="101472" lat="-25.0098" lon="135.214">
    <tag k="place" v="legend_text"/>
    <tag k="name" v="Historic Windmill"/>
  </node>
  <node id="29351000045" version="1" timestamp="2017-04-30T13:03:17Z" uid="112" user="SomeoneElse" changeset="101472" lat="-25.0098" lon="135.215">
    <tag k="place" v="legend_text"/>
    <tag k="name" v="Watermill"/>
  </node>
  <node id="29351000046" version="1" timestamp="2017-04-30T13:03:17Z" uid="112" user="SomeoneElse" changeset="101472" lat="-25.0098" lon="135.216">
    <tag k="place" v="legend_text"/>
    <tag k="name" v="Mill"/>
  </node>
  <node id="29351000047" version="1" timestamp="2017-04-30T13:03:17Z" uid="112" user="SomeoneElse" changeset="101472" lat="-25.0098" lon="135.217">
    <tag k="place" v="legend_text"/>
    <tag k="name" v="Tank"/>
  </node>
  <node id="29351000048" version="1" timestamp="2017-04-30T13:03:17Z" uid="112" user="SomeoneElse" changeset="101472" lat="-25.0098" lon="135.218">
    <tag k="place" v="legend_text"/>
    <tag k="name" v="Ship"/>
  </node>
  <node id="29351000049" version="1" timestamp="2017-04-30T13:03:17Z" uid="112" user="SomeoneElse" changeset="101472" lat="-25.0098" lon="135.219">
    <tag k="place" v="legend_text"/>
    <tag k="name" v="Wreck"/>
  </node>
  <node id="29351000050" version="1" timestamp="2017-04-30T13:03:17Z" uid="112" user="SomeoneElse" changeset="101472" lat="-25.0098" lon="135.22">
    <tag k="place" v="legend_text"/>
    <tag k="name" v="Aircraft"/>
  </node>
  <node id="29351000051" version="1" timestamp="2017-04-30T13:03:17Z" uid="112" user="SomeoneElse" changeset="101472" lat="-25.0098" lon="135.221">
    <tag k="place" v="legend_text"/>
    <tag k="name" v="Aircraft Wreck"/>
  </node>
  <node id="29351000052" version="1" timestamp="2017-04-30T13:03:17Z" uid="112" user="SomeoneElse" changeset="101472" lat="-25.0098" lon="135.222">
    <tag k="place" v="legend_text"/>
    <tag k="name" v="Milk Churn Stand"/>
  </node>
  <node id="29351000053" version="1" timestamp="2017-04-30T13:03:17Z" uid="112" user="SomeoneElse" changeset="101472" lat="-25.0098" lon="135.223">
    <tag k="place" v="legend_text"/>
    <tag k="name" v="Other Historic"/>
  </node>
  <node id="29360000001" version="1" timestamp="2017-04-30T13:03:17Z" uid="112" user="SomeoneElse" changeset="101472" lat="-25.011" lon="135.171">
    <tag k="historic" v="monument"/>
    <tag k="name" v="Monument"/>
  </node>
  <node id="29360000002" version="1" timestamp="2017-04-30T13:03:17Z" uid="112" user="SomeoneElse" changeset="101472" lat="-25.011" lon="135.172">
    <tag k="historic" v="tomb"/>
    <tag k="name" v="Tomb"/>
  </node>
  <node id="29360000003" version="1" timestamp="2017-04-30T13:03:17Z" uid="112" user="SomeoneElse" changeset="101472" lat="-25.011" lon="135.173">
    <tag k="historic" v="memorial"/>
    <tag k="memorial" v="war_memorial"/>
    <tag k="name" v="War"/>
  </node>
  <node id="29360000004" version="1" timestamp="2017-04-30T13:03:17Z" uid="112" user="SomeoneElse" changeset="101472" lat="-25.011" lon="135.174">
    <tag k="man_made" v="obelisk"/>
    <tag k="name" v="Obelisk"/>
  </node>
  <node id="29360000005" version="1" timestamp="2017-04-30T13:03:17Z" uid="112" user="SomeoneElse" changeset="101472" lat="-25.011" lon="135.175">
    <tag k="historic" v="memorial"/>
    <tag k="memorial" v="plaque"/>
    <tag k="name" v="Plaque"/>
  </node>
  <node id="29360000006" version="1" timestamp="2017-04-30T13:03:17Z" uid="112" user="SomeoneElse" changeset="101472" lat="-25.011" lon="135.176">
    <tag k="historic" v="memorial"/>
    <tag k="memorial" v="pavement plaque"/>
    <tag k="name" v="Pavement Plaque"/>
  </node>
  <node id="29360000007" version="1" timestamp="2017-04-30T13:03:17Z" uid="112" user="SomeoneElse" changeset="101472" lat="-25.011" lon="135.177">
    <tag k="historic" v="memorial"/>
    <tag k="memorial" v="statue"/>
    <tag k="name" v="Statue"/>
  </node>
  <node id="29360000008" version="1" timestamp="2017-04-30T13:03:17Z" uid="112" user="SomeoneElse" changeset="101472" lat="-25.011" lon="135.178">
    <tag k="historic" v="memorial"/>
    <tag k="memorial" v="sculpture"/>
    <tag k="name" v="Sculpture"/>
  </node>
  <node id="29360000009" version="1" timestamp="2017-04-30T13:03:17Z" uid="112" user="SomeoneElse" changeset="101472" lat="-25.011" lon="135.179">
    <tag k="historic" v="memorial"/>
    <tag k="memorial" v="cross"/>
    <tag k="name" v="Cross"/>
  </node>
  <node id="29360000010" version="1" timestamp="2017-04-30T13:03:17Z" uid="112" user="SomeoneElse" changeset="101472" lat="-25.011" lon="135.18">
    <tag k="historic" v="memorial"/>
    <tag k="memorial" v="stone"/>
    <tag k="name" v="Stone"/>
  </node>
  <node id="29360000011" version="1" timestamp="2017-04-30T13:03:17Z" uid="112" user="SomeoneElse" changeset="101472" lat="-25.011" lon="135.181">
    <tag k="historic" v="memorial"/>
    <tag k="memorial" v="plate"/>
    <tag k="name" v="Plate"/>
  </node>
  <node id="29360000012" version="1" timestamp="2017-04-30T13:03:17Z" uid="112" user="SomeoneElse" changeset="101472" lat="-25.011" lon="135.182">
    <tag k="historic" v="memorial"/>
    <tag k="memorial" v="bench"/>
    <tag k="name" v="Bench"/>
  </node>
  <node id="29360000013" version="1" timestamp="2017-04-30T13:03:17Z" uid="112" user="SomeoneElse" changeset="101472" lat="-25.011" lon="135.183">
    <tag k="historic" v="memorial"/>
    <tag k="memorial" v="grave"/>
    <tag k="name" v="Grave"/>
  </node>
  <node id="29360000014" version="1" timestamp="2017-04-30T13:03:17Z" uid="112" user="SomeoneElse" changeset="101472" lat="-25.011" lon="135.184">
    <tag k="historic" v="memorial"/>
    <tag k="name" v="Other"/>
  </node>
  <node id="29361000001" version="1" timestamp="2017-04-30T13:03:17Z" uid="112" user="SomeoneElse" changeset="101472" lat="-25.0108" lon="135.171">
    <tag k="place" v="legend_text"/>
    <tag k="name" v="Monument"/>
  </node>
  <node id="29361000003" version="1" timestamp="2017-04-30T13:03:17Z" uid="112" user="SomeoneElse" changeset="101472" lat="-25.0108" lon="135.173">
    <tag k="place" v="legend_text"/>
    <tag k="name" v="Memorials"/>
  </node>
  <node id="29370000001" version="1" timestamp="2017-04-30T13:03:17Z" uid="112" user="SomeoneElse" changeset="101472" lat="-25.012" lon="135.171">
    <tag k="amenity" v="telephone"/>
    <tag k="booth" v="K6"/>
    <tag k="name" v="Telephone"/>
  </node>
  <node id="29370000002" version="1" timestamp="2017-04-30T13:03:17Z" uid="112" user="SomeoneElse" changeset="101472" lat="-25.012" lon="135.172">
    <tag k="booth" v="K6"/>
    <tag k="emergency" v="defibrillator"/>
    <tag k="name" v="Defibrillator"/>
  </node>
  <node id="29370000003" version="1" timestamp="2017-04-30T13:03:17Z" uid="112" user="SomeoneElse" changeset="101472" lat="-25.012" lon="135.173">
    <tag k="booth" v="K6"/>
    <tag k="amenity" v="library"/>
    <tag k="name" v="Library"/>
  </node>
  <node id="29370000004" version="1" timestamp="2017-04-30T13:03:17Z" uid="112" user="SomeoneElse" changeset="101472" lat="-25.012" lon="135.174">
    <tag k="booth" v="K6"/>
    <tag k="amenity" v="bicycle_repair_station"/>
    <tag k="name" v="Bike Repair"/>
  </node>
  <node id="29370000005" version="1" timestamp="2017-04-30T13:03:17Z" uid="112" user="SomeoneElse" changeset="101472" lat="-25.012" lon="135.175">
    <tag k="booth" v="K6"/>
    <tag k="amenity" v="atm"/>
    <tag k="name" v="ATM"/>
  </node>
  <node id="29370000006" version="1" timestamp="2017-04-30T13:03:17Z" uid="112" user="SomeoneElse" changeset="101472" lat="-25.012" lon="135.176">
    <tag k="booth" v="K6"/>
    <tag k="tourism" v="information"/>
    <tag k="name" v="Tourist Info"/>
  </node>
  <node id="29370000007" version="1" timestamp="2017-04-30T13:03:17Z" uid="112" user="SomeoneElse" changeset="101472" lat="-25.012" lon="135.177">
    <tag k="booth" v="K6"/>
    <tag k="tourism" v="artwork"/>
    <tag k="name" v="Artwork"/>
  </node>
  <node id="29370000008" version="1" timestamp="2017-04-30T13:03:17Z" uid="112" user="SomeoneElse" changeset="101472" lat="-25.012" lon="135.178">
    <tag k="booth" v="K6"/>
    <tag k="disused:amenity" v="telephone"/>
    <tag k="name" v="Disused"/>
  </node>
  <node id="29371000001" version="1" timestamp="2017-04-30T13:03:17Z" uid="112" user="SomeoneElse" changeset="101472" lat="-25.0118" lon="135.171">
    <tag k="place" v="legend_text"/>
    <tag k="name" v="Telephone box containing:"/>
  </node>
  <node id="29380000001" version="1" timestamp="2017-04-30T13:03:17Z" uid="112" user="SomeoneElse" changeset="101472" lat="-25.013" lon="135.171">
    <tag k="amenity" v="parking"/>
    <tag k="name" v="Name"/>
  </node>
  <node id="29380000002" version="1" timestamp="2017-04-30T13:03:17Z" uid="112" user="SomeoneElse" changeset="101472" lat="-25.013" lon="135.172">
    <tag k="amenity" v="parking"/>
    <tag k="fee" v="yes"/>
    <tag k="name" v="Name"/>
  </node>
  <node id="29380000003" version="1" timestamp="2017-04-30T13:03:17Z" uid="112" user="SomeoneElse" changeset="101472" lat="-25.013" lon="135.173">
    <tag k="amenity" v="parking"/>
    <tag k="access" v="private"/>
    <tag k="name" v="Name"/>
  </node>
  <node id="29380000004" version="1" timestamp="2017-04-30T13:03:17Z" uid="112" user="SomeoneElse" changeset="101472" lat="-25.013" lon="135.174">
    <tag k="amenity" v="parking_space"/>
    <tag k="parking_space" v="disabled"/>
    <tag k="fee" v="no"/>
    <tag k="name" v="Name"/>
  </node>
  <node id="29380000005" version="1" timestamp="2017-04-30T13:03:17Z" uid="112" user="SomeoneElse" changeset="101472" lat="-25.013" lon="135.175">
    <tag k="amenity" v="parking_space"/>
    <tag k="parking_space" v="disabled"/>
    <tag k="fee" v="yes"/>
    <tag k="name" v="Name"/>
  </node>
  <node id="29380000006" version="1" timestamp="2017-04-30T13:03:17Z" uid="112" user="SomeoneElse" changeset="101472" lat="-25.013" lon="135.176">
    <tag k="amenity" v="car_sharing"/>
    <tag k="name" v="Name"/>
  </node>
  <node id="29380000007" version="1" timestamp="2017-04-30T13:03:17Z" uid="112" user="SomeoneElse" changeset="101472" lat="-25.013" lon="135.177">
    <tag k="amenity" v="car_rental"/>
    <tag k="name" v="Name"/>
  </node>
  <node id="29380000008" version="1" timestamp="2017-04-30T13:03:17Z" uid="112" user="SomeoneElse" changeset="101472" lat="-25.013" lon="135.178">
    <tag k="railway" v="station"/>
    <tag k="name" v="Name"/>
  </node>
  <node id="29380000009" version="1" timestamp="2017-04-30T13:03:17Z" uid="112" user="SomeoneElse" changeset="101472" lat="-25.013" lon="135.179">
    <tag k="railway" v="halt"/>
    <tag k="name" v="Name"/>
  </node>
  <node id="29380000010" version="1" timestamp="2017-04-30T13:03:17Z" uid="112" user="SomeoneElse" changeset="101472" lat="-25.013" lon="135.18">
    <tag k="railway" v="station"/>
    <tag k="usage" v="tourism"/>
    <tag k="name" v="Name"/>
  </node>
  <node id="29380000011" version="1" timestamp="2017-04-30T13:03:17Z" uid="112" user="SomeoneElse" changeset="101472" lat="-25.013" lon="135.181">
    <tag k="amenity" v="bus_station"/>
    <tag k="name" v="Name"/>
    <tag k="website" v="Website"/>
  </node>
  <node id="29380000012" version="1" timestamp="2017-04-30T13:03:17Z" uid="112" user="SomeoneElse" changeset="101472" lat="-25.013" lon="135.182">
    <tag k="highway" v="bus_stop"/>
    <tag k="name" v="Name"/>
    <tag k="website" v="Website"/>
  </node>
  <node id="29380000013" version="1" timestamp="2017-04-30T13:03:17Z" uid="112" user="SomeoneElse" changeset="101472" lat="-25.013" lon="135.183">
    <tag k="highway" v="bus_stop"/>
    <tag k="name" v="Name"/>
    <tag k="website" v="Website"/>
    <tag k="departures_board" v="timetable"/>
  </node>
  <node id="29380000014" version="1" timestamp="2017-04-30T13:03:17Z" uid="112" user="SomeoneElse" changeset="101472" lat="-25.013" lon="135.184">
    <tag k="highway" v="bus_stop"/>
    <tag k="name" v="Name"/>
    <tag k="website" v="Website"/>
    <tag k="departures_board" v="timetable"/>
    <tag k="departures_board:speech_output" v="yes"/>
  </node>
  <node id="29380000015" version="1" timestamp="2017-04-30T13:03:17Z" uid="112" user="SomeoneElse" changeset="101472" lat="-25.013" lon="135.185">
    <tag k="highway" v="bus_stop"/>
    <tag k="name" v="Name"/>
    <tag k="website" v="Website"/>
    <tag k="departures_board" v="realtime"/>
  </node>
  <node id="29380000016" version="1" timestamp="2017-04-30T13:03:17Z" uid="112" user="SomeoneElse" changeset="101472" lat="-25.013" lon="135.186">
    <tag k="highway" v="bus_stop"/>
    <tag k="name" v="Name"/>
    <tag k="website" v="Website"/>
    <tag k="departures_board" v="realtime"/>
    <tag k="departures_board:speech_output" v="yes"/>
  </node>
  <node id="29380000017" version="1" timestamp="2017-04-30T13:03:17Z" uid="112" user="SomeoneElse" changeset="101472" lat="-25.013" lon="135.187">
    <tag k="highway" v="bus_stop"/>
    <tag k="name" v="Name"/>
    <tag k="website" v="Website"/>
    <tag k="physically_present" v="no"/>
  </node>
  <node id="29380000018" version="1" timestamp="2017-04-30T13:03:17Z" uid="112" user="SomeoneElse" changeset="101472" lat="-25.013" lon="135.188">
    <tag k="disused:highway" v="bus_stop"/>
    <tag k="name" v="Name"/>
    <tag k="website" v="Website"/>
    <tag k="physically_present" v="yes"/>
  </node>
  <node id="29380000019" version="1" timestamp="2017-04-30T13:03:17Z" uid="112" user="SomeoneElse" changeset="101472" lat="-25.013" lon="135.189">
    <tag k="departures_board" v="realtime"/>
    <tag k="name" v="Name"/>
    <tag k="website" v="Website"/>
  </node>
  <node id="29380000020" version="1" timestamp="2017-04-30T13:03:17Z" uid="112" user="SomeoneElse" changeset="101472" lat="-25.013" lon="135.19">
    <tag k="amenity" v="taxi"/>
    <tag k="name" v="Name"/>
  </node>
  <node id="29380000021" version="1" timestamp="2017-04-30T13:03:17Z" uid="112" user="SomeoneElse" changeset="101472" lat="-25.013" lon="135.191">
    <tag k="highway" v="elevator"/>
    <tag k="name" v="Name"/>
  </node>
  <node id="29380000022" version="1" timestamp="2017-04-30T13:03:17Z" uid="112" user="SomeoneElse" changeset="101472" lat="-25.013" lon="135.192">
    <tag k="amenity" v="taxi_office"/>
    <tag k="name" v="Name"/>
  </node>
  <node id="29380000023" version="1" timestamp="2017-04-30T13:03:17Z" uid="112" user="SomeoneElse" changeset="101472" lat="-25.013" lon="135.193">
    <tag k="amenity" v="ferry_terminal"/>
    <tag k="name" v="Name"/>
  </node>
  <node id="29380000024" version="1" timestamp="2017-04-30T13:03:17Z" uid="112" user="SomeoneElse" changeset="101472" lat="-25.013" lon="135.194">
    <tag k="amenity" v="bicycle_parking"/>
    <tag k="name" v="Name"/>
  </node>
  <node id="29380000025" version="1" timestamp="2017-04-30T13:03:17Z" uid="112" user="SomeoneElse" changeset="101472" lat="-25.013" lon="135.195">
    <tag k="amenity" v="bicycle_parking"/>
    <tag k="fee" v="yes"/>
    <tag k="name" v="Name"/>
  </node>
  <node id="29380000026" version="1" timestamp="2017-04-30T13:03:17Z" uid="112" user="SomeoneElse" changeset="101472" lat="-25.013" lon="135.196">
    <tag k="amenity" v="bicycle_rental"/>
    <tag k="name" v="Name"/>
  </node>
  <node id="29380000027" version="1" timestamp="2017-04-30T13:03:17Z" uid="112" user="SomeoneElse" changeset="101472" lat="-25.013" lon="135.197">
    <tag k="amenity" v="bicycle_repair_station"/>
    <tag k="name" v="Name"/>
  </node>
  <node id="29380000028" version="1" timestamp="2017-04-30T13:03:17Z" uid="112" user="SomeoneElse" changeset="101472" lat="-25.013" lon="135.198">
    <tag k="amenity" v="scooter_rental"/>
    <tag k="name" v="Name"/>
  </node>
  <node id="29380000029" version="1" timestamp="2017-04-30T13:03:17Z" uid="112" user="SomeoneElse" changeset="101472" lat="-25.013" lon="135.199">
    <tag k="aeroway" v="aerodrome"/>
    <tag k="iata" v="IATA"/>
    <tag k="name" v="Name"/>
  </node>
  <node id="29380000030" version="1" timestamp="2017-04-30T13:03:17Z" uid="112" user="SomeoneElse" changeset="101472" lat="-25.013" lon="135.2">
    <tag k="aeroway" v="heliport"/>
    <tag k="name" v="Name"/>
  </node>
  <node id="29380000031" version="1" timestamp="2017-04-30T13:03:17Z" uid="112" user="SomeoneElse" changeset="101472" lat="-25.013" lon="135.201">
    <tag k="aeroway" v="helipad"/>
    <tag k="name" v="Name"/>
  </node>
  <node id="29380000032" version="1" timestamp="2017-04-30T13:03:17Z" uid="112" user="SomeoneElse" changeset="101472" lat="-25.013" lon="135.202">
    <tag k="aeroway" v="gate"/>
    <tag k="ref" v="Ref"/>
  </node>
  <node id="29381000001" version="1" timestamp="2017-04-30T13:03:17Z" uid="112" user="SomeoneElse" changeset="101472" lat="-25.0128" lon="135.171">
    <tag k="place" v="legend_text"/>
    <tag k="name" v="Car Park"/>
  </node>
  <node id="29381000002" version="1" timestamp="2017-04-30T13:03:17Z" uid="112" user="SomeoneElse" changeset="101472" lat="-25.0128" lon="135.172">
    <tag k="place" v="legend_text"/>
    <tag k="name" v="(pay)"/>
  </node>
  <node id="29381000003" version="1" timestamp="2017-04-30T13:03:17Z" uid="112" user="SomeoneElse" changeset="101472" lat="-25.0128" lon="135.173">
    <tag k="place" v="legend_text"/>
    <tag k="name" v="(private)"/>
  </node>
  <node id="29381000004" version="1" timestamp="2017-04-30T13:03:17Z" uid="112" user="SomeoneElse" changeset="101472" lat="-25.0128" lon="135.174">
    <tag k="place" v="legend_text"/>
    <tag k="name" v="(disabled)"/>
  </node>
  <node id="29381000005" version="1" timestamp="2017-04-30T13:03:17Z" uid="112" user="SomeoneElse" changeset="101472" lat="-25.0128" lon="135.175">
    <tag k="place" v="legend_text"/>
    <tag k="name" v="(pay disabled)"/>
  </node>
  <node id="29381000006" version="1" timestamp="2017-04-30T13:03:17Z" uid="112" user="SomeoneElse" changeset="101472" lat="-25.0128" lon="135.176">
    <tag k="place" v="legend_text"/>
    <tag k="name" v="Car Sharing"/>
  </node>
  <node id="29381000007" version="1" timestamp="2017-04-30T13:03:17Z" uid="112" user="SomeoneElse" changeset="101472" lat="-25.0128" lon="135.177">
    <tag k="place" v="legend_text"/>
    <tag k="name" v="Car Rental"/>
  </node>
  <node id="29381000008" version="1" timestamp="2017-04-30T13:03:17Z" uid="112" user="SomeoneElse" changeset="101472" lat="-25.0128" lon="135.178">
    <tag k="place" v="legend_text"/>
    <tag k="name" v="Rail Station"/>
  </node>
  <node id="29381000009" version="1" timestamp="2017-04-30T13:03:17Z" uid="112" user="SomeoneElse" changeset="101472" lat="-25.0128" lon="135.179">
    <tag k="place" v="legend_text"/>
    <tag k="name" v="Rail Halt"/>
  </node>
  <node id="29381000010" version="1" timestamp="2017-04-30T13:03:17Z" uid="112" user="SomeoneElse" changeset="101472" lat="-25.0128" lon="135.18">
    <tag k="place" v="legend_text"/>
    <tag k="name" v="Preserved"/>
  </node>
  <node id="29381000011" version="1" timestamp="2017-04-30T13:03:17Z" uid="112" user="SomeoneElse" changeset="101472" lat="-25.0128" lon="135.181">
    <tag k="place" v="legend_text"/>
    <tag k="name" v="Bus Station"/>
  </node>
  <node id="29381000012" version="1" timestamp="2017-04-30T13:03:17Z" uid="112" user="SomeoneElse" changeset="101472" lat="-25.0128" lon="135.182">
    <tag k="place" v="legend_text"/>
    <tag k="name" v="Bus Stop"/>
  </node>
  <node id="29381000013" version="1" timestamp="2017-04-30T13:03:17Z" uid="112" user="SomeoneElse" changeset="101472" lat="-25.0128" lon="135.183">
    <tag k="place" v="legend_text"/>
    <tag k="name" v="(with timetable)"/>
  </node>
  <node id="29381000014" version="1" timestamp="2017-04-30T13:03:17Z" uid="112" user="SomeoneElse" changeset="101472" lat="-25.0128" lon="135.184">
    <tag k="place" v="legend_text"/>
    <tag k="name" v="(+speech)"/>
  </node>
  <node id="29381000015" version="1" timestamp="2017-04-30T13:03:17Z" uid="112" user="SomeoneElse" changeset="101472" lat="-25.0128" lon="135.185">
    <tag k="place" v="legend_text"/>
    <tag k="name" v="(realtime)"/>
  </node>
  <node id="29381000016" version="1" timestamp="2017-04-30T13:03:17Z" uid="112" user="SomeoneElse" changeset="101472" lat="-25.0128" lon="135.186">
    <tag k="place" v="legend_text"/>
    <tag k="name" v="(+speech)"/>
  </node>
  <node id="29381000017" version="1" timestamp="2017-04-30T13:03:17Z" uid="112" user="SomeoneElse" changeset="101472" lat="-25.0128" lon="135.187">
    <tag k="place" v="legend_text"/>
    <tag k="name" v="(no pole)"/>
  </node>
  <node id="29381000018" version="1" timestamp="2017-04-30T13:03:17Z" uid="112" user="SomeoneElse" changeset="101472" lat="-25.0128" lon="135.188">
    <tag k="place" v="legend_text"/>
    <tag k="name" v="(disused with pole)"/>
  </node>
  <node id="29381000019" version="1" timestamp="2017-04-30T13:03:17Z" uid="112" user="SomeoneElse" changeset="101472" lat="-25.0128" lon="135.189">
    <tag k="place" v="legend_text"/>
    <tag k="name" v="Standalone departures board"/>
  </node>
  <node id="29381000020" version="1" timestamp="2017-04-30T13:03:17Z" uid="112" user="SomeoneElse" changeset="101472" lat="-25.0128" lon="135.19">
    <tag k="place" v="legend_text"/>
    <tag k="name" v="Taxi Stand"/>
  </node>
  <node id="29381000021" version="1" timestamp="2017-04-30T13:03:17Z" uid="112" user="SomeoneElse" changeset="101472" lat="-25.0128" lon="135.191">
    <tag k="place" v="legend_text"/>
    <tag k="name" v="Lift"/>
  </node>
  <node id="29381000022" version="1" timestamp="2017-04-30T13:03:17Z" uid="112" user="SomeoneElse" changeset="101472" lat="-25.0128" lon="135.192">
    <tag k="place" v="legend_text"/>
    <tag k="name" v="Taxi Office"/>
  </node>
  <node id="29381000023" version="1" timestamp="2017-04-30T13:03:17Z" uid="112" user="SomeoneElse" changeset="101472" lat="-25.0128" lon="135.193">
    <tag k="place" v="legend_text"/>
    <tag k="name" v="Ferry Terminal"/>
  </node>
  <node id="29381000024" version="1" timestamp="2017-04-30T13:03:17Z" uid="112" user="SomeoneElse" changeset="101472" lat="-25.0128" lon="135.194">
    <tag k="place" v="legend_text"/>
    <tag k="name" v="Bike Parking"/>
  </node>
  <node id="29381000025" version="1" timestamp="2017-04-30T13:03:17Z" uid="112" user="SomeoneElse" changeset="101472" lat="-25.0128" lon="135.195">
    <tag k="place" v="legend_text"/>
    <tag k="name" v="Pay Bike Parking"/>
  </node>
  <node id="29381000026" version="1" timestamp="2017-04-30T13:03:17Z" uid="112" user="SomeoneElse" changeset="101472" lat="-25.0128" lon="135.196">
    <tag k="place" v="legend_text"/>
    <tag k="name" v="Bike Rental"/>
  </node>
  <node id="29381000027" version="1" timestamp="2017-04-30T13:03:17Z" uid="112" user="SomeoneElse" changeset="101472" lat="-25.0128" lon="135.197">
    <tag k="place" v="legend_text"/>
    <tag k="name" v="Bike Repair Station"/>
  </node>
  <node id="29381000028" version="1" timestamp="2017-04-30T13:03:17Z" uid="112" user="SomeoneElse" changeset="101472" lat="-25.0128" lon="135.198">
    <tag k="place" v="legend_text"/>
    <tag k="name" v="Scooter Rental"/>
  </node>
  <node id="29381000029" version="1" timestamp="2017-04-30T13:03:17Z" uid="112" user="SomeoneElse" changeset="101472" lat="-25.0128" lon="135.199">
    <tag k="place" v="legend_text"/>
    <tag k="name" v="Airport"/>
  </node>
  <node id="29381000030" version="1" timestamp="2017-04-30T13:03:17Z" uid="112" user="SomeoneElse" changeset="101472" lat="-25.0128" lon="135.2">
    <tag k="place" v="legend_text"/>
    <tag k="name" v="Heliport"/>
  </node>
  <node id="29381000031" version="1" timestamp="2017-04-30T13:03:17Z" uid="112" user="SomeoneElse" changeset="101472" lat="-25.0128" lon="135.201">
    <tag k="place" v="legend_text"/>
    <tag k="name" v="Helipad"/>
  </node>
  <node id="29381000032" version="1" timestamp="2017-04-30T13:03:17Z" uid="112" user="SomeoneElse" changeset="101472" lat="-25.0128" lon="135.202">
    <tag k="place" v="legend_text"/>
    <tag k="name" v="Gate"/>
  </node>
  <node id="29390000001" version="1" timestamp="2017-04-30T13:03:17Z" uid="112" user="SomeoneElse" changeset="101472" lat="-25.014" lon="135.171">
    <tag k="highway" v="traffic_signals"/>
    <tag k="name" v="Name"/>
  </node>
  <node id="29390000002" version="1" timestamp="2017-04-30T13:03:17Z" uid="112" user="SomeoneElse" changeset="101472" lat="-25.014" lon="135.172">
    <tag k="highway" v="crossing"/>
    <tag k="name" v="Name"/>
  </node>
  <node id="29390000003" version="1" timestamp="2017-04-30T13:03:17Z" uid="112" user="SomeoneElse" changeset="101472" lat="-25.014" lon="135.173">
    <tag k="highway" v="milestone"/>
    <tag k="name" v="Name"/>
  </node>
  <node id="29390000004" version="1" timestamp="2017-04-30T13:03:17Z" uid="112" user="SomeoneElse" changeset="101472" lat="-25.014" lon="135.174">
    <tag k="highway" v="mini_roundabout"/>
    <tag k="name" v="Name"/>
  </node>
  <node id="29390000005" version="1" timestamp="2017-04-30T13:03:17Z" uid="112" user="SomeoneElse" changeset="101472" lat="-25.014" lon="135.175">
    <tag k="highway" v="street_lamp"/>
    <tag k="name" v="Name"/>
  </node>
  <node id="29390000006" version="1" timestamp="2017-04-30T13:03:17Z" uid="112" user="SomeoneElse" changeset="101472" lat="-25.014" lon="135.176">
    <tag k="highway" v="street_lamp"/>
    <tag k="lamp_type" v="gaslight"/>
    <tag k="name" v="Name"/>
  </node>
  <node id="29390000007" version="1" timestamp="2017-04-30T13:03:17Z" uid="112" user="SomeoneElse" changeset="101472" lat="-25.014" lon="135.177">
    <tag k="emergency" v="phone"/>
    <tag k="name" v="Name"/>
  </node>
  <node id="29391000001" version="1" timestamp="2017-04-30T13:03:17Z" uid="112" user="SomeoneElse" changeset="101472" lat="-25.0138" lon="135.171">
    <tag k="place" v="legend_text"/>
    <tag k="name" v="Traf. Lights"/>
  </node>
  <node id="29391000002" version="1" timestamp="2017-04-30T13:03:17Z" uid="112" user="SomeoneElse" changeset="101472" lat="-25.0138" lon="135.172">
    <tag k="place" v="legend_text"/>
    <tag k="name" v="Crossing"/>
  </node>
  <node id="29391000003" version="1" timestamp="2017-04-30T13:03:17Z" uid="112" user="SomeoneElse" changeset="101472" lat="-25.0138" lon="135.173">
    <tag k="place" v="legend_text"/>
    <tag k="name" v="Milestone"/>
  </node>
  <node id="29391000004" version="1" timestamp="2017-04-30T13:03:17Z" uid="112" user="SomeoneElse" changeset="101472" lat="-25.0138" lon="135.174">
    <tag k="place" v="legend_text"/>
    <tag k="name" v="Mini Rndbt"/>
  </node>
  <node id="29391000005" version="1" timestamp="2017-04-30T13:03:17Z" uid="112" user="SomeoneElse" changeset="101472" lat="-25.0138" lon="135.175">
    <tag k="place" v="legend_text"/>
    <tag k="name" v="Streetlamp"/>
  </node>
  <node id="29391000006" version="1" timestamp="2017-04-30T13:03:17Z" uid="112" user="SomeoneElse" changeset="101472" lat="-25.0138" lon="135.176">
    <tag k="place" v="legend_text"/>
    <tag k="name" v="Gaslight"/>
  </node>
  <node id="29391000007" version="1" timestamp="2017-04-30T13:03:17Z" uid="112" user="SomeoneElse" changeset="101472" lat="-25.0138" lon="135.177">
    <tag k="place" v="legend_text"/>
    <tag k="name" v="Phone"/>
  </node>
  <node id="29400000001" version="1" timestamp="2017-04-30T13:03:17Z" uid="112" user="SomeoneElse" changeset="101472" lat="-25.015" lon="135.171">
    <tag k="man_made" v="mast"/>
    <tag k="name" v="Name"/>
  </node>
  <node id="29400000002" version="1" timestamp="2017-04-30T13:03:17Z" uid="112" user="SomeoneElse" changeset="101472" lat="-25.015" lon="135.172">
    <tag k="man_made" v="chimney"/>
    <tag k="name" v="Name"/>
  </node>
  <node id="29400000003" version="1" timestamp="2017-04-30T13:03:17Z" uid="112" user="SomeoneElse" changeset="101472" lat="-25.015" lon="135.173">
    <tag k="man_made" v="tower"/>
    <tag k="tower:type" v="clock"/>
    <tag k="name" v="Name"/>
  </node>
  <node id="29400000004" version="1" timestamp="2017-04-30T13:03:17Z" uid="112" user="SomeoneElse" changeset="101472" lat="-25.015" lon="135.174">
    <tag k="amenity" v="clock"/>
    <tag k="support" v="pedestal"/>
    <tag k="name" v="Name"/>
  </node>
  <node id="29400000005" version="1" timestamp="2017-04-30T13:03:17Z" uid="112" user="SomeoneElse" changeset="101472" lat="-25.015" lon="135.175">
    <tag k="man_made" v="tower"/>
    <tag k="tower:type" v="lighting"/>
    <tag k="name" v="Name"/>
  </node>
  <node id="29400000006" version="1" timestamp="2017-04-30T13:03:17Z" uid="112" user="SomeoneElse" changeset="101472" lat="-25.015" lon="135.176">
    <tag k="man_made" v="tower"/>
    <tag k="tower:type" v="defensive"/>
    <tag k="name" v="Name"/>
  </node>
  <node id="29400000007" version="1" timestamp="2017-04-30T13:03:17Z" uid="112" user="SomeoneElse" changeset="101472" lat="-25.015" lon="135.177">
    <tag k="man_made" v="tower"/>
    <tag k="tower:type" v="observation"/>
    <tag k="name" v="Name"/>
  </node>
  <node id="29400000008" version="1" timestamp="2017-04-30T13:03:17Z" uid="112" user="SomeoneElse" changeset="101472" lat="-25.015" lon="135.178">
    <tag k="man_made" v="tower"/>
    <tag k="tower:type" v="aircraft_control"/>
    <tag k="name" v="Name"/>
  </node>
  <node id="29400000009" version="1" timestamp="2017-04-30T13:03:17Z" uid="112" user="SomeoneElse" changeset="101472" lat="-25.015" lon="135.179">
    <tag k="man_made" v="tower"/>
    <tag k="tower:type" v="radar"/>
    <tag k="name" v="Name"/>
  </node>
  <node id="29400000010" version="1" timestamp="2017-04-30T13:03:17Z" uid="112" user="SomeoneElse" changeset="101472" lat="-25.015" lon="135.18">
    <tag k="man_made" v="tower"/>
    <tag k="tower:type" v="firefighter_training"/>
    <tag k="name" v="Name"/>
  </node>
  <node id="29400000011" version="1" timestamp="2017-04-30T13:03:17Z" uid="112" user="SomeoneElse" changeset="101472" lat="-25.015" lon="135.181">
    <tag k="man_made" v="tower"/>
    <tag k="tower:type" v="church"/>
    <tag k="name" v="Name"/>
  </node>
  <node id="29400000012" version="1" timestamp="2017-04-30T13:03:17Z" uid="112" user="SomeoneElse" changeset="101472" lat="-25.015" lon="135.182">
    <tag k="man_made" v="tower"/>
    <tag k="tower:type" v="spire"/>
    <tag k="name" v="Name"/>
  </node>
  <node id="29400000013" version="1" timestamp="2017-04-30T13:03:17Z" uid="112" user="SomeoneElse" changeset="101472" lat="-25.015" lon="135.183">
    <tag k="man_made" v="maypole"/>
    <tag k="name" v="Name"/>
  </node>
  <node id="29400000014" version="1" timestamp="2017-04-30T13:03:17Z" uid="112" user="SomeoneElse" changeset="101472" lat="-25.015" lon="135.184">
    <tag k="man_made" v="flagpole"/>
    <tag k="name" v="Name"/>
  </node>
  <node id="29400000015" version="1" timestamp="2017-04-30T13:03:17Z" uid="112" user="SomeoneElse" changeset="101472" lat="-25.015" lon="135.185">
    <tag k="man_made" v="flagpole_red"/>
    <tag k="name" v="Name"/>
  </node>
  <node id="29400000016" version="1" timestamp="2017-04-30T13:03:17Z" uid="112" user="SomeoneElse" changeset="101472" lat="-25.015" lon="135.186">
    <tag k="man_made" v="windsock"/>
    <tag k="name" v="Name"/>
  </node>
  <node id="29400000017" version="1" timestamp="2017-04-30T13:03:17Z" uid="112" user="SomeoneElse" changeset="101472" lat="-25.015" lon="135.187">
    <tag k="man_made" v="water_tower"/>
    <tag k="name" v="Name"/>
  </node>
  <node id="29400000018" version="1" timestamp="2017-04-30T13:03:17Z" uid="112" user="SomeoneElse" changeset="101472" lat="-25.015" lon="135.188">
    <tag k="man_made" v="lighthouse"/>
    <tag k="name" v="Name"/>
  </node>
  <node id="29400000019" version="1" timestamp="2017-04-30T13:03:17Z" uid="112" user="SomeoneElse" changeset="101472" lat="-25.015" lon="135.189">
    <tag k="man_made" v="watermill"/>
    <tag k="name" v="Name"/>
  </node>
  <node id="29400000020" version="1" timestamp="2017-04-30T13:03:17Z" uid="112" user="SomeoneElse" changeset="101472" lat="-25.015" lon="135.19">
    <tag k="man_made" v="power_wind"/>
    <tag k="name" v="Name"/>
  </node>
  <node id="29400000021" version="1" timestamp="2017-04-30T13:03:17Z" uid="112" user="SomeoneElse" changeset="101472" lat="-25.015" lon="135.191">
    <tag k="man_made" v="windmill"/>
    <tag k="name" v="Name"/>
  </node>
  <node id="29400000022" version="1" timestamp="2017-04-30T13:03:17Z" uid="112" user="SomeoneElse" changeset="101472" lat="-25.015" lon="135.192">
    <tag k="man_made" v="ventilation_shaft"/>
    <tag k="name" v="Name"/>
  </node>
  <node id="29400000023" version="1" timestamp="2017-04-30T13:03:17Z" uid="112" user="SomeoneElse" changeset="101472" lat="-25.015" lon="135.193">
    <tag k="man_made" v="crane"/>
    <tag k="name" v="Name"/>
  </node>
  <node id="29401000001" version="1" timestamp="2017-04-30T13:03:17Z" uid="112" user="SomeoneElse" changeset="101472" lat="-25.0148" lon="135.171">
    <tag k="place" v="legend_text"/>
    <tag k="name" v="Mast"/>
  </node>
  <node id="29401000002" version="1" timestamp="2017-04-30T13:03:17Z" uid="112" user="SomeoneElse" changeset="101472" lat="-25.0148" lon="135.172">
    <tag k="place" v="legend_text"/>
    <tag k="name" v="Chimney"/>
  </node>
  <node id="29401000003" version="1" timestamp="2017-04-30T13:03:17Z" uid="112" user="SomeoneElse" changeset="101472" lat="-25.0148" lon="135.173">
    <tag k="place" v="legend_text"/>
    <tag k="name" v="Clock Tower"/>
  </node>
  <node id="29401000004" version="1" timestamp="2017-04-30T13:03:17Z" uid="112" user="SomeoneElse" changeset="101472" lat="-25.0148" lon="135.174">
    <tag k="place" v="legend_text"/>
    <tag k="name" v="Pedestal Clock"/>
  </node>
  <node id="29401000005" version="1" timestamp="2017-04-30T13:03:17Z" uid="112" user="SomeoneElse" changeset="101472" lat="-25.0148" lon="135.175">
    <tag k="place" v="legend_text"/>
    <tag k="name" v="Illumination"/>
  </node>
  <node id="29401000006" version="1" timestamp="2017-04-30T13:03:17Z" uid="112" user="SomeoneElse" changeset="101472" lat="-25.0148" lon="135.176">
    <tag k="place" v="legend_text"/>
    <tag k="name" v="Defensive"/>
  </node>
  <node id="29401000007" version="1" timestamp="2017-04-30T13:03:17Z" uid="112" user="SomeoneElse" changeset="101472" lat="-25.0148" lon="135.177">
    <tag k="place" v="legend_text"/>
    <tag k="name" v="Observation"/>
  </node>
  <node id="29401000008" version="1" timestamp="2017-04-30T13:03:17Z" uid="112" user="SomeoneElse" changeset="101472" lat="-25.0148" lon="135.178">
    <tag k="place" v="legend_text"/>
    <tag k="name" v="Aircraft Control"/>
  </node>
  <node id="29401000009" version="1" timestamp="2017-04-30T13:03:17Z" uid="112" user="SomeoneElse" changeset="101472" lat="-25.0148" lon="135.179">
    <tag k="place" v="legend_text"/>
    <tag k="name" v="Radar"/>
  </node>
  <node id="29401000010" version="1" timestamp="2017-04-30T13:03:17Z" uid="112" user="SomeoneElse" changeset="101472" lat="-25.0148" lon="135.18">
    <tag k="place" v="legend_text"/>
    <tag k="name" v="Firefighter"/>
  </node>
  <node id="29401000011" version="1" timestamp="2017-04-30T13:03:17Z" uid="112" user="SomeoneElse" changeset="101472" lat="-25.0148" lon="135.181">
    <tag k="place" v="legend_text"/>
    <tag k="name" v="Church Tower"/>
  </node>
  <node id="29401000012" version="1" timestamp="2017-04-30T13:03:17Z" uid="112" user="SomeoneElse" changeset="101472" lat="-25.0148" lon="135.182">
    <tag k="place" v="legend_text"/>
    <tag k="name" v="Church Spire"/>
  </node>
  <node id="29401000013" version="1" timestamp="2017-04-30T13:03:17Z" uid="112" user="SomeoneElse" changeset="101472" lat="-25.0148" lon="135.183">
    <tag k="place" v="legend_text"/>
    <tag k="name" v="Maypole"/>
  </node>
  <node id="29401000014" version="1" timestamp="2017-04-30T13:03:17Z" uid="112" user="SomeoneElse" changeset="101472" lat="-25.0148" lon="135.184">
    <tag k="place" v="legend_text"/>
    <tag k="name" v="Flagpole"/>
  </node>
  <node id="29401000015" version="1" timestamp="2017-04-30T13:03:17Z" uid="112" user="SomeoneElse" changeset="101472" lat="-25.0148" lon="135.185">
    <tag k="place" v="legend_text"/>
    <tag k="name" v="Military"/>
  </node>
  <node id="29401000016" version="1" timestamp="2017-04-30T13:03:17Z" uid="112" user="SomeoneElse" changeset="101472" lat="-25.0148" lon="135.186">
    <tag k="place" v="legend_text"/>
    <tag k="name" v="Windsock"/>
  </node>
  <node id="29401000017" version="1" timestamp="2017-04-30T13:03:17Z" uid="112" user="SomeoneElse" changeset="101472" lat="-25.0148" lon="135.187">
    <tag k="place" v="legend_text"/>
    <tag k="name" v="Water Tower"/>
  </node>
  <node id="29401000018" version="1" timestamp="2017-04-30T13:03:17Z" uid="112" user="SomeoneElse" changeset="101472" lat="-25.0148" lon="135.188">
    <tag k="place" v="legend_text"/>
    <tag k="name" v="Lighthouse"/>
  </node>
  <node id="29401000019" version="1" timestamp="2017-04-30T13:03:17Z" uid="112" user="SomeoneElse" changeset="101472" lat="-25.0148" lon="135.189">
    <tag k="place" v="legend_text"/>
    <tag k="name" v="Watermill"/>
  </node>
  <node id="29401000020" version="1" timestamp="2017-04-30T13:03:17Z" uid="112" user="SomeoneElse" changeset="101472" lat="-25.0148" lon="135.19">
    <tag k="place" v="legend_text"/>
    <tag k="name" v="Wind Turbine"/>
  </node>
  <node id="29401000021" version="1" timestamp="2017-04-30T13:03:17Z" uid="112" user="SomeoneElse" changeset="101472" lat="-25.0148" lon="135.191">
    <tag k="place" v="legend_text"/>
    <tag k="name" v="Windmill"/>
  </node>
  <node id="29401000022" version="1" timestamp="2017-04-30T13:03:17Z" uid="112" user="SomeoneElse" changeset="101472" lat="-25.0148" lon="135.192">
    <tag k="place" v="legend_text"/>
    <tag k="name" v="Vent Shaft"/>
  </node>
  <node id="29401000023" version="1" timestamp="2017-04-30T13:03:17Z" uid="112" user="SomeoneElse" changeset="101472" lat="-25.0148" lon="135.193">
    <tag k="place" v="legend_text"/>
    <tag k="name" v="Crane"/>
  </node>
  <node id="29410000001" version="1" timestamp="2017-04-30T13:03:17Z" uid="112" user="SomeoneElse" changeset="101472" lat="-25.016" lon="135.171">
    <tag k="natural" v="peak"/>
    <tag k="name" v="Name / ele"/>
  </node>
  <node id="29410000002" version="1" timestamp="2017-04-30T13:03:17Z" uid="112" user="SomeoneElse" changeset="101472" lat="-25.016" lon="135.172">
    <tag k="natural" v="hill"/>
    <tag k="name" v="Name / ele"/>
  </node>
  <node id="29410000003" version="1" timestamp="2017-04-30T13:03:17Z" uid="112" user="SomeoneElse" changeset="101472" lat="-25.016" lon="135.173">
    <tag k="natural" v="volcano"/>
    <tag k="name" v="Name"/>
  </node>
  <node id="29410000004" version="1" timestamp="2017-04-30T13:03:17Z" uid="112" user="SomeoneElse" changeset="101472" lat="-25.016" lon="135.174">
    <tag k="natural" v="cave_entrance"/>
    <tag k="name" v="Name"/>
  </node>
  <node id="29410000005" version="1" timestamp="2017-04-30T13:03:17Z" uid="112" user="SomeoneElse" changeset="101472" lat="-25.016" lon="135.175">
    <tag k="natural" v="sinkhole"/>
    <tag k="name" v="Name"/>
  </node>
  <node id="29410000006" version="1" timestamp="2017-04-30T13:03:17Z" uid="112" user="SomeoneElse" changeset="101472" lat="-25.016" lon="135.176">
    <tag k="man_made" v="mineshaft"/>
    <tag k="name" v="Name"/>
  </node>
  <node id="29410000007" version="1" timestamp="2017-04-30T13:03:17Z" uid="112" user="SomeoneElse" changeset="101472" lat="-25.016" lon="135.177">
    <tag k="natural" v="rock"/>
    <tag k="name" v="Name"/>
  </node>
  <node id="29410000008" version="1" timestamp="2017-04-30T13:03:17Z" uid="112" user="SomeoneElse" changeset="101472" lat="-25.016" lon="135.178">
    <tag k="natural" v="stone"/>
    <tag k="name" v="Name"/>
  </node>
  <node id="29410000009" version="1" timestamp="2017-04-30T13:03:17Z" uid="112" user="SomeoneElse" changeset="101472" lat="-25.016" lon="135.179">
    <tag k="natural" v="spring"/>
    <tag k="name" v="Name"/>
  </node>
  <node id="29410000010" version="1" timestamp="2017-04-30T13:03:17Z" uid="112" user="SomeoneElse" changeset="101472" lat="-25.016" lon="135.18">
    <tag k="natural" v="tree"/>
    <tag k="name" v="Name"/>
  </node>
  <node id="29410000011" version="1" timestamp="2017-04-30T13:03:17Z" uid="112" user="SomeoneElse" changeset="101472" lat="-25.016" lon="135.181">
    <tag k="natural" v="shrub"/>
    <tag k="name" v="Name"/>
  </node>
  <node id="29411000001" version="1" timestamp="2017-04-30T13:03:17Z" uid="112" user="SomeoneElse" changeset="101472" lat="-25.0158" lon="135.171">
    <tag k="place" v="legend_text"/>
    <tag k="name" v="Peak"/>
  </node>
  <node id="29411000002" version="1" timestamp="2017-04-30T13:03:17Z" uid="112" user="SomeoneElse" changeset="101472" lat="-25.0158" lon="135.172">
    <tag k="place" v="legend_text"/>
    <tag k="name" v="Hill"/>
  </node>
  <node id="29411000003" version="1" timestamp="2017-04-30T13:03:17Z" uid="112" user="SomeoneElse" changeset="101472" lat="-25.0158" lon="135.173">
    <tag k="place" v="legend_text"/>
    <tag k="name" v="Volcano"/>
  </node>
  <node id="29411000004" version="1" timestamp="2017-04-30T13:03:17Z" uid="112" user="SomeoneElse" changeset="101472" lat="-25.0158" lon="135.174">
    <tag k="place" v="legend_text"/>
    <tag k="name" v="Cave"/>
  </node>
  <node id="29411000005" version="1" timestamp="2017-04-30T13:03:17Z" uid="112" user="SomeoneElse" changeset="101472" lat="-25.0158" lon="135.175">
    <tag k="place" v="legend_text"/>
    <tag k="name" v="Sinkhole"/>
  </node>
  <node id="29411000006" version="1" timestamp="2017-04-30T13:03:17Z" uid="112" user="SomeoneElse" changeset="101472" lat="-25.0158" lon="135.176">
    <tag k="place" v="legend_text"/>
    <tag k="name" v="Mine"/>
  </node>
  <node id="29411000007" version="1" timestamp="2017-04-30T13:03:17Z" uid="112" user="SomeoneElse" changeset="101472" lat="-25.0158" lon="135.177">
    <tag k="place" v="legend_text"/>
    <tag k="name" v="Rock"/>
  </node>
  <node id="29411000008" version="1" timestamp="2017-04-30T13:03:17Z" uid="112" user="SomeoneElse" changeset="101472" lat="-25.0158" lon="135.178">
    <tag k="place" v="legend_text"/>
    <tag k="name" v="Stone"/>
  </node>
  <node id="29411000009" version="1" timestamp="2017-04-30T13:03:17Z" uid="112" user="SomeoneElse" changeset="101472" lat="-25.0158" lon="135.179">
    <tag k="place" v="legend_text"/>
    <tag k="name" v="Spring"/>
  </node>
  <node id="29411000010" version="1" timestamp="2017-04-30T13:03:17Z" uid="112" user="SomeoneElse" changeset="101472" lat="-25.0158" lon="135.18">
    <tag k="place" v="legend_text"/>
    <tag k="name" v="Tree"/>
  </node>
  <node id="29411000011" version="1" timestamp="2017-04-30T13:03:17Z" uid="112" user="SomeoneElse" changeset="101472" lat="-25.0158" lon="135.181">
    <tag k="place" v="legend_text"/>
    <tag k="name" v="Shrub"/>
  </node>
</osm>
