<?xml version="1.0" encoding="UTF-8"?>
<osm version="0.6" generator="OpenStreetMap server" copyright="OpenStreetMap and contributors" attribution="http://www.openstreetmap.org/copyright" license="http://opendatacommons.org/licenses/odbl/1-0/">
<bounds minlat="51.00000" minlon="33.00000" maxlat="52.00000" maxlon="35.00000"/>
  <node id="12564000005" changeset="101472" timestamp="2017-04-30T13:03:17Z" version="1" visible="true" user="SomeoneElse" uid="112" lat="51.0" lon="33.005">
    <tag k="place" v="village"/>
    <tag k="name" v="Zoom in to see items rendered at each zoom level:"/>
  </node>
  <node id="12574000001" changeset="101472" timestamp="2017-04-30T13:03:17Z" version="1" visible="true" user="SomeoneElse" uid="112" lat="50.999" lon="33.001">
    <tag k="amenity" v="pub"/>
    <tag k="name" v="Generic Pub"/>
  </node>
  <node id="12575000001" changeset="101472" timestamp="2017-04-30T13:03:17Z" version="1" visible="true" user="SomeoneElse" uid="112" lat="50.9992" lon="33.001">
    <tag k="place" v="legend_text"/>
    <tag k="name" v="Pubs"/>
  </node>
  <node id="12574000002" changeset="101472" timestamp="2017-04-30T13:03:17Z" version="1" visible="true" user="SomeoneElse" uid="112" lat="50.999" lon="33.002">
    <tag k="amenity" v="pub"/>
    <tag k="name" v="Real Ale"/>
    <tag k="real_ale" v="An interesting selection"/>
  </node>
  <node id="12574000003" changeset="101472" timestamp="2017-04-30T13:03:17Z" version="1" visible="true" user="SomeoneElse" uid="112" lat="50.999" lon="33.003">
    <tag k="amenity" v="pub"/>
    <tag k="name" v="No Real Ale"/>
    <tag k="real_ale" v="no"/>
  </node>
  <node id="12574000004" changeset="101472" timestamp="2017-04-30T13:03:17Z" version="1" visible="true" user="SomeoneElse" uid="112" lat="50.999" lon="33.004">
    <tag k="amenity" v="pub"/>
    <tag k="name" v="Food"/>
    <tag k="food" v="Some sort of description"/>
  </node>
  <node id="12574000005" changeset="101472" timestamp="2017-04-30T13:03:17Z" version="1" visible="true" user="SomeoneElse" uid="112" lat="50.999" lon="33.005">
    <tag k="amenity" v="pub"/>
    <tag k="name" v="Non-carpeted area"/>
    <tag k="description:floor" v="Tiles or Stone"/>
  </node>
  <node id="12574000006" changeset="101472" timestamp="2017-04-30T13:03:17Z" version="1" visible="true" user="SomeoneElse" uid="112" lat="50.999" lon="33.006">
    <tag k="amenity" v="pub"/>
    <tag k="name" v="with Microbrewery"/>
    <tag k="microbrewery" v="yes"/>
  </node>
  <node id="12574000007" changeset="101472" timestamp="2017-04-30T13:03:17Z" version="1" visible="true" user="SomeoneElse" uid="112" lat="50.999" lon="33.007">
    <tag k="amenity" v="pub"/>
    <tag k="name" v="Micropub"/>
    <tag k="micropub" v="yes"/>
  </node>
  <node id="12574000008" changeset="101472" timestamp="2017-04-30T13:03:17Z" version="1" visible="true" user="SomeoneElse" uid="112" lat="50.999" lon="33.008">
    <tag k="amenity" v="pub"/>
    <tag k="name" v="Accommodation"/>
    <tag k="accommodation" v="yes"/>
  </node>
  <node id="12574000009" changeset="101472" timestamp="2017-04-30T13:03:17Z" version="1" visible="true" user="SomeoneElse" uid="112" lat="50.999" lon="33.009">
    <tag k="amenity" v="pub"/>
    <tag k="name" v="Wheelchair accessible"/>
    <tag k="wheelchair" v="yes"/>
  </node>
  <node id="12574000010" changeset="101472" timestamp="2017-04-30T13:03:17Z" version="1" visible="true" user="SomeoneElse" uid="112" lat="50.999" lon="33.01">
    <tag k="amenity" v="pub"/>
    <tag k="name" v="Limited wheelchair access"/>
    <tag k="wheelchair" v="limited"/>
  </node>
  <node id="12574000011" changeset="101472" timestamp="2017-04-30T13:03:17Z" version="1" visible="true" user="SomeoneElse" uid="112" lat="50.999" lon="33.011">
    <tag k="amenity" v="pub"/>
    <tag k="name" v="No wheelchair access"/>
    <tag k="wheelchair" v="no"/>
  </node>
  <node id="12574000012" changeset="101472" timestamp="2017-04-30T13:03:17Z" version="1" visible="true" user="SomeoneElse" uid="112" lat="50.999" lon="33.012">
    <tag k="amenity" v="pub"/>
    <tag k="name" v="Beer Garden"/>
    <tag k="beer_garden" v="yes"/>
  </node>
  <node id="12574000013" changeset="101472" timestamp="2017-04-30T13:03:17Z" version="1" visible="true" user="SomeoneElse" uid="112" lat="50.999" lon="33.013">
    <tag k="amenity" v="pub"/>
    <tag k="name" v="Outdoor Seating"/>
    <tag k="outdoor_seating" v="yes"/>
  </node>
  <node id="12574000014" changeset="101472" timestamp="2017-04-30T13:03:17Z" version="1" visible="true" user="SomeoneElse" uid="112" lat="50.999" lon="33.014">
    <tag k="amenity" v="pub"/>
    <tag k="name" v="Combination"/>
    <tag k="real_ale" v="An interesting selection"/>
    <tag k="food" v="Some sort of description"/>
    <tag k="microbrewery" v="yes"/>
    <tag k="floor:material" v="tiles"/>
    <tag k="wheelchair" v="yes"/>
  </node>
  <node id="12574000015" changeset="101472" timestamp="2017-04-30T13:03:17Z" version="1" visible="true" user="SomeoneElse" uid="112" lat="50.999" lon="33.015">
    <tag k="disused:amenity" v="pub"/>
    <tag k="name" v="Shut"/>
  </node>
  <node id="12574000016" changeset="101472" timestamp="2017-04-30T13:03:17Z" version="1" visible="true" user="SomeoneElse" uid="112" lat="50.999" lon="33.016">
    <tag k="amenity" v="pub"/>
    <tag k="name" v="... due to Covid 19"/>
    <tag k="opening_hours:covid19" v="off"/>
  </node>
  <node id="12584000001" changeset="101472" timestamp="2017-04-30T13:03:17Z" version="1" visible="true" user="SomeoneElse" uid="112" lat="50.998" lon="33.001">
    <tag k="amenity" v="fast_food"/>
    <tag k="name" v="Generic Fast Food"/>
  </node>
  <node id="12585000001" changeset="101472" timestamp="2017-04-30T13:03:17Z" version="1" visible="true" user="SomeoneElse" uid="112" lat="50.9982" lon="33.001">
    <tag k="place" v="legend_text"/>
    <tag k="name" v="Fast Food"/>
  </node>
  <node id="12584000002" changeset="101472" timestamp="2017-04-30T13:03:17Z" version="1" visible="true" user="SomeoneElse" uid="112" lat="50.998" lon="33.002">
    <tag k="amenity" v="fast_food"/>
    <tag k="name" v="American, Burger"/>
    <tag k="cuisine" v="burger"/>
  </node>
  <node id="12584000003" changeset="101472" timestamp="2017-04-30T13:03:17Z" version="1" visible="true" user="SomeoneElse" uid="112" lat="50.998" lon="33.003">
    <tag k="amenity" v="fast_food"/>
    <tag k="name" v="Chicken"/>
    <tag k="cuisine" v="chicken"/>
  </node>
  <node id="12584000004" changeset="101472" timestamp="2017-04-30T13:03:17Z" version="1" visible="true" user="SomeoneElse" uid="112" lat="50.998" lon="33.004">
    <tag k="amenity" v="fast_food"/>
    <tag k="name" v="Chinese, Japanese, etc."/>
    <tag k="cuisine" v="chinese"/>
  </node>
  <node id="12584000005" changeset="101472" timestamp="2017-04-30T13:03:17Z" version="1" visible="true" user="SomeoneElse" uid="112" lat="50.998" lon="33.005">
    <tag k="amenity" v="fast_food"/>
    <tag k="name" v="Coffee"/>
    <tag k="cuisine" v="coffee"/>
  </node>
  <node id="12584000006" changeset="101472" timestamp="2017-04-30T13:03:17Z" version="1" visible="true" user="SomeoneElse" uid="112" lat="50.998" lon="33.006">
    <tag k="amenity" v="fast_food"/>
    <tag k="name" v="Fish and Chips"/>
    <tag k="cuisine" v="fish_and_chips"/>
  </node>
  <node id="12584000007" changeset="101472" timestamp="2017-04-30T13:03:17Z" version="1" visible="true" user="SomeoneElse" uid="112" lat="50.998" lon="33.007">
    <tag k="amenity" v="fast_food"/>
    <tag k="name" v="Ice Cream"/>
    <tag k="cuisine" v="ice_cream"/>
  </node>
  <node id="12584000008" changeset="101472" timestamp="2017-04-30T13:03:17Z" version="1" visible="true" user="SomeoneElse" uid="112" lat="50.998" lon="33.008">
    <tag k="amenity" v="fast_food"/>
    <tag k="name" v="Indian"/>
    <tag k="cuisine" v="indian"/>
  </node>
  <node id="12584000009" changeset="101472" timestamp="2017-04-30T13:03:17Z" version="1" visible="true" user="SomeoneElse" uid="112" lat="50.998" lon="33.009">
    <tag k="amenity" v="fast_food"/>
    <tag k="name" v="Kebab, Turkish"/>
    <tag k="cuisine" v="kebab"/>
  </node>
  <node id="12584000010" changeset="101472" timestamp="2017-04-30T13:03:17Z" version="1" visible="true" user="SomeoneElse" uid="112" lat="50.998" lon="33.01">
    <tag k="amenity" v="fast_food"/>
    <tag k="name" v="Pies, Pasties"/>
    <tag k="cuisine" v="pie"/>
  </node>
  <node id="12584000011" changeset="101472" timestamp="2017-04-30T13:03:17Z" version="1" visible="true" user="SomeoneElse" uid="112" lat="50.998" lon="33.011">
    <tag k="amenity" v="fast_food"/>
    <tag k="name" v="Pizza, Italian"/>
    <tag k="cuisine" v="pizza"/>
  </node>
  <node id="12584000012" changeset="101472" timestamp="2017-04-30T13:03:17Z" version="1" visible="true" user="SomeoneElse" uid="112" lat="50.998" lon="33.012">
    <tag k="amenity" v="fast_food"/>
    <tag k="name" v="Sandwich"/>
    <tag k="cuisine" v="sandwich"/>
  </node>
  <node id="12594000001" changeset="101472" timestamp="2017-04-30T13:03:17Z" version="1" visible="true" user="SomeoneElse" uid="112" lat="50.997" lon="33.001">
    <tag k="amenity" v="bar"/>
    <tag k="name" v="Bar"/>
  </node>
  <node id="12595000001" changeset="101472" timestamp="2017-04-30T13:03:17Z" version="1" visible="true" user="SomeoneElse" uid="112" lat="50.9972" lon="33.001">
    <tag k="place" v="legend_text"/>
    <tag k="name" v="Other Eating and Drinking"/>
  </node>
  <node id="12594000002" changeset="101472" timestamp="2017-04-30T13:03:17Z" version="1" visible="true" user="SomeoneElse" uid="112" lat="50.997" lon="33.002">
    <tag k="amenity" v="bar"/>
    <tag k="accommodation" v="yes"/>
    <tag k="name" v="Bar with rooms"/>
  </node>
  <node id="12594000003" changeset="101472" timestamp="2017-04-30T13:03:17Z" version="1" visible="true" user="SomeoneElse" uid="112" lat="50.997" lon="33.003">
    <tag k="amenity" v="bar"/>
    <tag k="wheelchair" v="yes"/>
    <tag k="name" v="with wheelchair access"/>
  </node>
  <node id="12594000004" changeset="101472" timestamp="2017-04-30T13:03:17Z" version="1" visible="true" user="SomeoneElse" uid="112" lat="50.997" lon="33.004">
    <tag k="amenity" v="bar"/>
    <tag k="outdoor_seating" v="yes"/>
    <tag k="name" v="with outdoor seating"/>
  </node>
  <node id="12594000005" changeset="101472" timestamp="2017-04-30T13:03:17Z" version="1" visible="true" user="SomeoneElse" uid="112" lat="50.997" lon="33.005">
    <tag k="amenity" v="nightclub"/>
    <tag k="name" v="Nightclub"/>
  </node>
  <node id="12594000006" changeset="101472" timestamp="2017-04-30T13:03:17Z" version="1" visible="true" user="SomeoneElse" uid="112" lat="50.997" lon="33.006">
    <tag k="amenity" v="social_club"/>
    <tag k="name" v="Social Club"/>
  </node>
  <node id="12594000007" changeset="101472" timestamp="2017-04-30T13:03:17Z" version="1" visible="true" user="SomeoneElse" uid="112" lat="50.997" lon="33.007">
    <tag k="amenity" v="cafe"/>
    <tag k="name" v="Cafe"/>
  </node>
  <node id="12594000008" changeset="101472" timestamp="2017-04-30T13:03:17Z" version="1" visible="true" user="SomeoneElse" uid="112" lat="50.997" lon="33.008">
    <tag k="amenity" v="cafe"/>
    <tag k="accommodation" v="yes"/>
    <tag k="name" v="Cafe with rooms"/>
  </node>
  <node id="12594000009" changeset="101472" timestamp="2017-04-30T13:03:17Z" version="1" visible="true" user="SomeoneElse" uid="112" lat="50.997" lon="33.009">
    <tag k="amenity" v="cafe"/>
    <tag k="wheelchair" v="yes"/>
    <tag k="name" v="with wheelchair access"/>
  </node>
  <node id="12594000010" changeset="101472" timestamp="2017-04-30T13:03:17Z" version="1" visible="true" user="SomeoneElse" uid="112" lat="50.997" lon="33.01">
    <tag k="amenity" v="cafe"/>
    <tag k="outdoor_seating" v="yes"/>
    <tag k="name" v="with outdoor seating"/>
  </node>
  <node id="12594000011" changeset="101472" timestamp="2017-04-30T13:03:17Z" version="1" visible="true" user="SomeoneElse" uid="112" lat="50.997" lon="33.011">
    <tag k="amenity" v="restaurant"/>
    <tag k="name" v="Restaurant"/>
  </node>
  <node id="12594000012" changeset="101472" timestamp="2017-04-30T13:03:17Z" version="1" visible="true" user="SomeoneElse" uid="112" lat="50.997" lon="33.012">
    <tag k="amenity" v="restaccomm"/>
    <tag k="name" v="with rooms"/>
  </node>
  <node id="12594000013" changeset="101472" timestamp="2017-04-30T13:03:17Z" version="1" visible="true" user="SomeoneElse" uid="112" lat="50.997" lon="33.013">
    <tag k="amenity" v="biergarten"/>
    <tag k="name" v="Biergarten"/>
  </node>
  <node id="12604000001" changeset="101472" timestamp="2017-04-30T13:03:17Z" version="1" visible="true" user="SomeoneElse" uid="112" lat="50.996" lon="33.001">
    <tag k="shop" v="convenience"/>
    <tag k="name" v="Convenience, Kiosk, Newsagent, Food"/>
  </node>
  <node id="12605000001" changeset="101472" timestamp="2017-04-30T13:03:17Z" version="1" visible="true" user="SomeoneElse" uid="112" lat="50.9962" lon="33.001">
    <tag k="place" v="legend_text"/>
    <tag k="name" v="Food Shops"/>
  </node>
  <node id="12604000002" changeset="101472" timestamp="2017-04-30T13:03:17Z" version="1" visible="true" user="SomeoneElse" uid="112" lat="50.996" lon="33.002">
    <tag k="shop" v="zero_waste"/>
    <tag k="name" v="Zero Waste / Refill Shop"/>
  </node>
  <node id="12604000003" changeset="101472" timestamp="2017-04-30T13:03:17Z" version="1" visible="true" user="SomeoneElse" uid="112" lat="50.996" lon="33.003">
    <tag k="shop" v="supermarket"/>
    <tag k="name" v="Supermarket"/>
  </node>
  <node id="12604000004" changeset="101472" timestamp="2017-04-30T13:03:17Z" version="1" visible="true" user="SomeoneElse" uid="112" lat="50.996" lon="33.004">
    <tag k="shop" v="supermarket"/>
    <tag k="zero_waste" v="only"/>
    <tag k="name" v="Zero Waste Supermarket"/>
  </node>
  <node id="12604000005" changeset="101472" timestamp="2017-04-30T13:03:17Z" version="1" visible="true" user="SomeoneElse" uid="112" lat="50.996" lon="33.005">
    <tag k="shop" v="health_food"/>
    <tag k="name" v="Health Food"/>
  </node>
  <node id="12604000006" changeset="101472" timestamp="2017-04-30T13:03:17Z" version="1" visible="true" user="SomeoneElse" uid="112" lat="50.996" lon="33.006">
    <tag k="shop" v="health_food"/>
    <tag k="zero_waste" v="only"/>
    <tag k="name" v="Zero Waste Health Food"/>
  </node>
  <node id="12604000007" changeset="101472" timestamp="2017-04-30T13:03:17Z" version="1" visible="true" user="SomeoneElse" uid="112" lat="50.996" lon="33.007">
    <tag k="shop" v="bakery"/>
    <tag k="name" v="Bakery"/>
  </node>
  <node id="12604000008" changeset="101472" timestamp="2017-04-30T13:03:17Z" version="1" visible="true" user="SomeoneElse" uid="112" lat="50.996" lon="33.008">
    <tag k="shop" v="butcher"/>
    <tag k="name" v="Butcher"/>
  </node>
  <node id="12604000009" changeset="101472" timestamp="2017-04-30T13:03:17Z" version="1" visible="true" user="SomeoneElse" uid="112" lat="50.996" lon="33.009">
    <tag k="shop" v="fish"/>
    <tag k="name" v="Fish"/>
  </node>
  <node id="12604000010" changeset="101472" timestamp="2017-04-30T13:03:17Z" version="1" visible="true" user="SomeoneElse" uid="112" lat="50.996" lon="33.01">
    <tag k="shop" v="greengrocer"/>
    <tag k="name" v="Greengrocer"/>
  </node>
  <node id="12604000011" changeset="101472" timestamp="2017-04-30T13:03:17Z" version="1" visible="true" user="SomeoneElse" uid="112" lat="50.996" lon="33.011">
    <tag k="shop" v="greengrocer"/>
    <tag k="zero_waste" v="only"/>
    <tag k="name" v="Zero Waste Greengrocer"/>
  </node>
  <node id="12604000012" changeset="101472" timestamp="2017-04-30T13:03:17Z" version="1" visible="true" user="SomeoneElse" uid="112" lat="50.996" lon="33.012">
    <tag k="shop" v="farm"/>
    <tag k="name" v="Farm Shop"/>
  </node>
  <node id="12604000013" changeset="101472" timestamp="2017-04-30T13:03:17Z" version="1" visible="true" user="SomeoneElse" uid="112" lat="50.996" lon="33.013">
    <tag k="shop" v="deli"/>
    <tag k="name" v="Deli"/>
  </node>
  <node id="12604000014" changeset="101472" timestamp="2017-04-30T13:03:17Z" version="1" visible="true" user="SomeoneElse" uid="112" lat="50.996" lon="33.014">
    <tag k="shop" v="alcohol"/>
    <tag k="name" v="Alcohol"/>
  </node>
  <node id="12604000015" changeset="101472" timestamp="2017-04-30T13:03:17Z" version="1" visible="true" user="SomeoneElse" uid="112" lat="50.996" lon="33.015">
    <tag k="shop" v="coffee"/>
    <tag k="name" v="Coffee, Tea, etc."/>
  </node>
  <node id="12604000016" changeset="101472" timestamp="2017-04-30T13:03:17Z" version="1" visible="true" user="SomeoneElse" uid="112" lat="50.996" lon="33.016">
    <tag k="shop" v="confectionery"/>
    <tag k="name" v="Confectionery"/>
  </node>
  <node id="12604000017" changeset="101472" timestamp="2017-04-30T13:03:17Z" version="1" visible="true" user="SomeoneElse" uid="112" lat="50.996" lon="33.017">
    <tag k="shop" v="variety_store"/>
    <tag k="name" v="Variety, Discount"/>
  </node>
  <node id="12614000001" changeset="101472" timestamp="2017-04-30T13:03:17Z" version="1" visible="true" user="SomeoneElse" uid="112" lat="50.995" lon="33.001">
    <tag k="shop" v="yes"/>
    <tag k="name" v="Generic Shop"/>
  </node>
  <node id="12615000001" changeset="101472" timestamp="2017-04-30T13:03:17Z" version="1" visible="true" user="SomeoneElse" uid="112" lat="50.9952" lon="33.001">
    <tag k="place" v="legend_text"/>
    <tag k="name" v="Other Shops"/>
  </node>
  <node id="12614000002" changeset="101472" timestamp="2017-04-30T13:03:17Z" version="1" visible="true" user="SomeoneElse" uid="112" lat="50.995" lon="33.002">
    <tag k="shop" v="catalogue"/>
    <tag k="name" v="Catalogue"/>
  </node>
  <node id="12614000003" changeset="101472" timestamp="2017-04-30T13:03:17Z" version="1" visible="true" user="SomeoneElse" uid="112" lat="50.995" lon="33.003">
    <tag k="shop" v="clothes"/>
    <tag k="name" v="Clothes, Boutique, Tailor, Fashion, Baby Goods"/>
  </node>
  <node id="12614000004" changeset="101472" timestamp="2017-04-30T13:03:17Z" version="1" visible="true" user="SomeoneElse" uid="112" lat="50.995" lon="33.004">
    <tag k="shop" v="shoes"/>
    <tag k="name" v="Shoes"/>
  </node>
  <node id="12614000005" changeset="101472" timestamp="2017-04-30T13:03:17Z" version="1" visible="true" user="SomeoneElse" uid="112" lat="50.995" lon="33.005">
    <tag k="shop" v="gift"/>
    <tag k="name" v="Gift"/>
  </node>
  <node id="12614000006" changeset="101472" timestamp="2017-04-30T13:03:17Z" version="1" visible="true" user="SomeoneElse" uid="112" lat="50.995" lon="33.006">
    <tag k="shop" v="toys"/>
    <tag k="name" v="Toys"/>
  </node>
  <node id="12614000007" changeset="101472" timestamp="2017-04-30T13:03:17Z" version="1" visible="true" user="SomeoneElse" uid="112" lat="50.995" lon="33.007">
    <tag k="shop" v="furniture"/>
    <tag k="name" v="Furniture"/>
  </node>
  <node id="12614000008" changeset="101472" timestamp="2017-04-30T13:03:17Z" version="1" visible="true" user="SomeoneElse" uid="112" lat="50.995" lon="33.008">
    <tag k="shop" v="homeware"/>
    <tag k="name" v="Homeware"/>
  </node>
  <node id="12614000009" changeset="101472" timestamp="2017-04-30T13:03:17Z" version="1" visible="true" user="SomeoneElse" uid="112" lat="50.995" lon="33.009">
    <tag k="shop" v="florist"/>
    <tag k="name" v="Florist"/>
  </node>
  <node id="12614000010" changeset="101472" timestamp="2017-04-30T13:03:17Z" version="1" visible="true" user="SomeoneElse" uid="112" lat="50.995" lon="33.01">
    <tag k="shop" v="doityourself"/>
    <tag k="name" v="Do-It-Yourself, Hardware"/>
  </node>
  <node id="12614000011" changeset="101472" timestamp="2017-04-30T13:03:17Z" version="1" visible="true" user="SomeoneElse" uid="112" lat="50.995" lon="33.011">
    <tag k="shop" v="locksmith"/>
    <tag k="name" v="Locksmith"/>
  </node>
  <node id="12614000012" changeset="101472" timestamp="2017-04-30T13:03:17Z" version="1" visible="true" user="SomeoneElse" uid="112" lat="50.995" lon="33.012">
    <tag k="shop" v="shoe_repair_etc"/>
    <tag k="name" v="Shoe Repair etc."/>
  </node>
  <node id="12614000013" changeset="101472" timestamp="2017-04-30T13:03:17Z" version="1" visible="true" user="SomeoneElse" uid="112" lat="50.995" lon="33.013">
    <tag k="shop" v="storage_rental"/>
    <tag k="name" v="Storage Rental"/>
  </node>
  <node id="12614000014" changeset="101472" timestamp="2017-04-30T13:03:17Z" version="1" visible="true" user="SomeoneElse" uid="112" lat="50.995" lon="33.014">
    <tag k="shop" v="electrical"/>
    <tag k="name" v="Electrical"/>
  </node>
  <node id="12614000015" changeset="101472" timestamp="2017-04-30T13:03:17Z" version="1" visible="true" user="SomeoneElse" uid="112" lat="50.995" lon="33.015">
    <tag k="shop" v="electronics"/>
    <tag k="name" v="Electronics"/>
  </node>
  <node id="12614000016" changeset="101472" timestamp="2017-04-30T13:03:17Z" version="1" visible="true" user="SomeoneElse" uid="112" lat="50.995" lon="33.016">
    <tag k="shop" v="mobile_phone"/>
    <tag k="name" v="Mobile Phone"/>
  </node>
  <node id="12614000017" changeset="101472" timestamp="2017-04-30T13:03:17Z" version="1" visible="true" user="SomeoneElse" uid="112" lat="50.995" lon="33.017">
    <tag k="shop" v="computer"/>
    <tag k="name" v="Computer"/>
  </node>
  <node id="12614000018" changeset="101472" timestamp="2017-04-30T13:03:17Z" version="1" visible="true" user="SomeoneElse" uid="112" lat="50.995" lon="33.018">
    <tag k="shop" v="bicycle"/>
    <tag k="name" v="Bike Shop"/>
  </node>
  <node id="12614000019" changeset="101472" timestamp="2017-04-30T13:03:17Z" version="1" visible="true" user="SomeoneElse" uid="112" lat="50.995" lon="33.019">
    <tag k="shop" v="jewellery"/>
    <tag k="name" v="Jewellery, Watches"/>
  </node>
  <node id="12614000020" changeset="101472" timestamp="2017-04-30T13:03:17Z" version="1" visible="true" user="SomeoneElse" uid="112" lat="50.995" lon="33.02">
    <tag k="shop" v="department_store"/>
    <tag k="name" v="Department Store"/>
  </node>
  <node id="12614000021" changeset="101472" timestamp="2017-04-30T13:03:17Z" version="1" visible="true" user="SomeoneElse" uid="112" lat="50.995" lon="33.021">
    <tag k="shop" v="sports"/>
    <tag k="name" v="Sports, Fishing, Scuba Diving"/>
  </node>
  <node id="12614000022" changeset="101472" timestamp="2017-04-30T13:03:17Z" version="1" visible="true" user="SomeoneElse" uid="112" lat="50.995" lon="33.022">
    <tag k="shop" v="garden_centre"/>
    <tag k="name" v="Garden Centre"/>
  </node>
  <node id="12614000023" changeset="101472" timestamp="2017-04-30T13:03:17Z" version="1" visible="true" user="SomeoneElse" uid="112" lat="50.995" lon="33.023">
    <tag k="shop" v="outdoor"/>
    <tag k="name" v="Outdoor"/>
  </node>
  <node id="12614000024" changeset="101472" timestamp="2017-04-30T13:03:17Z" version="1" visible="true" user="SomeoneElse" uid="112" lat="50.995" lon="33.024">
    <tag k="shop" v="art"/>
    <tag k="name" v="Art"/>
  </node>
  <node id="12614000025" changeset="101472" timestamp="2017-04-30T13:03:17Z" version="1" visible="true" user="SomeoneElse" uid="112" lat="50.995" lon="33.025">
    <tag k="shop" v="photo"/>
    <tag k="name" v="Photo"/>
  </node>
  <node id="12614000026" changeset="101472" timestamp="2017-04-30T13:03:17Z" version="1" visible="true" user="SomeoneElse" uid="112" lat="50.995" lon="33.026">
    <tag k="shop" v="charity"/>
    <tag k="name" v="Charity"/>
  </node>
  <node id="12614000027" changeset="101472" timestamp="2017-04-30T13:03:17Z" version="1" visible="true" user="SomeoneElse" uid="112" lat="50.995" lon="33.027">
    <tag k="shop" v="antiques"/>
    <tag k="name" v="Antiques"/>
  </node>
  <node id="12614000028" changeset="101472" timestamp="2017-04-30T13:03:17Z" version="1" visible="true" user="SomeoneElse" uid="112" lat="50.995" lon="33.028">
    <tag k="shop" v="e-cigarette"/>
    <tag k="name" v="E-Cigarette"/>
  </node>
  <node id="12614000029" changeset="101472" timestamp="2017-04-30T13:03:17Z" version="1" visible="true" user="SomeoneElse" uid="112" lat="50.995" lon="33.029">
    <tag k="shop" v="pet"/>
    <tag k="name" v="Pet"/>
  </node>
  <node id="12614000030" changeset="101472" timestamp="2017-04-30T13:03:17Z" version="1" visible="true" user="SomeoneElse" uid="112" lat="50.995" lon="33.03">
    <tag k="shop" v="pet_food"/>
    <tag k="name" v="Pet Food"/>
  </node>
  <node id="12614000031" changeset="101472" timestamp="2017-04-30T13:03:17Z" version="1" visible="true" user="SomeoneElse" uid="112" lat="50.995" lon="33.031">
    <tag k="shop" v="books"/>
    <tag k="name" v="Books"/>
  </node>
  <node id="12614000032" changeset="101472" timestamp="2017-04-30T13:03:17Z" version="1" visible="true" user="SomeoneElse" uid="112" lat="50.995" lon="33.032">
    <tag k="shop" v="stationery"/>
    <tag k="name" v="Stationery"/>
  </node>
  <node id="12614000033" changeset="101472" timestamp="2017-04-30T13:03:17Z" version="1" visible="true" user="SomeoneElse" uid="112" lat="50.995" lon="33.033">
    <tag k="shop" v="music"/>
    <tag k="name" v="Music"/>
  </node>
  <node id="12614000034" changeset="101472" timestamp="2017-04-30T13:03:17Z" version="1" visible="true" user="SomeoneElse" uid="112" lat="50.995" lon="33.034">
    <tag k="shop" v="musical_instrument"/>
    <tag k="name" v="Musical Instrument"/>
  </node>
  <node id="12614000035" changeset="101472" timestamp="2017-04-30T13:03:17Z" version="1" visible="true" user="SomeoneElse" uid="112" lat="50.995" lon="33.035">
    <tag k="shop" v="motorcycle"/>
    <tag k="name" v="Motorcycle"/>
  </node>
  <node id="12624000001" changeset="101472" timestamp="2017-04-30T13:03:17Z" version="1" visible="true" user="SomeoneElse" uid="112" lat="50.994" lon="33.001">
    <tag k="shop" v="hairdresser"/>
    <tag k="name" v="Hairdresser"/>
  </node>
  <node id="12625000001" changeset="101472" timestamp="2017-04-30T13:03:17Z" version="1" visible="true" user="SomeoneElse" uid="112" lat="50.9942" lon="33.001">
    <tag k="place" v="legend_text"/>
    <tag k="name" v="Services"/>
  </node>
  <node id="12624000002" changeset="101472" timestamp="2017-04-30T13:03:17Z" version="1" visible="true" user="SomeoneElse" uid="112" lat="50.994" lon="33.002">
    <tag k="shop" v="beauty"/>
    <tag k="name" v="Beauty"/>
  </node>
  <node id="12624000003" changeset="101472" timestamp="2017-04-30T13:03:17Z" version="1" visible="true" user="SomeoneElse" uid="112" lat="50.994" lon="33.003">
    <tag k="shop" v="bookmaker"/>
    <tag k="name" v="Bookmaker"/>
  </node>
  <node id="12624000004" changeset="101472" timestamp="2017-04-30T13:03:17Z" version="1" visible="true" user="SomeoneElse" uid="112" lat="50.994" lon="33.004">
    <tag k="shop" v="pawnbroker"/>
    <tag k="name" v="Pawnbroker, Money Lender"/>
  </node>
  <node id="12624000005" changeset="101472" timestamp="2017-04-30T13:03:17Z" version="1" visible="true" user="SomeoneElse" uid="112" lat="50.994" lon="33.005">
    <tag k="shop" v="estate_agent"/>
    <tag k="name" v="Estate Agent"/>
  </node>
  <node id="12624000006" changeset="101472" timestamp="2017-04-30T13:03:17Z" version="1" visible="true" user="SomeoneElse" uid="112" lat="50.994" lon="33.006">
    <tag k="shop" v="tattoo"/>
    <tag k="name" v="Tattoo"/>
  </node>
  <node id="12624000007" changeset="101472" timestamp="2017-04-30T13:03:17Z" version="1" visible="true" user="SomeoneElse" uid="112" lat="50.994" lon="33.007">
    <tag k="shop" v="funeral_directors"/>
    <tag k="name" v="Funerals, Stonemasons, etc."/>
  </node>
  <node id="12624000008" changeset="101472" timestamp="2017-04-30T13:03:17Z" version="1" visible="true" user="SomeoneElse" uid="112" lat="50.994" lon="33.008">
    <tag k="shop" v="laundry"/>
    <tag k="name" v="Laundry, Dry Cleaning"/>
  </node>
  <node id="12624000009" changeset="101472" timestamp="2017-04-30T13:03:17Z" version="1" visible="true" user="SomeoneElse" uid="112" lat="50.994" lon="33.009">
    <tag k="shop" v="travel_agent"/>
    <tag k="name" v="Travel Agent"/>
  </node>
  <node id="12624000010" changeset="101472" timestamp="2017-04-30T13:03:17Z" version="1" visible="true" user="SomeoneElse" uid="112" lat="50.994" lon="33.01">
    <tag k="shop" v="copyshop"/>
    <tag k="name" v="Copyshop, Printers"/>
  </node>
  <node id="12624000011" changeset="101472" timestamp="2017-04-30T13:03:17Z" version="1" visible="true" user="SomeoneElse" uid="112" lat="50.994" lon="33.011">
    <tag k="shop" v="pet_grooming"/>
    <tag k="name" v="Pet Grooming"/>
  </node>
  <node id="12624000012" changeset="101472" timestamp="2017-04-30T13:03:17Z" version="1" visible="true" user="SomeoneElse" uid="112" lat="50.994" lon="33.012">
    <tag k="amenity" v="veterinary"/>
    <tag k="name" v="Vet"/>
  </node>
  <node id="12624000013" changeset="101472" timestamp="2017-04-30T13:03:17Z" version="1" visible="true" user="SomeoneElse" uid="112" lat="50.994" lon="33.013">
    <tag k="amenity" v="animal_boarding"/>
    <tag k="name" v="Animal Boarding"/>
  </node>
  <node id="12624000014" changeset="101472" timestamp="2017-04-30T13:03:17Z" version="1" visible="true" user="SomeoneElse" uid="112" lat="50.994" lon="33.014">
    <tag k="amenity" v="animal_shelter"/>
    <tag k="name" v="Animal Shelter"/>
  </node>
  <node id="12634000001" changeset="101472" timestamp="2017-04-30T13:03:17Z" version="1" visible="true" user="SomeoneElse" uid="112" lat="50.993" lon="33.001">
    <tag k="amenity" v="fuel"/>
    <tag k="name" v="Name"/>
  </node>
  <node id="12635000001" changeset="101472" timestamp="2017-04-30T13:03:17Z" version="1" visible="true" user="SomeoneElse" uid="112" lat="50.9932" lon="33.001">
    <tag k="place" v="legend_text"/>
    <tag k="name" v="Petrol / Diesel"/>
  </node>
  <node id="12634000002" changeset="101472" timestamp="2017-04-30T13:03:17Z" version="1" visible="true" user="SomeoneElse" uid="112" lat="50.993" lon="33.002">
    <tag k="amenity" v="fuel"/>
    <tag k="fuel:diesel" v="yes"/>
    <tag k="fuel:electricity" v="yes"/>
    <tag k="name" v="Name"/>
  </node>
  <node id="12635000002" changeset="101472" timestamp="2017-04-30T13:03:17Z" version="1" visible="true" user="SomeoneElse" uid="112" lat="50.9932" lon="33.002">
    <tag k="place" v="legend_text"/>
    <tag k="name" v="Petrol / Electric"/>
  </node>
  <node id="12634000003" changeset="101472" timestamp="2017-04-30T13:03:17Z" version="1" visible="true" user="SomeoneElse" uid="112" lat="50.993" lon="33.003">
    <tag k="amenity" v="fuel"/>
    <tag k="fuel:lpg" v="yes"/>
    <tag k="name" v="Name"/>
  </node>
  <node id="12635000003" changeset="101472" timestamp="2017-04-30T13:03:17Z" version="1" visible="true" user="SomeoneElse" uid="112" lat="50.9932" lon="33.003">
    <tag k="place" v="legend_text"/>
    <tag k="name" v="LPG"/>
  </node>
  <node id="12634000004" changeset="101472" timestamp="2017-04-30T13:03:17Z" version="1" visible="true" user="SomeoneElse" uid="112" lat="50.993" lon="33.004">
    <tag k="amenity" v="fuel"/>
    <tag k="fuel:LH2" v="yes"/>
    <tag k="name" v="Name"/>
  </node>
  <node id="12635000004" changeset="101472" timestamp="2017-04-30T13:03:17Z" version="1" visible="true" user="SomeoneElse" uid="112" lat="50.9932" lon="33.004">
    <tag k="place" v="legend_text"/>
    <tag k="name" v="Hydrogen"/>
  </node>
  <node id="12634000005" changeset="101472" timestamp="2017-04-30T13:03:17Z" version="1" visible="true" user="SomeoneElse" uid="112" lat="50.993" lon="33.005">
    <tag k="amenity" v="charging_station"/>
    <tag k="name" v="Operator"/>
  </node>
  <node id="12635000005" changeset="101472" timestamp="2017-04-30T13:03:17Z" version="1" visible="true" user="SomeoneElse" uid="112" lat="50.9932" lon="33.005">
    <tag k="place" v="legend_text"/>
    <tag k="name" v="Charging Station"/>
  </node>
  <node id="12634000006" changeset="101472" timestamp="2017-04-30T13:03:17Z" version="1" visible="true" user="SomeoneElse" uid="112" lat="50.993" lon="33.006">
    <tag k="shop" v="car"/>
    <tag k="name" v="Name"/>
  </node>
  <node id="12635000006" changeset="101472" timestamp="2017-04-30T13:03:17Z" version="1" visible="true" user="SomeoneElse" uid="112" lat="50.9932" lon="33.006">
    <tag k="place" v="legend_text"/>
    <tag k="name" v="Car Sales"/>
  </node>
  <node id="12634000007" changeset="101472" timestamp="2017-04-30T13:03:17Z" version="1" visible="true" user="SomeoneElse" uid="112" lat="50.993" lon="33.007">
    <tag k="shop" v="car_repair"/>
    <tag k="name" v="Name"/>
  </node>
  <node id="12635000007" changeset="101472" timestamp="2017-04-30T13:03:17Z" version="1" visible="true" user="SomeoneElse" uid="112" lat="50.9932" lon="33.007">
    <tag k="place" v="legend_text"/>
    <tag k="name" v="Car Repair"/>
  </node>
  <node id="12634000008" changeset="101472" timestamp="2017-04-30T13:03:17Z" version="1" visible="true" user="SomeoneElse" uid="112" lat="50.993" lon="33.008">
    <tag k="shop" v="car_parts"/>
    <tag k="name" v="Name"/>
  </node>
  <node id="12635000008" changeset="101472" timestamp="2017-04-30T13:03:17Z" version="1" visible="true" user="SomeoneElse" uid="112" lat="50.9932" lon="33.008">
    <tag k="place" v="legend_text"/>
    <tag k="name" v="Car Parts"/>
  </node>
  <node id="12634000009" changeset="101472" timestamp="2017-04-30T13:03:17Z" version="1" visible="true" user="SomeoneElse" uid="112" lat="50.993" lon="33.009">
    <tag k="amenity" v="car_wash"/>
    <tag k="name" v="Name"/>
  </node>
  <node id="12635000009" changeset="101472" timestamp="2017-04-30T13:03:17Z" version="1" visible="true" user="SomeoneElse" uid="112" lat="50.9932" lon="33.009">
    <tag k="place" v="legend_text"/>
    <tag k="name" v="Car Wash"/>
  </node>
  <node id="12634000010" changeset="101472" timestamp="2017-04-30T13:03:17Z" version="1" visible="true" user="SomeoneElse" uid="112" lat="50.993" lon="33.01">
    <tag k="amenity" v="compressed_air"/>
    <tag k="name" v="Name"/>
  </node>
  <node id="12635000010" changeset="101472" timestamp="2017-04-30T13:03:17Z" version="1" visible="true" user="SomeoneElse" uid="112" lat="50.9932" lon="33.01">
    <tag k="place" v="legend_text"/>
    <tag k="name" v="Compressed Air"/>
  </node>
  <node id="12634000011" changeset="101472" timestamp="2017-04-30T13:03:17Z" version="1" visible="true" user="SomeoneElse" uid="112" lat="50.993" lon="33.011">
    <tag k="shop" v="caravan"/>
    <tag k="name" v="Name"/>
  </node>
  <node id="12635000011" changeset="101472" timestamp="2017-04-30T13:03:17Z" version="1" visible="true" user="SomeoneElse" uid="112" lat="50.9932" lon="33.011">
    <tag k="place" v="legend_text"/>
    <tag k="name" v="Caravan, Boat, etc."/>
  </node>
  <node id="12644000001" changeset="101472" timestamp="2017-04-30T13:03:17Z" version="1" visible="true" user="SomeoneElse" uid="112" lat="50.992" lon="33.001">
    <tag k="shop" v="vacant"/>
  </node>
  <node id="12645000001" changeset="101472" timestamp="2017-04-30T13:03:17Z" version="1" visible="true" user="SomeoneElse" uid="112" lat="50.9922" lon="33.001">
    <tag k="place" v="legend_text"/>
    <tag k="name" v="Vacant"/>
  </node>
  <node id="12644000002" changeset="101472" timestamp="2017-04-30T13:03:17Z" version="1" visible="true" user="SomeoneElse" uid="112" lat="50.992" lon="33.002">
    <tag k="office" v="yes"/>
    <tag k="name" v="Office Name"/>
  </node>
  <node id="12645000002" changeset="101472" timestamp="2017-04-30T13:03:17Z" version="1" visible="true" user="SomeoneElse" uid="112" lat="50.9922" lon="33.002">
    <tag k="place" v="legend_text"/>
    <tag k="name" v="Various Offices"/>
  </node>
  <node id="12644000003" changeset="101472" timestamp="2017-04-30T13:03:17Z" version="1" visible="true" user="SomeoneElse" uid="112" lat="50.992" lon="33.003">
    <tag k="craft" v="brewery"/>
    <tag k="name" v="Name"/>
  </node>
  <node id="12645000003" changeset="101472" timestamp="2017-04-30T13:03:17Z" version="1" visible="true" user="SomeoneElse" uid="112" lat="50.9922" lon="33.003">
    <tag k="place" v="legend_text"/>
    <tag k="name" v="Craft Brewery"/>
  </node>
  <node id="12644000004" changeset="101472" timestamp="2017-04-30T13:03:17Z" version="1" visible="true" user="SomeoneElse" uid="112" lat="50.992" lon="33.004">
    <tag k="craft" v="cider"/>
    <tag k="name" v="Name"/>
  </node>
  <node id="12645000004" changeset="101472" timestamp="2017-04-30T13:03:17Z" version="1" visible="true" user="SomeoneElse" uid="112" lat="50.9922" lon="33.004">
    <tag k="place" v="legend_text"/>
    <tag k="name" v="Craft Cider"/>
  </node>
  <node id="12644000005" changeset="101472" timestamp="2017-04-30T13:03:17Z" version="1" visible="true" user="SomeoneElse" uid="112" lat="50.992" lon="33.005">
    <tag k="man_made" v="monitoring_station"/>
    <tag k="monitoring:water_level" v="yes"/>
    <tag k="name" v="Name"/>
  </node>
  <node id="12645000005" changeset="101472" timestamp="2017-04-30T13:03:17Z" version="1" visible="true" user="SomeoneElse" uid="112" lat="50.9922" lon="33.005">
    <tag k="place" v="legend_text"/>
    <tag k="name" v="Water Monitoring Station"/>
  </node>
  <node id="12644000006" changeset="101472" timestamp="2017-04-30T13:03:17Z" version="1" visible="true" user="SomeoneElse" uid="112" lat="50.992" lon="33.006">
    <tag k="man_made" v="monitoring_station"/>
    <tag k="monitoring:weather" v="yes"/>
    <tag k="name" v="Name"/>
  </node>
  <node id="12645000006" changeset="101472" timestamp="2017-04-30T13:03:17Z" version="1" visible="true" user="SomeoneElse" uid="112" lat="50.9922" lon="33.006">
    <tag k="place" v="legend_text"/>
    <tag k="name" v="Weather Monitoring Station"/>
  </node>
  <node id="12644000007" changeset="101472" timestamp="2017-04-30T13:03:17Z" version="1" visible="true" user="SomeoneElse" uid="112" lat="50.992" lon="33.007">
    <tag k="man_made" v="monitoring_station"/>
    <tag k="monitoring:rainfall" v="yes"/>
    <tag k="name" v="Name"/>
  </node>
  <node id="12645000007" changeset="101472" timestamp="2017-04-30T13:03:17Z" version="1" visible="true" user="SomeoneElse" uid="112" lat="50.9922" lon="33.007">
    <tag k="place" v="legend_text"/>
    <tag k="name" v="Rainfall Monitoring"/>
  </node>
  <node id="12644000008" changeset="101472" timestamp="2017-04-30T13:03:17Z" version="1" visible="true" user="SomeoneElse" uid="112" lat="50.992" lon="33.008">
    <tag k="man_made" v="monitoring_station"/>
    <tag k="monitoring:seismic_activity" v="yes"/>
    <tag k="name" v="Name"/>
  </node>
  <node id="12645000008" changeset="101472" timestamp="2017-04-30T13:03:17Z" version="1" visible="true" user="SomeoneElse" uid="112" lat="50.9922" lon="33.008">
    <tag k="place" v="legend_text"/>
    <tag k="name" v="Seismic Monitoring"/>
  </node>
  <node id="12644000009" changeset="101472" timestamp="2017-04-30T13:03:17Z" version="1" visible="true" user="SomeoneElse" uid="112" lat="50.992" lon="33.009">
    <tag k="man_made" v="monitoring_station"/>
    <tag k="monitoring:sky_brightness" v="yes"/>
    <tag k="name" v="Name"/>
  </node>
  <node id="12645000009" changeset="101472" timestamp="2017-04-30T13:03:17Z" version="1" visible="true" user="SomeoneElse" uid="112" lat="50.9922" lon="33.009">
    <tag k="place" v="legend_text"/>
    <tag k="name" v="Sky Brightness Monitoring"/>
  </node>
  <node id="12644000010" changeset="101472" timestamp="2017-04-30T13:03:17Z" version="1" visible="true" user="SomeoneElse" uid="112" lat="50.992" lon="33.01">
    <tag k="man_made" v="pipeline_marker"/>
    <tag k="name" v="Name"/>
  </node>
  <node id="12645000010" changeset="101472" timestamp="2017-04-30T13:03:17Z" version="1" visible="true" user="SomeoneElse" uid="112" lat="50.9922" lon="33.01">
    <tag k="place" v="legend_text"/>
    <tag k="name" v="Pipeline Marker"/>
  </node>
  <node id="12644000011" changeset="101472" timestamp="2017-04-30T13:03:17Z" version="1" visible="true" user="SomeoneElse" uid="112" lat="50.992" lon="33.011">
    <tag k="military" v="bunker"/>
    <tag k="name" v="Name"/>
  </node>
  <node id="12645000011" changeset="101472" timestamp="2017-04-30T13:03:17Z" version="1" visible="true" user="SomeoneElse" uid="112" lat="50.9922" lon="33.011">
    <tag k="place" v="legend_text"/>
    <tag k="name" v="Military Bunker"/>
  </node>
  <node id="12654000001" changeset="101472" timestamp="2017-04-30T13:03:17Z" version="1" visible="true" user="SomeoneElse" uid="112" lat="50.991" lon="33.001">
    <tag k="amenity" v="hospital"/>
    <tag k="name" v="Name"/>
  </node>
  <node id="12655000001" changeset="101472" timestamp="2017-04-30T13:03:17Z" version="1" visible="true" user="SomeoneElse" uid="112" lat="50.9912" lon="33.001">
    <tag k="place" v="legend_text"/>
    <tag k="name" v="Hospital"/>
  </node>
  <node id="12654000002" changeset="101472" timestamp="2017-04-30T13:03:17Z" version="1" visible="true" user="SomeoneElse" uid="112" lat="50.991" lon="33.002">
    <tag k="amenity" v="doctors"/>
    <tag k="name" v="Name"/>
  </node>
  <node id="12655000002" changeset="101472" timestamp="2017-04-30T13:03:17Z" version="1" visible="true" user="SomeoneElse" uid="112" lat="50.9912" lon="33.002">
    <tag k="place" v="legend_text"/>
    <tag k="name" v="Doctors"/>
  </node>
  <node id="12654000003" changeset="101472" timestamp="2017-04-30T13:03:17Z" version="1" visible="true" user="SomeoneElse" uid="112" lat="50.991" lon="33.003">
    <tag k="amenity" v="dentist"/>
    <tag k="name" v="Name"/>
  </node>
  <node id="12655000003" changeset="101472" timestamp="2017-04-30T13:03:17Z" version="1" visible="true" user="SomeoneElse" uid="112" lat="50.9912" lon="33.003">
    <tag k="place" v="legend_text"/>
    <tag k="name" v="Dentist"/>
  </node>
  <node id="12654000004" changeset="101472" timestamp="2017-04-30T13:03:17Z" version="1" visible="true" user="SomeoneElse" uid="112" lat="50.991" lon="33.004">
    <tag k="shop" v="optician"/>
    <tag k="name" v="Name"/>
  </node>
  <node id="12655000004" changeset="101472" timestamp="2017-04-30T13:03:17Z" version="1" visible="true" user="SomeoneElse" uid="112" lat="50.9912" lon="33.004">
    <tag k="place" v="legend_text"/>
    <tag k="name" v="Optician"/>
  </node>
  <node id="12654000005" changeset="101472" timestamp="2017-04-30T13:03:17Z" version="1" visible="true" user="SomeoneElse" uid="112" lat="50.991" lon="33.005">
    <tag k="shop" v="chiropodist"/>
    <tag k="name" v="Name"/>
  </node>
  <node id="12655000005" changeset="101472" timestamp="2017-04-30T13:03:17Z" version="1" visible="true" user="SomeoneElse" uid="112" lat="50.9912" lon="33.005">
    <tag k="place" v="legend_text"/>
    <tag k="name" v="Other Healthcare"/>
  </node>
  <node id="12654000006" changeset="101472" timestamp="2017-04-30T13:03:17Z" version="1" visible="true" user="SomeoneElse" uid="112" lat="50.991" lon="33.006">
    <tag k="amenity" v="pharmacy"/>
    <tag k="name" v="Name"/>
  </node>
  <node id="12655000006" changeset="101472" timestamp="2017-04-30T13:03:17Z" version="1" visible="true" user="SomeoneElse" uid="112" lat="50.9912" lon="33.006">
    <tag k="place" v="legend_text"/>
    <tag k="name" v="Pharmacy"/>
  </node>
  <node id="12654000007" changeset="101472" timestamp="2017-04-30T13:03:17Z" version="1" visible="true" user="SomeoneElse" uid="112" lat="50.991" lon="33.007">
    <tag k="amenity" v="ambulance_station"/>
    <tag k="name" v="Name"/>
  </node>
  <node id="12655000007" changeset="101472" timestamp="2017-04-30T13:03:17Z" version="1" visible="true" user="SomeoneElse" uid="112" lat="50.9912" lon="33.007">
    <tag k="place" v="legend_text"/>
    <tag k="name" v="Ambulance Station"/>
  </node>
  <node id="12654000008" changeset="101472" timestamp="2017-04-30T13:03:17Z" version="1" visible="true" user="SomeoneElse" uid="112" lat="50.991" lon="33.008">
    <tag k="emergency" v="water_rescue"/>
    <tag k="building" v="yes"/>
    <tag k="name" v="Name"/>
  </node>
  <node id="12655000008" changeset="101472" timestamp="2017-04-30T13:03:17Z" version="1" visible="true" user="SomeoneElse" uid="112" lat="50.9912" lon="33.008">
    <tag k="place" v="legend_text"/>
    <tag k="name" v="Lifeboat Station"/>
  </node>
  <node id="12654000009" changeset="101472" timestamp="2017-04-30T13:03:17Z" version="1" visible="true" user="SomeoneElse" uid="112" lat="50.991" lon="33.009">
    <tag k="amenity" v="lifeboat"/>
    <tag k="name" v="Name"/>
  </node>
  <node id="12655000009" changeset="101472" timestamp="2017-04-30T13:03:17Z" version="1" visible="true" user="SomeoneElse" uid="112" lat="50.9912" lon="33.009">
    <tag k="place" v="legend_text"/>
    <tag k="name" v="Lifeboat"/>
  </node>
  <node id="12654000010" changeset="101472" timestamp="2017-04-30T13:03:17Z" version="1" visible="true" user="SomeoneElse" uid="112" lat="50.991" lon="33.01">
    <tag k="amenity" v="mountain_rescue"/>
    <tag k="name" v="Name"/>
  </node>
  <node id="12655000010" changeset="101472" timestamp="2017-04-30T13:03:17Z" version="1" visible="true" user="SomeoneElse" uid="112" lat="50.9912" lon="33.01">
    <tag k="place" v="legend_text"/>
    <tag k="name" v="Mountain Rescue"/>
  </node>
  <node id="12654000011" changeset="101472" timestamp="2017-04-30T13:03:17Z" version="1" visible="true" user="SomeoneElse" uid="112" lat="50.991" lon="33.011">
    <tag k="emergency" v="rescue_box"/>
    <tag k="name" v="Name"/>
  </node>
  <node id="12655000011" changeset="101472" timestamp="2017-04-30T13:03:17Z" version="1" visible="true" user="SomeoneElse" uid="112" lat="50.9912" lon="33.011">
    <tag k="place" v="legend_text"/>
    <tag k="name" v="Mountain Rescue Supplies"/>
  </node>
  <node id="12654000012" changeset="101472" timestamp="2017-04-30T13:03:17Z" version="1" visible="true" user="SomeoneElse" uid="112" lat="50.991" lon="33.012">
    <tag k="emergency" v="defibrillator"/>
    <tag k="name" v="Name"/>
  </node>
  <node id="12655000012" changeset="101472" timestamp="2017-04-30T13:03:17Z" version="1" visible="true" user="SomeoneElse" uid="112" lat="50.9912" lon="33.012">
    <tag k="place" v="legend_text"/>
    <tag k="name" v="Defibrillator"/>
  </node>
  <node id="12654000013" changeset="101472" timestamp="2017-04-30T13:03:17Z" version="1" visible="true" user="SomeoneElse" uid="112" lat="50.991" lon="33.013">
    <tag k="emergency" v="life_ring"/>
    <tag k="name" v="Name"/>
  </node>
  <node id="12655000013" changeset="101472" timestamp="2017-04-30T13:03:17Z" version="1" visible="true" user="SomeoneElse" uid="112" lat="50.9912" lon="33.013">
    <tag k="place" v="legend_text"/>
    <tag k="name" v="Life Ring"/>
  </node>
  <node id="12654000014" changeset="101472" timestamp="2017-04-30T13:03:17Z" version="1" visible="true" user="SomeoneElse" uid="112" lat="50.991" lon="33.014">
    <tag k="emergency" v="fire_extinguisher"/>
    <tag k="name" v="Name"/>
  </node>
  <node id="12655000014" changeset="101472" timestamp="2017-04-30T13:03:17Z" version="1" visible="true" user="SomeoneElse" uid="112" lat="50.9912" lon="33.014">
    <tag k="place" v="legend_text"/>
    <tag k="name" v="Fire Extinguisher"/>
  </node>
  <node id="12654000015" changeset="101472" timestamp="2017-04-30T13:03:17Z" version="1" visible="true" user="SomeoneElse" uid="112" lat="50.991" lon="33.015">
    <tag k="emergency" v="fire_hydrant"/>
    <tag k="name" v="Name"/>
  </node>
  <node id="12655000015" changeset="101472" timestamp="2017-04-30T13:03:17Z" version="1" visible="true" user="SomeoneElse" uid="112" lat="50.9912" lon="33.015">
    <tag k="place" v="legend_text"/>
    <tag k="name" v="Fire Hydrant"/>
  </node>
  <node id="12654000016" changeset="101472" timestamp="2017-04-30T13:03:17Z" version="1" visible="true" user="SomeoneElse" uid="112" lat="50.991" lon="33.016">
    <tag k="emergency" v="access_point"/>
    <tag k="name" v="Name"/>
  </node>
  <node id="12655000016" changeset="101472" timestamp="2017-04-30T13:03:17Z" version="1" visible="true" user="SomeoneElse" uid="112" lat="50.9912" lon="33.016">
    <tag k="place" v="legend_text"/>
    <tag k="name" v="Emergency Access Point"/>
  </node>
  <node id="12664000001" changeset="101472" timestamp="2017-04-30T13:03:17Z" version="1" visible="true" user="SomeoneElse" uid="112" lat="50.99" lon="33.001">
    <tag k="tourism" v="hotel"/>
    <tag k="name" v="Name"/>
  </node>
  <node id="12665000001" changeset="101472" timestamp="2017-04-30T13:03:17Z" version="1" visible="true" user="SomeoneElse" uid="112" lat="50.9902" lon="33.001">
    <tag k="place" v="legend_text"/>
    <tag k="name" v="Hotel"/>
  </node>
  <node id="12664000002" changeset="101472" timestamp="2017-04-30T13:03:17Z" version="1" visible="true" user="SomeoneElse" uid="112" lat="50.99" lon="33.002">
    <tag k="tourism" v="motel"/>
    <tag k="name" v="Name"/>
  </node>
  <node id="12665000002" changeset="101472" timestamp="2017-04-30T13:03:17Z" version="1" visible="true" user="SomeoneElse" uid="112" lat="50.9902" lon="33.002">
    <tag k="place" v="legend_text"/>
    <tag k="name" v="Motel"/>
  </node>
  <node id="12664000003" changeset="101472" timestamp="2017-04-30T13:03:17Z" version="1" visible="true" user="SomeoneElse" uid="112" lat="50.99" lon="33.003">
    <tag k="leisure" v="resort"/>
    <tag k="name" v="Name"/>
  </node>
  <node id="12665000003" changeset="101472" timestamp="2017-04-30T13:03:17Z" version="1" visible="true" user="SomeoneElse" uid="112" lat="50.9902" lon="33.003">
    <tag k="place" v="legend_text"/>
    <tag k="name" v="Resort"/>
  </node>
  <node id="12664000004" changeset="101472" timestamp="2017-04-30T13:03:17Z" version="1" visible="true" user="SomeoneElse" uid="112" lat="50.99" lon="33.004">
    <tag k="tourism" v="guest_house"/>
    <tag k="name" v="Name"/>
  </node>
  <node id="12665000004" changeset="101472" timestamp="2017-04-30T13:03:17Z" version="1" visible="true" user="SomeoneElse" uid="112" lat="50.9902" lon="33.004">
    <tag k="place" v="legend_text"/>
    <tag k="name" v="Guest House"/>
  </node>
  <node id="12664000005" changeset="101472" timestamp="2017-04-30T13:03:17Z" version="1" visible="true" user="SomeoneElse" uid="112" lat="50.99" lon="33.005">
    <tag k="tourism" v="bed_and_breakfast"/>
    <tag k="name" v="Name"/>
  </node>
  <node id="12665000005" changeset="101472" timestamp="2017-04-30T13:03:17Z" version="1" visible="true" user="SomeoneElse" uid="112" lat="50.9902" lon="33.005">
    <tag k="place" v="legend_text"/>
    <tag k="name" v="Bed and Breakfast"/>
  </node>
  <node id="12664000006" changeset="101472" timestamp="2017-04-30T13:03:17Z" version="1" visible="true" user="SomeoneElse" uid="112" lat="50.99" lon="33.006">
    <tag k="tourism" v="chalet"/>
    <tag k="name" v="Name"/>
  </node>
  <node id="12665000006" changeset="101472" timestamp="2017-04-30T13:03:17Z" version="1" visible="true" user="SomeoneElse" uid="112" lat="50.9902" lon="33.006">
    <tag k="place" v="legend_text"/>
    <tag k="name" v="Chalet"/>
  </node>
  <node id="12664000007" changeset="101472" timestamp="2017-04-30T13:03:17Z" version="1" visible="true" user="SomeoneElse" uid="112" lat="50.99" lon="33.007">
    <tag k="tourism" v="alpine_hut"/>
    <tag k="name" v="Name"/>
  </node>
  <node id="12665000007" changeset="101472" timestamp="2017-04-30T13:03:17Z" version="1" visible="true" user="SomeoneElse" uid="112" lat="50.9902" lon="33.007">
    <tag k="place" v="legend_text"/>
    <tag k="name" v="Alpine Hut"/>
  </node>
  <node id="12664000008" changeset="101472" timestamp="2017-04-30T13:03:17Z" version="1" visible="true" user="SomeoneElse" uid="112" lat="50.99" lon="33.008">
    <tag k="tourism" v="hostel"/>
    <tag k="name" v="Name"/>
  </node>
  <node id="12665000008" changeset="101472" timestamp="2017-04-30T13:03:17Z" version="1" visible="true" user="SomeoneElse" uid="112" lat="50.9902" lon="33.008">
    <tag k="place" v="legend_text"/>
    <tag k="name" v="Hostel"/>
  </node>
  <node id="12664000009" changeset="101472" timestamp="2017-04-30T13:03:17Z" version="1" visible="true" user="SomeoneElse" uid="112" lat="50.99" lon="33.009">
    <tag k="tourism" v="apartment"/>
    <tag k="name" v="Name"/>
  </node>
  <node id="12665000009" changeset="101472" timestamp="2017-04-30T13:03:17Z" version="1" visible="true" user="SomeoneElse" uid="112" lat="50.9902" lon="33.009">
    <tag k="place" v="legend_text"/>
    <tag k="name" v="Apartment"/>
  </node>
  <node id="12664000010" changeset="101472" timestamp="2017-04-30T13:03:17Z" version="1" visible="true" user="SomeoneElse" uid="112" lat="50.99" lon="33.01">
    <tag k="tourism" v="apartments"/>
    <tag k="name" v="Name"/>
  </node>
  <node id="12665000010" changeset="101472" timestamp="2017-04-30T13:03:17Z" version="1" visible="true" user="SomeoneElse" uid="112" lat="50.9902" lon="33.01">
    <tag k="place" v="legend_text"/>
    <tag k="name" v="Apartment Hotel"/>
  </node>
  <node id="12664000011" changeset="101472" timestamp="2017-04-30T13:03:17Z" version="1" visible="true" user="SomeoneElse" uid="112" lat="50.99" lon="33.011">
    <tag k="tourism" v="holiday_park"/>
    <tag k="name" v="Name"/>
  </node>
  <node id="12665000011" changeset="101472" timestamp="2017-04-30T13:03:17Z" version="1" visible="true" user="SomeoneElse" uid="112" lat="50.9902" lon="33.011">
    <tag k="place" v="legend_text"/>
    <tag k="name" v="Holiday Park"/>
  </node>
  <node id="12664000012" changeset="101472" timestamp="2017-04-30T13:03:17Z" version="1" visible="true" user="SomeoneElse" uid="112" lat="50.99" lon="33.012">
    <tag k="tourism" v="self_catering"/>
    <tag k="name" v="Name"/>
  </node>
  <node id="12665000012" changeset="101472" timestamp="2017-04-30T13:03:17Z" version="1" visible="true" user="SomeoneElse" uid="112" lat="50.9902" lon="33.012">
    <tag k="place" v="legend_text"/>
    <tag k="name" v="Self Catering"/>
  </node>
  <node id="12664000013" changeset="101472" timestamp="2017-04-30T13:03:17Z" version="1" visible="true" user="SomeoneElse" uid="112" lat="50.99" lon="33.013">
    <tag k="tourism" v="holiday_cottage"/>
    <tag k="name" v="Name"/>
  </node>
  <node id="12665000013" changeset="101472" timestamp="2017-04-30T13:03:17Z" version="1" visible="true" user="SomeoneElse" uid="112" lat="50.9902" lon="33.013">
    <tag k="place" v="legend_text"/>
    <tag k="name" v="Holiday Cottage"/>
  </node>
  <node id="12664000014" changeset="101472" timestamp="2017-04-30T13:03:17Z" version="1" visible="true" user="SomeoneElse" uid="112" lat="50.99" lon="33.014">
    <tag k="tourism" v="caravan_site"/>
    <tag k="name" v="Name"/>
  </node>
  <node id="12665000014" changeset="101472" timestamp="2017-04-30T13:03:17Z" version="1" visible="true" user="SomeoneElse" uid="112" lat="50.9902" lon="33.014">
    <tag k="place" v="legend_text"/>
    <tag k="name" v="Caravan Site"/>
  </node>
  <node id="12664000015" changeset="101472" timestamp="2017-04-30T13:03:17Z" version="1" visible="true" user="SomeoneElse" uid="112" lat="50.99" lon="33.015">
    <tag k="tourism" v="camp_site"/>
    <tag k="name" v="Name"/>
  </node>
  <node id="12665000015" changeset="101472" timestamp="2017-04-30T13:03:17Z" version="1" visible="true" user="SomeoneElse" uid="112" lat="50.9902" lon="33.015">
    <tag k="place" v="legend_text"/>
    <tag k="name" v="Camp Site"/>
  </node>
  <node id="12664000016" changeset="101472" timestamp="2017-04-30T13:03:17Z" version="1" visible="true" user="SomeoneElse" uid="112" lat="50.99" lon="33.016">
    <tag k="tourism" v="camp_pitch"/>
    <tag k="name" v="Name"/>
  </node>
  <node id="12665000016" changeset="101472" timestamp="2017-04-30T13:03:17Z" version="1" visible="true" user="SomeoneElse" uid="112" lat="50.9902" lon="33.016">
    <tag k="place" v="legend_text"/>
    <tag k="name" v="Camp Pitch"/>
  </node>
  <node id="12674000001" changeset="101472" timestamp="2017-04-30T13:03:17Z" version="1" visible="true" user="SomeoneElse" uid="112" lat="50.989" lon="33.001">
    <tag k="amenity" v="cinema"/>
    <tag k="name" v="Cinema"/>
  </node>
  <node id="12675000001" changeset="101472" timestamp="2017-04-30T13:03:17Z" version="1" visible="true" user="SomeoneElse" uid="112" lat="50.9892" lon="33.001">
    <tag k="place" v="legend_text"/>
    <tag k="name" v="Other Tourism"/>
  </node>
  <node id="12674000002" changeset="101472" timestamp="2017-04-30T13:03:17Z" version="1" visible="true" user="SomeoneElse" uid="112" lat="50.989" lon="33.002">
    <tag k="amenity" v="concert_hall"/>
    <tag k="name" v="Concert Hall"/>
  </node>
  <node id="12674000003" changeset="101472" timestamp="2017-04-30T13:03:17Z" version="1" visible="true" user="SomeoneElse" uid="112" lat="50.989" lon="33.003">
    <tag k="amenity" v="library"/>
    <tag k="name" v="Library"/>
  </node>
  <node id="12674000004" changeset="101472" timestamp="2017-04-30T13:03:17Z" version="1" visible="true" user="SomeoneElse" uid="112" lat="50.989" lon="33.004">
    <tag k="amenity" v="theatre"/>
    <tag k="name" v="Theatre"/>
  </node>
  <node id="12674000005" changeset="101472" timestamp="2017-04-30T13:03:17Z" version="1" visible="true" user="SomeoneElse" uid="112" lat="50.989" lon="33.005">
    <tag k="tourism" v="museum"/>
    <tag k="name" v="Museum"/>
  </node>
  <node id="12674000006" changeset="101472" timestamp="2017-04-30T13:03:17Z" version="1" visible="true" user="SomeoneElse" uid="112" lat="50.989" lon="33.006">
    <tag k="tourism" v="zoo"/>
    <tag k="name" v="Zoo"/>
  </node>
  <node id="12674000007" changeset="101472" timestamp="2017-04-30T13:03:17Z" version="1" visible="true" user="SomeoneElse" uid="112" lat="50.989" lon="33.007">
    <tag k="tourism" v="aquarium"/>
    <tag k="name" v="Aquarium"/>
  </node>
  <node id="12674000008" changeset="101472" timestamp="2017-04-30T13:03:17Z" version="1" visible="true" user="SomeoneElse" uid="112" lat="50.989" lon="33.008">
    <tag k="amenity" v="zooaviary"/>
    <tag k="name" v="Aviary"/>
  </node>
  <node id="12674000009" changeset="101472" timestamp="2017-04-30T13:03:17Z" version="1" visible="true" user="SomeoneElse" uid="112" lat="50.989" lon="33.009">
    <tag k="amenity" v="zooenclosure"/>
    <tag k="name" v="Zoo Enclosure"/>
  </node>
  <node id="12674000010" changeset="101472" timestamp="2017-04-30T13:03:17Z" version="1" visible="true" user="SomeoneElse" uid="112" lat="50.989" lon="33.01">
    <tag k="tourism" v="theme_park"/>
    <tag k="name" v="Theme Park"/>
  </node>
  <node id="12674000011" changeset="101472" timestamp="2017-04-30T13:03:17Z" version="1" visible="true" user="SomeoneElse" uid="112" lat="50.989" lon="33.011">
    <tag k="tourism" v="attraction"/>
    <tag k="name" v="Attraction"/>
  </node>
  <node id="12684000001" changeset="101472" timestamp="2017-04-30T13:03:17Z" version="1" visible="true" user="SomeoneElse" uid="112" lat="50.988" lon="33.001">
    <tag k="amenity" v="toilets"/>
    <tag k="name" v="Name"/>
  </node>
  <node id="12685000001" changeset="101472" timestamp="2017-04-30T13:03:17Z" version="1" visible="true" user="SomeoneElse" uid="112" lat="50.9882" lon="33.001">
    <tag k="place" v="legend_text"/>
    <tag k="name" v="Toilets"/>
  </node>
  <node id="12684000002" changeset="101472" timestamp="2017-04-30T13:03:17Z" version="1" visible="true" user="SomeoneElse" uid="112" lat="50.988" lon="33.002">
    <tag k="amenity" v="toilets"/>
    <tag k="access" v="customers"/>
    <tag k="name" v="Name"/>
  </node>
  <node id="12685000002" changeset="101472" timestamp="2017-04-30T13:03:17Z" version="1" visible="true" user="SomeoneElse" uid="112" lat="50.9882" lon="33.002">
    <tag k="place" v="legend_text"/>
    <tag k="name" v="(customers)"/>
  </node>
  <node id="12684000003" changeset="101472" timestamp="2017-04-30T13:03:17Z" version="1" visible="true" user="SomeoneElse" uid="112" lat="50.988" lon="33.003">
    <tag k="amenity" v="toilets"/>
    <tag k="fee" v="yes"/>
    <tag k="name" v="Name"/>
  </node>
  <node id="12685000003" changeset="101472" timestamp="2017-04-30T13:03:17Z" version="1" visible="true" user="SomeoneElse" uid="112" lat="50.9882" lon="33.003">
    <tag k="place" v="legend_text"/>
    <tag k="name" v="(pay)"/>
  </node>
  <node id="12684000004" changeset="101472" timestamp="2017-04-30T13:03:17Z" version="1" visible="true" user="SomeoneElse" uid="112" lat="50.988" lon="33.004">
    <tag k="amenity" v="toilets"/>
    <tag k="male" v="yes"/>
    <tag k="name" v="Name"/>
  </node>
  <node id="12685000004" changeset="101472" timestamp="2017-04-30T13:03:17Z" version="1" visible="true" user="SomeoneElse" uid="112" lat="50.9882" lon="33.004">
    <tag k="place" v="legend_text"/>
    <tag k="name" v="(male)"/>
  </node>
  <node id="12684000005" changeset="101472" timestamp="2017-04-30T13:03:17Z" version="1" visible="true" user="SomeoneElse" uid="112" lat="50.988" lon="33.005">
    <tag k="amenity" v="shower"/>
    <tag k="name" v="Name"/>
  </node>
  <node id="12685000005" changeset="101472" timestamp="2017-04-30T13:03:17Z" version="1" visible="true" user="SomeoneElse" uid="112" lat="50.9882" lon="33.005">
    <tag k="place" v="legend_text"/>
    <tag k="name" v="Shower"/>
  </node>
  <node id="12684000006" changeset="101472" timestamp="2017-04-30T13:03:17Z" version="1" visible="true" user="SomeoneElse" uid="112" lat="50.988" lon="33.006">
    <tag k="amenity" v="shower"/>
    <tag k="access" v="customers"/>
    <tag k="name" v="Name"/>
  </node>
  <node id="12685000006" changeset="101472" timestamp="2017-04-30T13:03:17Z" version="1" visible="true" user="SomeoneElse" uid="112" lat="50.9882" lon="33.006">
    <tag k="place" v="legend_text"/>
    <tag k="name" v="(customers)"/>
  </node>
  <node id="12684000007" changeset="101472" timestamp="2017-04-30T13:03:17Z" version="1" visible="true" user="SomeoneElse" uid="112" lat="50.988" lon="33.007">
    <tag k="amenity" v="shower"/>
    <tag k="fee" v="yes"/>
    <tag k="name" v="Name"/>
  </node>
  <node id="12685000007" changeset="101472" timestamp="2017-04-30T13:03:17Z" version="1" visible="true" user="SomeoneElse" uid="112" lat="50.9882" lon="33.007">
    <tag k="place" v="legend_text"/>
    <tag k="name" v="(pay)"/>
  </node>
  <node id="12684000008" changeset="101472" timestamp="2017-04-30T13:03:17Z" version="1" visible="true" user="SomeoneElse" uid="112" lat="50.988" lon="33.008">
    <tag k="amenity" v="shower"/>
    <tag k="female" v="yes"/>
    <tag k="name" v="Name"/>
  </node>
  <node id="12685000008" changeset="101472" timestamp="2017-04-30T13:03:17Z" version="1" visible="true" user="SomeoneElse" uid="112" lat="50.9882" lon="33.008">
    <tag k="place" v="legend_text"/>
    <tag k="name" v="(female)"/>
  </node>
  <node id="12694000001" changeset="101472" timestamp="2017-04-30T13:03:17Z" version="1" visible="true" user="SomeoneElse" uid="112" lat="50.987" lon="33.001">
    <tag k="tourism" v="picnic_site"/>
    <tag k="name" v="Name"/>
  </node>
  <node id="12695000001" changeset="101472" timestamp="2017-04-30T13:03:17Z" version="1" visible="true" user="SomeoneElse" uid="112" lat="50.9872" lon="33.001">
    <tag k="place" v="legend_text"/>
    <tag k="name" v="Picnic Site"/>
  </node>
  <node id="12694000002" changeset="101472" timestamp="2017-04-30T13:03:17Z" version="1" visible="true" user="SomeoneElse" uid="112" lat="50.987" lon="33.002">
    <tag k="amenity" v="shelter"/>
    <tag k="name" v="Name"/>
  </node>
  <node id="12695000002" changeset="101472" timestamp="2017-04-30T13:03:17Z" version="1" visible="true" user="SomeoneElse" uid="112" lat="50.9872" lon="33.002">
    <tag k="place" v="legend_text"/>
    <tag k="name" v="Shelter"/>
  </node>
  <node id="12694000003" changeset="101472" timestamp="2017-04-30T13:03:17Z" version="1" visible="true" user="SomeoneElse" uid="112" lat="50.987" lon="33.003">
    <tag k="leisure" v="picnic_table"/>
    <tag k="name" v="Name"/>
  </node>
  <node id="12695000003" changeset="101472" timestamp="2017-04-30T13:03:17Z" version="1" visible="true" user="SomeoneElse" uid="112" lat="50.9872" lon="33.003">
    <tag k="place" v="legend_text"/>
    <tag k="name" v="Picnic Table"/>
  </node>
  <node id="12694000004" changeset="101472" timestamp="2017-04-30T13:03:17Z" version="1" visible="true" user="SomeoneElse" uid="112" lat="50.987" lon="33.004">
    <tag k="amenity" v="bbq"/>
    <tag k="name" v="Name"/>
  </node>
  <node id="12695000004" changeset="101472" timestamp="2017-04-30T13:03:17Z" version="1" visible="true" user="SomeoneElse" uid="112" lat="50.9872" lon="33.004">
    <tag k="place" v="legend_text"/>
    <tag k="name" v="BBQ"/>
  </node>
  <node id="12694000005" changeset="101472" timestamp="2017-04-30T13:03:17Z" version="1" visible="true" user="SomeoneElse" uid="112" lat="50.987" lon="33.005">
    <tag k="leisure" v="playground"/>
    <tag k="name" v="Name"/>
  </node>
  <node id="12695000005" changeset="101472" timestamp="2017-04-30T13:03:17Z" version="1" visible="true" user="SomeoneElse" uid="112" lat="50.9872" lon="33.005">
    <tag k="place" v="legend_text"/>
    <tag k="name" v="Playground"/>
  </node>
  <node id="12694000006" changeset="101472" timestamp="2017-04-30T13:03:17Z" version="1" visible="true" user="SomeoneElse" uid="112" lat="50.987" lon="33.006">
    <tag k="leisure" v="slipway"/>
    <tag k="name" v="Name"/>
  </node>
  <node id="12695000006" changeset="101472" timestamp="2017-04-30T13:03:17Z" version="1" visible="true" user="SomeoneElse" uid="112" lat="50.9872" lon="33.006">
    <tag k="place" v="legend_text"/>
    <tag k="name" v="Slipway"/>
  </node>
  <node id="12694000007" changeset="101472" timestamp="2017-04-30T13:03:17Z" version="1" visible="true" user="SomeoneElse" uid="112" lat="50.987" lon="33.007">
    <tag k="whitewater" v="put_in"/>
    <tag k="name" v="Name"/>
  </node>
  <node id="12695000007" changeset="101472" timestamp="2017-04-30T13:03:17Z" version="1" visible="true" user="SomeoneElse" uid="112" lat="50.9872" lon="33.007">
    <tag k="place" v="legend_text"/>
    <tag k="name" v="Canoe Put In"/>
  </node>
  <node id="12694000008" changeset="101472" timestamp="2017-04-30T13:03:17Z" version="1" visible="true" user="SomeoneElse" uid="112" lat="50.987" lon="33.008">
    <tag k="leisure" v="marina"/>
    <tag k="name" v="Name"/>
  </node>
  <node id="12695000008" changeset="101472" timestamp="2017-04-30T13:03:17Z" version="1" visible="true" user="SomeoneElse" uid="112" lat="50.9872" lon="33.008">
    <tag k="place" v="legend_text"/>
    <tag k="name" v="Marina"/>
  </node>
  <node id="12694000009" changeset="101472" timestamp="2017-04-30T13:03:17Z" version="1" visible="true" user="SomeoneElse" uid="112" lat="50.987" lon="33.009">
    <tag k="amenity" v="boatyard"/>
    <tag k="name" v="Name"/>
  </node>
  <node id="12695000009" changeset="101472" timestamp="2017-04-30T13:03:17Z" version="1" visible="true" user="SomeoneElse" uid="112" lat="50.9872" lon="33.009">
    <tag k="place" v="legend_text"/>
    <tag k="name" v="Boatyard"/>
  </node>
  <node id="12694000010" changeset="101472" timestamp="2017-04-30T13:03:17Z" version="1" visible="true" user="SomeoneElse" uid="112" lat="50.987" lon="33.01">
    <tag k="waterway" v="fuel"/>
    <tag k="name" v="Name"/>
  </node>
  <node id="12695000010" changeset="101472" timestamp="2017-04-30T13:03:17Z" version="1" visible="true" user="SomeoneElse" uid="112" lat="50.9872" lon="33.01">
    <tag k="place" v="legend_text"/>
    <tag k="name" v="Waterway fuel"/>
  </node>
  <node id="12694000011" changeset="101472" timestamp="2017-04-30T13:03:17Z" version="1" visible="true" user="SomeoneElse" uid="112" lat="50.987" lon="33.011">
    <tag k="leisure" v="bird_hide"/>
    <tag k="name" v="Name"/>
  </node>
  <node id="12695000011" changeset="101472" timestamp="2017-04-30T13:03:17Z" version="1" visible="true" user="SomeoneElse" uid="112" lat="50.9872" lon="33.011">
    <tag k="place" v="legend_text"/>
    <tag k="name" v="Bird Hide"/>
  </node>
  <node id="12694000012" changeset="101472" timestamp="2017-04-30T13:03:17Z" version="1" visible="true" user="SomeoneElse" uid="112" lat="50.987" lon="33.012">
    <tag k="leisure" v="hunting_stand"/>
    <tag k="name" v="Name"/>
  </node>
  <node id="12695000012" changeset="101472" timestamp="2017-04-30T13:03:17Z" version="1" visible="true" user="SomeoneElse" uid="112" lat="50.9872" lon="33.012">
    <tag k="place" v="legend_text"/>
    <tag k="name" v="Hunting Stand"/>
  </node>
  <node id="12694000013" changeset="101472" timestamp="2017-04-30T13:03:17Z" version="1" visible="true" user="SomeoneElse" uid="112" lat="50.987" lon="33.013">
    <tag k="leisure" v="grouse_butt"/>
    <tag k="name" v="Name"/>
  </node>
  <node id="12695000013" changeset="101472" timestamp="2017-04-30T13:03:17Z" version="1" visible="true" user="SomeoneElse" uid="112" lat="50.9872" lon="33.013">
    <tag k="place" v="legend_text"/>
    <tag k="name" v="Grouse Butt"/>
  </node>
  <node id="12694000014" changeset="101472" timestamp="2017-04-30T13:03:17Z" version="1" visible="true" user="SomeoneElse" uid="112" lat="50.987" lon="33.014">
    <tag k="man_made" v="survey_point"/>
    <tag k="name" v="Name"/>
  </node>
  <node id="12695000014" changeset="101472" timestamp="2017-04-30T13:03:17Z" version="1" visible="true" user="SomeoneElse" uid="112" lat="50.9872" lon="33.014">
    <tag k="place" v="legend_text"/>
    <tag k="name" v="Trig Point"/>
  </node>
  <node id="12694000015" changeset="101472" timestamp="2017-04-30T13:03:17Z" version="1" visible="true" user="SomeoneElse" uid="112" lat="50.987" lon="33.015">
    <tag k="man_made" v="boundary_stone"/>
    <tag k="name" v="Name"/>
  </node>
  <node id="12695000015" changeset="101472" timestamp="2017-04-30T13:03:17Z" version="1" visible="true" user="SomeoneElse" uid="112" lat="50.9872" lon="33.015">
    <tag k="place" v="legend_text"/>
    <tag k="name" v="Boundary Stone"/>
  </node>
  <node id="12694000016" changeset="101472" timestamp="2017-04-30T13:03:17Z" version="1" visible="true" user="SomeoneElse" uid="112" lat="50.987" lon="33.016">
    <tag k="man_made" v="cairn"/>
    <tag k="name" v="Name"/>
  </node>
  <node id="12695000016" changeset="101472" timestamp="2017-04-30T13:03:17Z" version="1" visible="true" user="SomeoneElse" uid="112" lat="50.9872" lon="33.016">
    <tag k="place" v="legend_text"/>
    <tag k="name" v="Cairn"/>
  </node>
  <node id="12694000017" changeset="101472" timestamp="2017-04-30T13:03:17Z" version="1" visible="true" user="SomeoneElse" uid="112" lat="50.987" lon="33.017">
    <tag k="man_made" v="mounting_block"/>
    <tag k="name" v="Name"/>
  </node>
  <node id="12695000017" changeset="101472" timestamp="2017-04-30T13:03:17Z" version="1" visible="true" user="SomeoneElse" uid="112" lat="50.9872" lon="33.017">
    <tag k="place" v="legend_text"/>
    <tag k="name" v="Mounting Block"/>
  </node>
  <node id="12694000018" changeset="101472" timestamp="2017-04-30T13:03:17Z" version="1" visible="true" user="SomeoneElse" uid="112" lat="50.987" lon="33.018">
    <tag k="leisure" v="firepit"/>
    <tag k="name" v="Name"/>
  </node>
  <node id="12695000018" changeset="101472" timestamp="2017-04-30T13:03:17Z" version="1" visible="true" user="SomeoneElse" uid="112" lat="50.9872" lon="33.018">
    <tag k="place" v="legend_text"/>
    <tag k="name" v="Firepit"/>
  </node>
  <node id="12694000019" changeset="101472" timestamp="2017-04-30T13:03:17Z" version="1" visible="true" user="SomeoneElse" uid="112" lat="50.987" lon="33.019">
    <tag k="amenity" v="watering_place"/>
    <tag k="name" v="Name"/>
  </node>
  <node id="12695000019" changeset="101472" timestamp="2017-04-30T13:03:17Z" version="1" visible="true" user="SomeoneElse" uid="112" lat="50.9872" lon="33.019">
    <tag k="place" v="legend_text"/>
    <tag k="name" v="Watering Place"/>
  </node>
  <node id="12704000001" changeset="101472" timestamp="2017-04-30T13:03:17Z" version="1" visible="true" user="SomeoneElse" uid="112" lat="50.986" lon="33.001">
    <tag k="playground" v="swing"/>
    <tag k="name" v="Name"/>
  </node>
  <node id="12705000001" changeset="101472" timestamp="2017-04-30T13:03:17Z" version="1" visible="true" user="SomeoneElse" uid="112" lat="50.9862" lon="33.001">
    <tag k="place" v="legend_text"/>
    <tag k="name" v="Playground Swing"/>
  </node>
  <node id="12704000002" changeset="101472" timestamp="2017-04-30T13:03:17Z" version="1" visible="true" user="SomeoneElse" uid="112" lat="50.986" lon="33.002">
    <tag k="playground" v="structure"/>
    <tag k="name" v="Name"/>
  </node>
  <node id="12705000002" changeset="101472" timestamp="2017-04-30T13:03:17Z" version="1" visible="true" user="SomeoneElse" uid="112" lat="50.9862" lon="33.002">
    <tag k="place" v="legend_text"/>
    <tag k="name" v="Structure"/>
  </node>
  <node id="12704000003" changeset="101472" timestamp="2017-04-30T13:03:17Z" version="1" visible="true" user="SomeoneElse" uid="112" lat="50.986" lon="33.003">
    <tag k="playground" v="climbingframe"/>
    <tag k="name" v="Name"/>
  </node>
  <node id="12705000003" changeset="101472" timestamp="2017-04-30T13:03:17Z" version="1" visible="true" user="SomeoneElse" uid="112" lat="50.9862" lon="33.003">
    <tag k="place" v="legend_text"/>
    <tag k="name" v="Climbing Frame"/>
  </node>
  <node id="12704000004" changeset="101472" timestamp="2017-04-30T13:03:17Z" version="1" visible="true" user="SomeoneElse" uid="112" lat="50.986" lon="33.004">
    <tag k="playground" v="slide"/>
    <tag k="name" v="Name"/>
  </node>
  <node id="12705000004" changeset="101472" timestamp="2017-04-30T13:03:17Z" version="1" visible="true" user="SomeoneElse" uid="112" lat="50.9862" lon="33.004">
    <tag k="place" v="legend_text"/>
    <tag k="name" v="Slide"/>
  </node>
  <node id="12704000005" changeset="101472" timestamp="2017-04-30T13:03:17Z" version="1" visible="true" user="SomeoneElse" uid="112" lat="50.986" lon="33.005">
    <tag k="playground" v="springy"/>
    <tag k="name" v="Name"/>
  </node>
  <node id="12705000005" changeset="101472" timestamp="2017-04-30T13:03:17Z" version="1" visible="true" user="SomeoneElse" uid="112" lat="50.9862" lon="33.005">
    <tag k="place" v="legend_text"/>
    <tag k="name" v="Springy"/>
  </node>
  <node id="12704000006" changeset="101472" timestamp="2017-04-30T13:03:17Z" version="1" visible="true" user="SomeoneElse" uid="112" lat="50.986" lon="33.006">
    <tag k="playground" v="roundabout"/>
    <tag k="name" v="Name"/>
  </node>
  <node id="12705000006" changeset="101472" timestamp="2017-04-30T13:03:17Z" version="1" visible="true" user="SomeoneElse" uid="112" lat="50.9862" lon="33.006">
    <tag k="place" v="legend_text"/>
    <tag k="name" v="Roundabout"/>
  </node>
  <node id="12704000007" changeset="101472" timestamp="2017-04-30T13:03:17Z" version="1" visible="true" user="SomeoneElse" uid="112" lat="50.986" lon="33.007">
    <tag k="playground" v="zipwire"/>
    <tag k="name" v="Name"/>
  </node>
  <node id="12705000007" changeset="101472" timestamp="2017-04-30T13:03:17Z" version="1" visible="true" user="SomeoneElse" uid="112" lat="50.9862" lon="33.007">
    <tag k="place" v="legend_text"/>
    <tag k="name" v="Zipwire"/>
  </node>
  <node id="12704000008" changeset="101472" timestamp="2017-04-30T13:03:17Z" version="1" visible="true" user="SomeoneElse" uid="112" lat="50.986" lon="33.008">
    <tag k="playground" v="seesaw"/>
    <tag k="name" v="Name"/>
  </node>
  <node id="12705000008" changeset="101472" timestamp="2017-04-30T13:03:17Z" version="1" visible="true" user="SomeoneElse" uid="112" lat="50.9862" lon="33.008">
    <tag k="place" v="legend_text"/>
    <tag k="name" v="Seesaw"/>
  </node>
  <node id="12714000001" changeset="101472" timestamp="2017-04-30T13:03:17Z" version="1" visible="true" user="SomeoneElse" uid="112" lat="50.985" lon="33.001">
    <tag k="leisure" v="pitch"/>
    <tag k="sport" v="tennis"/>
    <tag k="name" v="Name"/>
  </node>
  <node id="12715000001" changeset="101472" timestamp="2017-04-30T13:03:17Z" version="1" visible="true" user="SomeoneElse" uid="112" lat="50.9852" lon="33.001">
    <tag k="place" v="legend_text"/>
    <tag k="name" v="Tennis Court"/>
  </node>
  <node id="12714000002" changeset="101472" timestamp="2017-04-30T13:03:17Z" version="1" visible="true" user="SomeoneElse" uid="112" lat="50.985" lon="33.002">
    <tag k="leisure" v="pitch"/>
    <tag k="sport" v="soccer"/>
    <tag k="name" v="Name"/>
  </node>
  <node id="12715000002" changeset="101472" timestamp="2017-04-30T13:03:17Z" version="1" visible="true" user="SomeoneElse" uid="112" lat="50.9852" lon="33.002">
    <tag k="place" v="legend_text"/>
    <tag k="name" v="Football Pitch"/>
  </node>
  <node id="12714000003" changeset="101472" timestamp="2017-04-30T13:03:17Z" version="1" visible="true" user="SomeoneElse" uid="112" lat="50.985" lon="33.003">
    <tag k="leisure" v="pitch"/>
    <tag k="sport" v="equestrian"/>
    <tag k="name" v="Name"/>
  </node>
  <node id="12715000003" changeset="101472" timestamp="2017-04-30T13:03:17Z" version="1" visible="true" user="SomeoneElse" uid="112" lat="50.9852" lon="33.003">
    <tag k="place" v="legend_text"/>
    <tag k="name" v="Equestrian Area"/>
  </node>
  <node id="12714000004" changeset="101472" timestamp="2017-04-30T13:03:17Z" version="1" visible="true" user="SomeoneElse" uid="112" lat="50.985" lon="33.004">
    <tag k="leisure" v="pitch"/>
    <tag k="sport" v="bowls"/>
    <tag k="name" v="Name"/>
  </node>
  <node id="12715000004" changeset="101472" timestamp="2017-04-30T13:03:17Z" version="1" visible="true" user="SomeoneElse" uid="112" lat="50.9852" lon="33.004">
    <tag k="place" v="legend_text"/>
    <tag k="name" v="Bowling Green"/>
  </node>
  <node id="12714000005" changeset="101472" timestamp="2017-04-30T13:03:17Z" version="1" visible="true" user="SomeoneElse" uid="112" lat="50.985" lon="33.005">
    <tag k="leisure" v="pitch"/>
    <tag k="sport" v="cricket"/>
    <tag k="name" v="Name"/>
  </node>
  <node id="12715000005" changeset="101472" timestamp="2017-04-30T13:03:17Z" version="1" visible="true" user="SomeoneElse" uid="112" lat="50.9852" lon="33.005">
    <tag k="place" v="legend_text"/>
    <tag k="name" v="Cricket Pitch"/>
  </node>
  <node id="12714000006" changeset="101472" timestamp="2017-04-30T13:03:17Z" version="1" visible="true" user="SomeoneElse" uid="112" lat="50.985" lon="33.006">
    <tag k="leisure" v="pitch"/>
    <tag k="sport" v="basketball"/>
    <tag k="name" v="Name"/>
  </node>
  <node id="12715000006" changeset="101472" timestamp="2017-04-30T13:03:17Z" version="1" visible="true" user="SomeoneElse" uid="112" lat="50.9852" lon="33.006">
    <tag k="place" v="legend_text"/>
    <tag k="name" v="Basketball Court"/>
  </node>
  <node id="12714000007" changeset="101472" timestamp="2017-04-30T13:03:17Z" version="1" visible="true" user="SomeoneElse" uid="112" lat="50.985" lon="33.007">
    <tag k="leisure" v="pitch"/>
    <tag k="sport" v="multi"/>
    <tag k="name" v="Name"/>
  </node>
  <node id="12715000007" changeset="101472" timestamp="2017-04-30T13:03:17Z" version="1" visible="true" user="SomeoneElse" uid="112" lat="50.9852" lon="33.007">
    <tag k="place" v="legend_text"/>
    <tag k="name" v="Multi-use Area"/>
  </node>
  <node id="12714000008" changeset="101472" timestamp="2017-04-30T13:03:17Z" version="1" visible="true" user="SomeoneElse" uid="112" lat="50.985" lon="33.008">
    <tag k="leisure" v="pitch"/>
    <tag k="sport" v="rugby"/>
    <tag k="name" v="Name"/>
  </node>
  <node id="12715000008" changeset="101472" timestamp="2017-04-30T13:03:17Z" version="1" visible="true" user="SomeoneElse" uid="112" lat="50.9852" lon="33.008">
    <tag k="place" v="legend_text"/>
    <tag k="name" v="Rugby Pitch"/>
  </node>
  <node id="12714000009" changeset="101472" timestamp="2017-04-30T13:03:17Z" version="1" visible="true" user="SomeoneElse" uid="112" lat="50.985" lon="33.009">
    <tag k="leisure" v="pitch"/>
    <tag k="sport" v="gaelic_games"/>
    <tag k="name" v="Name"/>
  </node>
  <node id="12715000009" changeset="101472" timestamp="2017-04-30T13:03:17Z" version="1" visible="true" user="SomeoneElse" uid="112" lat="50.9852" lon="33.009">
    <tag k="place" v="legend_text"/>
    <tag k="name" v="Gaelic Games"/>
  </node>
  <node id="12714000010" changeset="101472" timestamp="2017-04-30T13:03:17Z" version="1" visible="true" user="SomeoneElse" uid="112" lat="50.985" lon="33.01">
    <tag k="leisure" v="pitch"/>
    <tag k="sport" v="skateboard"/>
    <tag k="name" v="Name"/>
  </node>
  <node id="12715000010" changeset="101472" timestamp="2017-04-30T13:03:17Z" version="1" visible="true" user="SomeoneElse" uid="112" lat="50.9852" lon="33.01">
    <tag k="place" v="legend_text"/>
    <tag k="name" v="Skateboard Park"/>
  </node>
  <node id="12714000011" changeset="101472" timestamp="2017-04-30T13:03:17Z" version="1" visible="true" user="SomeoneElse" uid="112" lat="50.985" lon="33.011">
    <tag k="leisure" v="pitch"/>
    <tag k="sport" v="athletics"/>
    <tag k="name" v="Name"/>
  </node>
  <node id="12715000011" changeset="101472" timestamp="2017-04-30T13:03:17Z" version="1" visible="true" user="SomeoneElse" uid="112" lat="50.9852" lon="33.011">
    <tag k="place" v="legend_text"/>
    <tag k="name" v="Athletics"/>
  </node>
  <node id="12714000012" changeset="101472" timestamp="2017-04-30T13:03:17Z" version="1" visible="true" user="SomeoneElse" uid="112" lat="50.985" lon="33.012">
    <tag k="leisure" v="pitch"/>
    <tag k="sport" v="netball"/>
    <tag k="name" v="Name"/>
  </node>
  <node id="12715000012" changeset="101472" timestamp="2017-04-30T13:03:17Z" version="1" visible="true" user="SomeoneElse" uid="112" lat="50.9852" lon="33.012">
    <tag k="place" v="legend_text"/>
    <tag k="name" v="Netball Court"/>
  </node>
  <node id="12714000013" changeset="101472" timestamp="2017-04-30T13:03:17Z" version="1" visible="true" user="SomeoneElse" uid="112" lat="50.985" lon="33.013">
    <tag k="leisure" v="pitch"/>
    <tag k="sport" v="climbing"/>
    <tag k="name" v="Name"/>
  </node>
  <node id="12715000013" changeset="101472" timestamp="2017-04-30T13:03:17Z" version="1" visible="true" user="SomeoneElse" uid="112" lat="50.9852" lon="33.013">
    <tag k="place" v="legend_text"/>
    <tag k="name" v="Climbing"/>
  </node>
  <node id="12714000014" changeset="101472" timestamp="2017-04-30T13:03:17Z" version="1" visible="true" user="SomeoneElse" uid="112" lat="50.985" lon="33.014">
    <tag k="natural" v="climbing"/>
    <tag k="name" v="Name"/>
  </node>
  <node id="12715000014" changeset="101472" timestamp="2017-04-30T13:03:17Z" version="1" visible="true" user="SomeoneElse" uid="112" lat="50.9852" lon="33.014">
    <tag k="place" v="legend_text"/>
    <tag k="name" v="Climbing Boulder"/>
  </node>
  <node id="12714000015" changeset="101472" timestamp="2017-04-30T13:03:17Z" version="1" visible="true" user="SomeoneElse" uid="112" lat="50.985" lon="33.015">
    <tag k="leisure" v="pitch"/>
    <tag k="sport" v="cycling"/>
    <tag k="name" v="Name"/>
  </node>
  <node id="12715000015" changeset="101472" timestamp="2017-04-30T13:03:17Z" version="1" visible="true" user="SomeoneElse" uid="112" lat="50.9852" lon="33.015">
    <tag k="place" v="legend_text"/>
    <tag k="name" v="Cycling Area"/>
  </node>
  <node id="12714000016" changeset="101472" timestamp="2017-04-30T13:03:17Z" version="1" visible="true" user="SomeoneElse" uid="112" lat="50.985" lon="33.016">
    <tag k="leisure" v="pitch"/>
    <tag k="sport" v="table_tennis"/>
    <tag k="name" v="Name"/>
  </node>
  <node id="12715000016" changeset="101472" timestamp="2017-04-30T13:03:17Z" version="1" visible="true" user="SomeoneElse" uid="112" lat="50.9852" lon="33.016">
    <tag k="place" v="legend_text"/>
    <tag k="name" v="Table Tennis Table"/>
  </node>
  <node id="12714000017" changeset="101472" timestamp="2017-04-30T13:03:17Z" version="1" visible="true" user="SomeoneElse" uid="112" lat="50.985" lon="33.017">
    <tag k="leisure" v="pitch"/>
    <tag k="sport" v="hockey"/>
    <tag k="name" v="Name"/>
  </node>
  <node id="12715000017" changeset="101472" timestamp="2017-04-30T13:03:17Z" version="1" visible="true" user="SomeoneElse" uid="112" lat="50.9852" lon="33.017">
    <tag k="place" v="legend_text"/>
    <tag k="name" v="Hockey Pitch"/>
  </node>
  <node id="12714000018" changeset="101472" timestamp="2017-04-30T13:03:17Z" version="1" visible="true" user="SomeoneElse" uid="112" lat="50.985" lon="33.018">
    <tag k="leisure" v="pitch"/>
    <tag k="sport" v="shooting"/>
    <tag k="name" v="Name"/>
  </node>
  <node id="12715000018" changeset="101472" timestamp="2017-04-30T13:03:17Z" version="1" visible="true" user="SomeoneElse" uid="112" lat="50.9852" lon="33.018">
    <tag k="place" v="legend_text"/>
    <tag k="name" v="Shooting Ground"/>
  </node>
  <node id="12714000019" changeset="101472" timestamp="2017-04-30T13:03:17Z" version="1" visible="true" user="SomeoneElse" uid="112" lat="50.985" lon="33.019">
    <tag k="leisure" v="pitch"/>
    <tag k="sport" v="boules"/>
    <tag k="name" v="Name"/>
  </node>
  <node id="12715000019" changeset="101472" timestamp="2017-04-30T13:03:17Z" version="1" visible="true" user="SomeoneElse" uid="112" lat="50.9852" lon="33.019">
    <tag k="place" v="legend_text"/>
    <tag k="name" v="Boules Court"/>
  </node>
  <node id="12714000020" changeset="101472" timestamp="2017-04-30T13:03:17Z" version="1" visible="true" user="SomeoneElse" uid="112" lat="50.985" lon="33.02">
    <tag k="leisure" v="pitch"/>
    <tag k="sport" v="polo"/>
    <tag k="name" v="Name"/>
  </node>
  <node id="12715000020" changeset="101472" timestamp="2017-04-30T13:03:17Z" version="1" visible="true" user="SomeoneElse" uid="112" lat="50.9852" lon="33.02">
    <tag k="place" v="legend_text"/>
    <tag k="name" v="Polo Pitch"/>
  </node>
  <node id="12714000021" changeset="101472" timestamp="2017-04-30T13:03:17Z" version="1" visible="true" user="SomeoneElse" uid="112" lat="50.985" lon="33.021">
    <tag k="leisure" v="pitch"/>
    <tag k="sport" v="croquet"/>
    <tag k="name" v="Name"/>
  </node>
  <node id="12715000021" changeset="101472" timestamp="2017-04-30T13:03:17Z" version="1" visible="true" user="SomeoneElse" uid="112" lat="50.9852" lon="33.021">
    <tag k="place" v="legend_text"/>
    <tag k="name" v="Croquet Pitch"/>
  </node>
  <node id="12714000022" changeset="101472" timestamp="2017-04-30T13:03:17Z" version="1" visible="true" user="SomeoneElse" uid="112" lat="50.985" lon="33.022">
    <tag k="leisure" v="pitch"/>
    <tag k="sport" v="baseball"/>
    <tag k="name" v="Name"/>
  </node>
  <node id="12715000022" changeset="101472" timestamp="2017-04-30T13:03:17Z" version="1" visible="true" user="SomeoneElse" uid="112" lat="50.9852" lon="33.022">
    <tag k="place" v="legend_text"/>
    <tag k="name" v="Baseball Pitch"/>
  </node>
  <node id="12714000023" changeset="101472" timestamp="2017-04-30T13:03:17Z" version="1" visible="true" user="SomeoneElse" uid="112" lat="50.985" lon="33.023">
    <tag k="leisure" v="pitch"/>
    <tag k="sport" v="chess"/>
    <tag k="name" v="Name"/>
  </node>
  <node id="12715000023" changeset="101472" timestamp="2017-04-30T13:03:17Z" version="1" visible="true" user="SomeoneElse" uid="112" lat="50.9852" lon="33.023">
    <tag k="place" v="legend_text"/>
    <tag k="name" v="Chess Board"/>
  </node>
  <node id="12724000001" changeset="101472" timestamp="2017-04-30T13:03:17Z" version="1" visible="true" user="SomeoneElse" uid="112" lat="50.984" lon="33.001">
    <tag k="leisure" v="sports_centre"/>
    <tag k="name" v="Name"/>
  </node>
  <node id="12725000001" changeset="101472" timestamp="2017-04-30T13:03:17Z" version="1" visible="true" user="SomeoneElse" uid="112" lat="50.9842" lon="33.001">
    <tag k="place" v="legend_text"/>
    <tag k="name" v="Sports Centre"/>
  </node>
  <node id="12724000002" changeset="101472" timestamp="2017-04-30T13:03:17Z" version="1" visible="true" user="SomeoneElse" uid="112" lat="50.984" lon="33.002">
    <tag k="leisure" v="swimming_pool"/>
    <tag k="name" v="Name"/>
  </node>
  <node id="12725000002" changeset="101472" timestamp="2017-04-30T13:03:17Z" version="1" visible="true" user="SomeoneElse" uid="112" lat="50.9842" lon="33.002">
    <tag k="place" v="legend_text"/>
    <tag k="name" v="Swimming Pool"/>
  </node>
  <node id="12724000003" changeset="101472" timestamp="2017-04-30T13:03:17Z" version="1" visible="true" user="SomeoneElse" uid="112" lat="50.984" lon="33.003">
    <tag k="leisure" v="swimming_area"/>
    <tag k="name" v="Name"/>
  </node>
  <node id="12725000003" changeset="101472" timestamp="2017-04-30T13:03:17Z" version="1" visible="true" user="SomeoneElse" uid="112" lat="50.9842" lon="33.003">
    <tag k="place" v="legend_text"/>
    <tag k="name" v="Swimming Area"/>
  </node>
  <node id="12724000004" changeset="101472" timestamp="2017-04-30T13:03:17Z" version="1" visible="true" user="SomeoneElse" uid="112" lat="50.984" lon="33.004">
    <tag k="leisure" v="water_park"/>
    <tag k="name" v="Name"/>
  </node>
  <node id="12725000004" changeset="101472" timestamp="2017-04-30T13:03:17Z" version="1" visible="true" user="SomeoneElse" uid="112" lat="50.9842" lon="33.004">
    <tag k="place" v="legend_text"/>
    <tag k="name" v="Water Park"/>
  </node>
  <node id="12724000005" changeset="101472" timestamp="2017-04-30T13:03:17Z" version="1" visible="true" user="SomeoneElse" uid="112" lat="50.984" lon="33.005">
    <tag k="leisure" v="ice_rink"/>
    <tag k="name" v="Name"/>
  </node>
  <node id="12725000005" changeset="101472" timestamp="2017-04-30T13:03:17Z" version="1" visible="true" user="SomeoneElse" uid="112" lat="50.9842" lon="33.005">
    <tag k="place" v="legend_text"/>
    <tag k="name" v="Ice Rink"/>
  </node>
  <node id="12724000006" changeset="101472" timestamp="2017-04-30T13:03:17Z" version="1" visible="true" user="SomeoneElse" uid="112" lat="50.984" lon="33.006">
    <tag k="leisure" v="stadium"/>
    <tag k="name" v="Name"/>
  </node>
  <node id="12725000006" changeset="101472" timestamp="2017-04-30T13:03:17Z" version="1" visible="true" user="SomeoneElse" uid="112" lat="50.9842" lon="33.006">
    <tag k="place" v="legend_text"/>
    <tag k="name" v="Stadium"/>
  </node>
  <node id="12724000007" changeset="101472" timestamp="2017-04-30T13:03:17Z" version="1" visible="true" user="SomeoneElse" uid="112" lat="50.984" lon="33.007">
    <tag k="leisure" v="golf_course"/>
    <tag k="name" v="Name"/>
  </node>
  <node id="12725000007" changeset="101472" timestamp="2017-04-30T13:03:17Z" version="1" visible="true" user="SomeoneElse" uid="112" lat="50.9842" lon="33.007">
    <tag k="place" v="legend_text"/>
    <tag k="name" v="Golf Course"/>
  </node>
  <node id="12724000008" changeset="101472" timestamp="2017-04-30T13:03:17Z" version="1" visible="true" user="SomeoneElse" uid="112" lat="50.984" lon="33.008">
    <tag k="leisure" v="miniature_golf"/>
    <tag k="name" v="Name"/>
  </node>
  <node id="12725000008" changeset="101472" timestamp="2017-04-30T13:03:17Z" version="1" visible="true" user="SomeoneElse" uid="112" lat="50.9842" lon="33.008">
    <tag k="place" v="legend_text"/>
    <tag k="name" v="Mini Golf"/>
  </node>
  <node id="12724000009" changeset="101472" timestamp="2017-04-30T13:03:17Z" version="1" visible="true" user="SomeoneElse" uid="112" lat="50.984" lon="33.009">
    <tag k="golf" v="ball_washer"/>
    <tag k="name" v="Name"/>
  </node>
  <node id="12725000009" changeset="101472" timestamp="2017-04-30T13:03:17Z" version="1" visible="true" user="SomeoneElse" uid="112" lat="50.9842" lon="33.009">
    <tag k="place" v="legend_text"/>
    <tag k="name" v="Golf Ball Washer"/>
  </node>
  <node id="12724000010" changeset="101472" timestamp="2017-04-30T13:03:17Z" version="1" visible="true" user="SomeoneElse" uid="112" lat="50.984" lon="33.01">
    <tag k="leisure" v="bowling_alley"/>
    <tag k="name" v="Name"/>
  </node>
  <node id="12725000010" changeset="101472" timestamp="2017-04-30T13:03:17Z" version="1" visible="true" user="SomeoneElse" uid="112" lat="50.9842" lon="33.01">
    <tag k="place" v="legend_text"/>
    <tag k="name" v="Bowling Alley"/>
  </node>
  <node id="12724000011" changeset="101472" timestamp="2017-04-30T13:03:17Z" version="1" visible="true" user="SomeoneElse" uid="112" lat="50.984" lon="33.011">
    <tag k="leisure" v="recreation_ground"/>
    <tag k="name" v="Name"/>
  </node>
  <node id="12725000011" changeset="101472" timestamp="2017-04-30T13:03:17Z" version="1" visible="true" user="SomeoneElse" uid="112" lat="50.9842" lon="33.011">
    <tag k="place" v="legend_text"/>
    <tag k="name" v="Rec. Ground"/>
  </node>
  <node id="12724000012" changeset="101472" timestamp="2017-04-30T13:03:17Z" version="1" visible="true" user="SomeoneElse" uid="112" lat="50.984" lon="33.012">
    <tag k="leisure" v="dance"/>
    <tag k="name" v="Name"/>
  </node>
  <node id="12725000012" changeset="101472" timestamp="2017-04-30T13:03:17Z" version="1" visible="true" user="SomeoneElse" uid="112" lat="50.9842" lon="33.012">
    <tag k="place" v="legend_text"/>
    <tag k="name" v="Dancing"/>
  </node>
  <node id="12724000013" changeset="101472" timestamp="2017-04-30T13:03:17Z" version="1" visible="true" user="SomeoneElse" uid="112" lat="50.984" lon="33.013">
    <tag k="leisure" v="club"/>
    <tag k="name" v="Name"/>
  </node>
  <node id="12725000013" changeset="101472" timestamp="2017-04-30T13:03:17Z" version="1" visible="true" user="SomeoneElse" uid="112" lat="50.9842" lon="33.013">
    <tag k="place" v="legend_text"/>
    <tag k="name" v="Club"/>
  </node>
  <node id="12724000014" changeset="101472" timestamp="2017-04-30T13:03:17Z" version="1" visible="true" user="SomeoneElse" uid="112" lat="50.984" lon="33.014">
    <tag k="leisure" v="fitness_centre"/>
    <tag k="name" v="Name"/>
  </node>
  <node id="12725000014" changeset="101472" timestamp="2017-04-30T13:03:17Z" version="1" visible="true" user="SomeoneElse" uid="112" lat="50.9842" lon="33.014">
    <tag k="place" v="legend_text"/>
    <tag k="name" v="Fitness Centre"/>
  </node>
  <node id="12724000015" changeset="101472" timestamp="2017-04-30T13:03:17Z" version="1" visible="true" user="SomeoneElse" uid="112" lat="50.984" lon="33.015">
    <tag k="leisure" v="fitness_station"/>
    <tag k="name" v="Name"/>
  </node>
  <node id="12725000015" changeset="101472" timestamp="2017-04-30T13:03:17Z" version="1" visible="true" user="SomeoneElse" uid="112" lat="50.9842" lon="33.015">
    <tag k="place" v="legend_text"/>
    <tag k="name" v="Fitness Station"/>
  </node>
  <node id="12724000016" changeset="101472" timestamp="2017-04-30T13:03:17Z" version="1" visible="true" user="SomeoneElse" uid="112" lat="50.984" lon="33.016">
    <tag k="leisure" v="dog_park"/>
    <tag k="name" v="Name"/>
  </node>
  <node id="12725000016" changeset="101472" timestamp="2017-04-30T13:03:17Z" version="1" visible="true" user="SomeoneElse" uid="112" lat="50.9842" lon="33.016">
    <tag k="place" v="legend_text"/>
    <tag k="name" v="Dog Park"/>
  </node>
  <node id="12724000017" changeset="101472" timestamp="2017-04-30T13:03:17Z" version="1" visible="true" user="SomeoneElse" uid="112" lat="50.984" lon="33.017">
    <tag k="leisure" v="sauna"/>
    <tag k="name" v="Name"/>
  </node>
  <node id="12725000017" changeset="101472" timestamp="2017-04-30T13:03:17Z" version="1" visible="true" user="SomeoneElse" uid="112" lat="50.9842" lon="33.017">
    <tag k="place" v="legend_text"/>
    <tag k="name" v="Sauna"/>
  </node>
  <node id="12724000018" changeset="101472" timestamp="2017-04-30T13:03:17Z" version="1" visible="true" user="SomeoneElse" uid="112" lat="50.984" lon="33.018">
    <tag k="leisure" v="horse_riding"/>
    <tag k="name" v="Name"/>
  </node>
  <node id="12725000018" changeset="101472" timestamp="2017-04-30T13:03:17Z" version="1" visible="true" user="SomeoneElse" uid="112" lat="50.9842" lon="33.018">
    <tag k="place" v="legend_text"/>
    <tag k="name" v="Horse Riding"/>
  </node>
  <node id="12724000019" changeset="101472" timestamp="2017-04-30T13:03:17Z" version="1" visible="true" user="SomeoneElse" uid="112" lat="50.984" lon="33.019">
    <tag k="leisure" v="fishing"/>
    <tag k="name" v="Name"/>
  </node>
  <node id="12725000019" changeset="101472" timestamp="2017-04-30T13:03:17Z" version="1" visible="true" user="SomeoneElse" uid="112" lat="50.9842" lon="33.019">
    <tag k="place" v="legend_text"/>
    <tag k="name" v="Fishing"/>
  </node>
  <node id="12724000020" changeset="101472" timestamp="2017-04-30T13:03:17Z" version="1" visible="true" user="SomeoneElse" uid="112" lat="50.984" lon="33.02">
    <tag k="leisure" v="bandstand"/>
    <tag k="name" v="Name"/>
  </node>
  <node id="12725000020" changeset="101472" timestamp="2017-04-30T13:03:17Z" version="1" visible="true" user="SomeoneElse" uid="112" lat="50.9842" lon="33.02">
    <tag k="place" v="legend_text"/>
    <tag k="name" v="Bandstand"/>
  </node>
  <node id="12724000021" changeset="101472" timestamp="2017-04-30T13:03:17Z" version="1" visible="true" user="SomeoneElse" uid="112" lat="50.984" lon="33.021">
    <tag k="leisure" v="bleachers"/>
    <tag k="name" v="Name"/>
  </node>
  <node id="12725000021" changeset="101472" timestamp="2017-04-30T13:03:17Z" version="1" visible="true" user="SomeoneElse" uid="112" lat="50.9842" lon="33.021">
    <tag k="place" v="legend_text"/>
    <tag k="name" v="Bleachers"/>
  </node>
  <node id="12734000001" changeset="101472" timestamp="2017-04-30T13:03:17Z" version="1" visible="true" user="SomeoneElse" uid="112" lat="50.983" lon="33.001">
    <tag k="barrier" v="gate"/>
    <tag k="name" v="Gate"/>
  </node>
  <node id="12735000001" changeset="101472" timestamp="2017-04-30T13:03:17Z" version="1" visible="true" user="SomeoneElse" uid="112" lat="50.9832" lon="33.001">
    <tag k="place" v="legend_text"/>
    <tag k="name" v="Barriers"/>
  </node>
  <node id="12734000002" changeset="101472" timestamp="2017-04-30T13:03:17Z" version="1" visible="true" user="SomeoneElse" uid="112" lat="50.983" lon="33.002">
    <tag k="barrier" v="gate"/>
    <tag k="locked" v="yes"/>
    <tag k="name" v="Locked gate"/>
  </node>
  <node id="12734000003" changeset="101472" timestamp="2017-04-30T13:03:17Z" version="1" visible="true" user="SomeoneElse" uid="112" lat="50.983" lon="33.003">
    <tag k="barrier" v="stile"/>
    <tag k="name" v="Stile"/>
  </node>
  <node id="12734000004" changeset="101472" timestamp="2017-04-30T13:03:17Z" version="1" visible="true" user="SomeoneElse" uid="112" lat="50.983" lon="33.004">
    <tag k="barrier" v="dog_gate_stile"/>
    <tag k="name" v="(with dog gate)"/>
  </node>
  <node id="12734000005" changeset="101472" timestamp="2017-04-30T13:03:17Z" version="1" visible="true" user="SomeoneElse" uid="112" lat="50.983" lon="33.005">
    <tag k="barrier" v="bollard"/>
    <tag k="name" v="Bollard"/>
  </node>
  <node id="12734000006" changeset="101472" timestamp="2017-04-30T13:03:17Z" version="1" visible="true" user="SomeoneElse" uid="112" lat="50.983" lon="33.006">
    <tag k="barrier" v="kissing_gate"/>
    <tag k="name" v="Kissing Gate"/>
  </node>
  <node id="12734000007" changeset="101472" timestamp="2017-04-30T13:03:17Z" version="1" visible="true" user="SomeoneElse" uid="112" lat="50.983" lon="33.007">
    <tag k="barrier" v="cycle_barrier"/>
    <tag k="name" v="Cycle Barrier"/>
  </node>
  <node id="12734000008" changeset="101472" timestamp="2017-04-30T13:03:17Z" version="1" visible="true" user="SomeoneElse" uid="112" lat="50.983" lon="33.008">
    <tag k="barrier" v="cattle_grid"/>
    <tag k="name" v="Cattle Grid"/>
  </node>
  <node id="12734000009" changeset="101472" timestamp="2017-04-30T13:03:17Z" version="1" visible="true" user="SomeoneElse" uid="112" lat="50.983" lon="33.009">
    <tag k="barrier" v="lift_gate"/>
    <tag k="name" v="Lift Gate"/>
  </node>
  <node id="12734000010" changeset="101472" timestamp="2017-04-30T13:03:17Z" version="1" visible="true" user="SomeoneElse" uid="112" lat="50.983" lon="33.01">
    <tag k="barrier" v="door"/>
    <tag k="name" v="Door"/>
  </node>
  <node id="12734000011" changeset="101472" timestamp="2017-04-30T13:03:17Z" version="1" visible="true" user="SomeoneElse" uid="112" lat="50.983" lon="33.011">
    <tag k="barrier" v="toll_booth"/>
    <tag k="name" v="Toll Booth"/>
  </node>
  <node id="12734000012" changeset="101472" timestamp="2017-04-30T13:03:17Z" version="1" visible="true" user="SomeoneElse" uid="112" lat="50.983" lon="33.012">
    <tag k="barrier" v="horse_stile"/>
    <tag k="name" v="Horse Stile"/>
  </node>
  <node id="12734000013" changeset="101472" timestamp="2017-04-30T13:03:17Z" version="1" visible="true" user="SomeoneElse" uid="112" lat="50.983" lon="33.013">
    <tag k="barrier" v="border_control"/>
    <tag k="name" v="Border Control"/>
  </node>
  <node id="12734000014" changeset="101472" timestamp="2017-04-30T13:03:17Z" version="1" visible="true" user="SomeoneElse" uid="112" lat="50.983" lon="33.014">
    <tag k="barrier" v="bus_trap"/>
    <tag k="name" v="Bus Trap"/>
  </node>
  <node id="12734000015" changeset="101472" timestamp="2017-04-30T13:03:17Z" version="1" visible="true" user="SomeoneElse" uid="112" lat="50.983" lon="33.015">
    <tag k="barrier" v="ticket_barrier"/>
    <tag k="name" v="Ticket Barrier"/>
  </node>
  <node id="12734000016" changeset="101472" timestamp="2017-04-30T13:03:17Z" version="1" visible="true" user="SomeoneElse" uid="112" lat="50.983" lon="33.016">
    <tag k="entrance" v="main"/>
    <tag k="name" v="Name"/>
  </node>
  <node id="12735000016" changeset="101472" timestamp="2017-04-30T13:03:17Z" version="1" visible="true" user="SomeoneElse" uid="112" lat="50.9832" lon="33.016">
    <tag k="place" v="legend_text"/>
    <tag k="name" v="Main Entrance"/>
  </node>
  <node id="12734000017" changeset="101472" timestamp="2017-04-30T13:03:17Z" version="1" visible="true" user="SomeoneElse" uid="112" lat="50.983" lon="33.017">
    <tag k="waterway" v="sluice_gate"/>
    <tag k="name" v="Name"/>
  </node>
  <node id="12735000017" changeset="101472" timestamp="2017-04-30T13:03:17Z" version="1" visible="true" user="SomeoneElse" uid="112" lat="50.9832" lon="33.017">
    <tag k="place" v="legend_text"/>
    <tag k="name" v="Sluice"/>
  </node>
  <node id="12734000018" changeset="101472" timestamp="2017-04-30T13:03:17Z" version="1" visible="true" user="SomeoneElse" uid="112" lat="50.983" lon="33.018">
    <tag k="waterway" v="lock_gate"/>
    <tag k="name" v="Name"/>
  </node>
  <node id="12735000018" changeset="101472" timestamp="2017-04-30T13:03:17Z" version="1" visible="true" user="SomeoneElse" uid="112" lat="50.9832" lon="33.018">
    <tag k="place" v="legend_text"/>
    <tag k="name" v="Lock Gate"/>
  </node>
  <node id="12744000001" changeset="101472" timestamp="2017-04-30T13:03:17Z" version="1" visible="true" user="SomeoneElse" uid="112" lat="50.982" lon="33.001">
    <tag k="tourism" v="information"/>
    <tag k="name" v="Generic Information"/>
  </node>
  <node id="12745000001" changeset="101472" timestamp="2017-04-30T13:03:17Z" version="1" visible="true" user="SomeoneElse" uid="112" lat="50.9822" lon="33.001">
    <tag k="place" v="legend_text"/>
    <tag k="name" v="Tourist Information"/>
  </node>
  <node id="12744000002" changeset="101472" timestamp="2017-04-30T13:03:17Z" version="1" visible="true" user="SomeoneElse" uid="112" lat="50.982" lon="33.002">
    <tag k="tourism" v="information"/>
    <tag k="information" v="board"/>
    <tag k="name" v="Board"/>
  </node>
  <node id="12744000003" changeset="101472" timestamp="2017-04-30T13:03:17Z" version="1" visible="true" user="SomeoneElse" uid="112" lat="50.982" lon="33.003">
    <tag k="tourism" v="information"/>
    <tag k="information" v="board"/>
    <tag k="board_type" v="public_transport"/>
    <tag k="name" v="Public Transport"/>
  </node>
  <node id="12744000004" changeset="101472" timestamp="2017-04-30T13:03:17Z" version="1" visible="true" user="SomeoneElse" uid="112" lat="50.982" lon="33.004">
    <tag k="tourism" v="information"/>
    <tag k="information" v="sign"/>
    <tag k="name" v="Sign"/>
  </node>
  <node id="12744000005" changeset="101472" timestamp="2017-04-30T13:03:17Z" version="1" visible="true" user="SomeoneElse" uid="112" lat="50.982" lon="33.005">
    <tag k="tourism" v="information"/>
    <tag k="information" v="sign"/>
    <tag k="operator:type" v="military"/>
    <tag k="name" v="Military"/>
  </node>
  <node id="12744000006" changeset="101472" timestamp="2017-04-30T13:03:17Z" version="1" visible="true" user="SomeoneElse" uid="112" lat="50.982" lon="33.006">
    <tag k="tourism" v="information"/>
    <tag k="information" v="guidepost"/>
    <tag k="name" v="Guidepost"/>
  </node>
  <node id="12744000007" changeset="101472" timestamp="2017-04-30T13:03:17Z" version="1" visible="true" user="SomeoneElse" uid="112" lat="50.982" lon="33.007">
    <tag k="tourism" v="information"/>
    <tag k="information" v="route_marker"/>
    <tag k="name" v="Route marker"/>
  </node>
  <node id="12744000008" changeset="101472" timestamp="2017-04-30T13:03:17Z" version="1" visible="true" user="SomeoneElse" uid="112" lat="50.982" lon="33.008">
    <tag k="tourism" v="information"/>
    <tag k="information" v="office"/>
    <tag k="name" v="Office"/>
  </node>
  <node id="12744000009" changeset="101472" timestamp="2017-04-30T13:03:17Z" version="1" visible="true" user="SomeoneElse" uid="112" lat="50.982" lon="33.009">
    <tag k="tourism" v="information"/>
    <tag k="information" v="plaque"/>
    <tag k="name" v="Plaque"/>
  </node>
  <node id="12744000010" changeset="101472" timestamp="2017-04-30T13:03:17Z" version="1" visible="true" user="SomeoneElse" uid="112" lat="50.982" lon="33.01">
    <tag k="tourism" v="information"/>
    <tag k="information" v="audioguide"/>
    <tag k="name" v="Audioguide"/>
  </node>
  <node id="12744000011" changeset="101472" timestamp="2017-04-30T13:03:17Z" version="1" visible="true" user="SomeoneElse" uid="112" lat="50.982" lon="33.011">
    <tag k="tourism" v="information"/>
    <tag k="operator" v="Peak and Northern Footpaths Society"/>
    <tag k="ref" v="Ref"/>
    <tag k="name" v="PNFS Signpost"/>
  </node>
  <node id="12744000012" changeset="101472" timestamp="2017-04-30T13:03:17Z" version="1" visible="true" user="SomeoneElse" uid="112" lat="50.982" lon="33.012">
    <tag k="ncn_milepost" v="dudgeon"/>
    <tag k="sustrans_ref" v="Dudgeon"/>
  </node>
  <node id="12745000012" changeset="101472" timestamp="2017-04-30T13:03:17Z" version="1" visible="true" user="SomeoneElse" uid="112" lat="50.9822" lon="33.012">
    <tag k="place" v="legend_text"/>
    <tag k="name" v="Sustrans markers"/>
  </node>
  <node id="12744000013" changeset="101472" timestamp="2017-04-30T13:03:17Z" version="1" visible="true" user="SomeoneElse" uid="112" lat="50.982" lon="33.013">
    <tag k="ncn_milepost" v="mccoll"/>
    <tag k="sustrans_ref" v="McColl"/>
  </node>
  <node id="12744000014" changeset="101472" timestamp="2017-04-30T13:03:17Z" version="1" visible="true" user="SomeoneElse" uid="112" lat="50.982" lon="33.014">
    <tag k="ncn_milepost" v="mills"/>
    <tag k="sustrans_ref" v="Mills"/>
  </node>
  <node id="12744000015" changeset="101472" timestamp="2017-04-30T13:03:17Z" version="1" visible="true" user="SomeoneElse" uid="112" lat="50.982" lon="33.015">
    <tag k="ncn_milepost" v="rowe"/>
    <tag k="sustrans_ref" v="Rowe"/>
  </node>
  <node id="12744000016" changeset="101472" timestamp="2017-04-30T13:03:17Z" version="1" visible="true" user="SomeoneElse" uid="112" lat="50.982" lon="33.016">
    <tag k="ncn_milepost" v="yes"/>
    <tag k="sustrans_ref" v="Unknown"/>
  </node>
  <node id="12754000001" changeset="101472" timestamp="2017-04-30T13:03:17Z" version="1" visible="true" user="SomeoneElse" uid="112" lat="50.981" lon="33.001">
    <tag k="amenity" v="place_of_worship"/>
    <tag k="religion" v="christian"/>
    <tag k="name" v="Christian"/>
  </node>
  <node id="12755000001" changeset="101472" timestamp="2017-04-30T13:03:17Z" version="1" visible="true" user="SomeoneElse" uid="112" lat="50.9812" lon="33.001">
    <tag k="place" v="legend_text"/>
    <tag k="name" v="Places of Worship etc."/>
  </node>
  <node id="12754000002" changeset="101472" timestamp="2017-04-30T13:03:17Z" version="1" visible="true" user="SomeoneElse" uid="112" lat="50.981" lon="33.002">
    <tag k="amenity" v="place_of_worship"/>
    <tag k="religion" v="muslim"/>
    <tag k="name" v="Muslim"/>
  </node>
  <node id="12754000003" changeset="101472" timestamp="2017-04-30T13:03:17Z" version="1" visible="true" user="SomeoneElse" uid="112" lat="50.981" lon="33.003">
    <tag k="amenity" v="place_of_worship"/>
    <tag k="religion" v="hindu"/>
    <tag k="name" v="Hindu"/>
  </node>
  <node id="12754000004" changeset="101472" timestamp="2017-04-30T13:03:17Z" version="1" visible="true" user="SomeoneElse" uid="112" lat="50.981" lon="33.004">
    <tag k="amenity" v="place_of_worship"/>
    <tag k="religion" v="sikh"/>
    <tag k="name" v="Sikh"/>
  </node>
  <node id="12754000005" changeset="101472" timestamp="2017-04-30T13:03:17Z" version="1" visible="true" user="SomeoneElse" uid="112" lat="50.981" lon="33.005">
    <tag k="amenity" v="place_of_worship"/>
    <tag k="religion" v="jewish"/>
    <tag k="name" v="Jewish"/>
  </node>
  <node id="12754000006" changeset="101472" timestamp="2017-04-30T13:03:17Z" version="1" visible="true" user="SomeoneElse" uid="112" lat="50.981" lon="33.006">
    <tag k="amenity" v="place_of_worship"/>
    <tag k="religion" v="buddhist"/>
    <tag k="name" v="Buddhist"/>
  </node>
  <node id="12754000007" changeset="101472" timestamp="2017-04-30T13:03:17Z" version="1" visible="true" user="SomeoneElse" uid="112" lat="50.981" lon="33.007">
    <tag k="amenity" v="place_of_worship"/>
    <tag k="religion" v="shinto"/>
    <tag k="name" v="Shinto"/>
  </node>
  <node id="12754000008" changeset="101472" timestamp="2017-04-30T13:03:17Z" version="1" visible="true" user="SomeoneElse" uid="112" lat="50.981" lon="33.008">
    <tag k="amenity" v="place_of_worship"/>
    <tag k="religion" v="taoist"/>
    <tag k="name" v="Taoist"/>
  </node>
  <node id="12754000009" changeset="101472" timestamp="2017-04-30T13:03:17Z" version="1" visible="true" user="SomeoneElse" uid="112" lat="50.981" lon="33.009">
    <tag k="place_of_worship" v="holy_well"/>
    <tag k="man_made" v="water_well"/>
    <tag k="name" v="Holy Well"/>
  </node>
  <node id="12754000010" changeset="101472" timestamp="2017-04-30T13:03:17Z" version="1" visible="true" user="SomeoneElse" uid="112" lat="50.981" lon="33.01">
    <tag k="place_of_worship" v="holy_well"/>
    <tag k="natural" v="spring"/>
    <tag k="name" v="Holy Spring"/>
  </node>
  <node id="12754000011" changeset="101472" timestamp="2017-04-30T13:03:17Z" version="1" visible="true" user="SomeoneElse" uid="112" lat="50.981" lon="33.011">
    <tag k="amenity" v="monastery"/>
    <tag k="name" v="Monastery"/>
  </node>
  <node id="12754000012" changeset="101472" timestamp="2017-04-30T13:03:17Z" version="1" visible="true" user="SomeoneElse" uid="112" lat="50.981" lon="33.012">
    <tag k="man_made" v="cross"/>
    <tag k="name" v="Cross"/>
  </node>
  <node id="12764000001" changeset="101472" timestamp="2017-04-30T13:03:17Z" version="1" visible="true" user="SomeoneElse" uid="112" lat="50.98" lon="33.001">
    <tag k="amenity" v="post_office"/>
    <tag k="name" v="Name"/>
  </node>
  <node id="12765000001" changeset="101472" timestamp="2017-04-30T13:03:17Z" version="1" visible="true" user="SomeoneElse" uid="112" lat="50.980199999999996" lon="33.001">
    <tag k="place" v="legend_text"/>
    <tag k="name" v="Post Office"/>
  </node>
  <node id="12764000002" changeset="101472" timestamp="2017-04-30T13:03:17Z" version="1" visible="true" user="SomeoneElse" uid="112" lat="50.98" lon="33.002">
    <tag k="amenity" v="fire_station"/>
    <tag k="name" v="Name"/>
  </node>
  <node id="12765000002" changeset="101472" timestamp="2017-04-30T13:03:17Z" version="1" visible="true" user="SomeoneElse" uid="112" lat="50.980199999999996" lon="33.002">
    <tag k="place" v="legend_text"/>
    <tag k="name" v="Fire"/>
  </node>
  <node id="12764000003" changeset="101472" timestamp="2017-04-30T13:03:17Z" version="1" visible="true" user="SomeoneElse" uid="112" lat="50.98" lon="33.003">
    <tag k="amenity" v="police"/>
    <tag k="name" v="Name"/>
  </node>
  <node id="12765000003" changeset="101472" timestamp="2017-04-30T13:03:17Z" version="1" visible="true" user="SomeoneElse" uid="112" lat="50.980199999999996" lon="33.003">
    <tag k="place" v="legend_text"/>
    <tag k="name" v="Police"/>
  </node>
  <node id="12764000004" changeset="101472" timestamp="2017-04-30T13:03:17Z" version="1" visible="true" user="SomeoneElse" uid="112" lat="50.98" lon="33.004">
    <tag k="amenity" v="embassy"/>
    <tag k="name" v="Name"/>
  </node>
  <node id="12765000004" changeset="101472" timestamp="2017-04-30T13:03:17Z" version="1" visible="true" user="SomeoneElse" uid="112" lat="50.980199999999996" lon="33.004">
    <tag k="place" v="legend_text"/>
    <tag k="name" v="Embassy"/>
  </node>
  <node id="12764000005" changeset="101472" timestamp="2017-04-30T13:03:17Z" version="1" visible="true" user="SomeoneElse" uid="112" lat="50.98" lon="33.005">
    <tag k="amenity" v="courthouse"/>
    <tag k="name" v="Name"/>
  </node>
  <node id="12765000005" changeset="101472" timestamp="2017-04-30T13:03:17Z" version="1" visible="true" user="SomeoneElse" uid="112" lat="50.980199999999996" lon="33.005">
    <tag k="place" v="legend_text"/>
    <tag k="name" v="Courthouse"/>
  </node>
  <node id="12764000006" changeset="101472" timestamp="2017-04-30T13:03:17Z" version="1" visible="true" user="SomeoneElse" uid="112" lat="50.98" lon="33.006">
    <tag k="amenity" v="prison"/>
    <tag k="name" v="Name"/>
  </node>
  <node id="12765000006" changeset="101472" timestamp="2017-04-30T13:03:17Z" version="1" visible="true" user="SomeoneElse" uid="112" lat="50.980199999999996" lon="33.006">
    <tag k="place" v="legend_text"/>
    <tag k="name" v="Prison"/>
  </node>
  <node id="12764000007" changeset="101472" timestamp="2017-04-30T13:03:17Z" version="1" visible="true" user="SomeoneElse" uid="112" lat="50.98" lon="33.007">
    <tag k="office" v="government"/>
    <tag k="name" v="Name"/>
  </node>
  <node id="12765000007" changeset="101472" timestamp="2017-04-30T13:03:17Z" version="1" visible="true" user="SomeoneElse" uid="112" lat="50.980199999999996" lon="33.007">
    <tag k="place" v="legend_text"/>
    <tag k="name" v="Other"/>
  </node>
  <node id="12774000001" changeset="101472" timestamp="2017-04-30T13:03:17Z" version="1" visible="true" user="SomeoneElse" uid="112" lat="50.979" lon="33.001">
    <tag k="amenity" v="bank"/>
    <tag k="name" v="Name"/>
  </node>
  <node id="12775000001" changeset="101472" timestamp="2017-04-30T13:03:17Z" version="1" visible="true" user="SomeoneElse" uid="112" lat="50.9792" lon="33.001">
    <tag k="place" v="legend_text"/>
    <tag k="name" v="Bank / Building Society"/>
  </node>
  <node id="12774000002" changeset="101472" timestamp="2017-04-30T13:03:17Z" version="1" visible="true" user="SomeoneElse" uid="112" lat="50.979" lon="33.002">
    <tag k="amenity" v="atm"/>
    <tag k="operator" v="Operator"/>
  </node>
  <node id="12775000002" changeset="101472" timestamp="2017-04-30T13:03:17Z" version="1" visible="true" user="SomeoneElse" uid="112" lat="50.9792" lon="33.002">
    <tag k="place" v="legend_text"/>
    <tag k="name" v="ATM"/>
  </node>
  <node id="12784000001" changeset="101472" timestamp="2017-04-30T13:03:17Z" version="1" visible="true" user="SomeoneElse" uid="112" lat="50.978" lon="33.001">
    <tag k="amenity" v="university"/>
    <tag k="name" v="Name"/>
  </node>
  <node id="12785000001" changeset="101472" timestamp="2017-04-30T13:03:17Z" version="1" visible="true" user="SomeoneElse" uid="112" lat="50.9782" lon="33.001">
    <tag k="place" v="legend_text"/>
    <tag k="name" v="University"/>
  </node>
  <node id="12784000002" changeset="101472" timestamp="2017-04-30T13:03:17Z" version="1" visible="true" user="SomeoneElse" uid="112" lat="50.978" lon="33.002">
    <tag k="amenity" v="school"/>
    <tag k="name" v="Name"/>
  </node>
  <node id="12785000002" changeset="101472" timestamp="2017-04-30T13:03:17Z" version="1" visible="true" user="SomeoneElse" uid="112" lat="50.9782" lon="33.002">
    <tag k="place" v="legend_text"/>
    <tag k="name" v="School / College"/>
  </node>
  <node id="12784000003" changeset="101472" timestamp="2017-04-30T13:03:17Z" version="1" visible="true" user="SomeoneElse" uid="112" lat="50.978" lon="33.003">
    <tag k="amenity" v="kindergarten"/>
    <tag k="name" v="Name"/>
  </node>
  <node id="12785000003" changeset="101472" timestamp="2017-04-30T13:03:17Z" version="1" visible="true" user="SomeoneElse" uid="112" lat="50.9782" lon="33.003">
    <tag k="place" v="legend_text"/>
    <tag k="name" v="Kindergarten"/>
  </node>
  <node id="12794000001" changeset="101472" timestamp="2017-04-30T13:03:17Z" version="1" visible="true" user="SomeoneElse" uid="112" lat="50.977" lon="33.001">
    <tag k="tourism" v="viewpoint"/>
    <tag k="name" v="Name"/>
  </node>
  <node id="12795000001" changeset="101472" timestamp="2017-04-30T13:03:17Z" version="1" visible="true" user="SomeoneElse" uid="112" lat="50.977199999999996" lon="33.001">
    <tag k="place" v="legend_text"/>
    <tag k="name" v="Viewpoint"/>
  </node>
  <node id="12794000002" changeset="101472" timestamp="2017-04-30T13:03:17Z" version="1" visible="true" user="SomeoneElse" uid="112" lat="50.977" lon="33.002">
    <tag k="tourism" v="artwork"/>
    <tag k="name" v="Name"/>
  </node>
  <node id="12795000002" changeset="101472" timestamp="2017-04-30T13:03:17Z" version="1" visible="true" user="SomeoneElse" uid="112" lat="50.977199999999996" lon="33.002">
    <tag k="place" v="legend_text"/>
    <tag k="name" v="Artwork"/>
  </node>
  <node id="12794000003" changeset="101472" timestamp="2017-04-30T13:03:17Z" version="1" visible="true" user="SomeoneElse" uid="112" lat="50.977" lon="33.003">
    <tag k="amenity" v="fountain"/>
    <tag k="name" v="Name"/>
  </node>
  <node id="12795000003" changeset="101472" timestamp="2017-04-30T13:03:17Z" version="1" visible="true" user="SomeoneElse" uid="112" lat="50.977199999999996" lon="33.003">
    <tag k="place" v="legend_text"/>
    <tag k="name" v="Fountain"/>
  </node>
  <node id="12794000004" changeset="101472" timestamp="2017-04-30T13:03:17Z" version="1" visible="true" user="SomeoneElse" uid="112" lat="50.977" lon="33.004">
    <tag k="advertising" v="column"/>
    <tag k="name" v="Name"/>
  </node>
  <node id="12795000004" changeset="101472" timestamp="2017-04-30T13:03:17Z" version="1" visible="true" user="SomeoneElse" uid="112" lat="50.977199999999996" lon="33.004">
    <tag k="place" v="legend_text"/>
    <tag k="name" v="Advertising"/>
  </node>
  <node id="12794000005" changeset="101472" timestamp="2017-04-30T13:03:17Z" version="1" visible="true" user="SomeoneElse" uid="112" lat="50.977" lon="33.005">
    <tag k="amenity" v="sundial"/>
    <tag k="name" v="Name"/>
  </node>
  <node id="12795000005" changeset="101472" timestamp="2017-04-30T13:03:17Z" version="1" visible="true" user="SomeoneElse" uid="112" lat="50.977199999999996" lon="33.005">
    <tag k="place" v="legend_text"/>
    <tag k="name" v="Sundial"/>
  </node>
  <node id="12794000006" changeset="101472" timestamp="2017-04-30T13:03:17Z" version="1" visible="true" user="SomeoneElse" uid="112" lat="50.977" lon="33.006">
    <tag k="amenity" v="post_box"/>
    <tag k="name" v="Name"/>
  </node>
  <node id="12795000006" changeset="101472" timestamp="2017-04-30T13:03:17Z" version="1" visible="true" user="SomeoneElse" uid="112" lat="50.977199999999996" lon="33.006">
    <tag k="place" v="legend_text"/>
    <tag k="name" v="Postbox"/>
  </node>
  <node id="12794000007" changeset="101472" timestamp="2017-04-30T13:03:17Z" version="1" visible="true" user="SomeoneElse" uid="112" lat="50.977" lon="33.007">
    <tag k="amenity" v="telephone"/>
    <tag k="name" v="Name"/>
  </node>
  <node id="12795000007" changeset="101472" timestamp="2017-04-30T13:03:17Z" version="1" visible="true" user="SomeoneElse" uid="112" lat="50.977199999999996" lon="33.007">
    <tag k="place" v="legend_text"/>
    <tag k="name" v="Telephone"/>
  </node>
  <node id="12794000008" changeset="101472" timestamp="2017-04-30T13:03:17Z" version="1" visible="true" user="SomeoneElse" uid="112" lat="50.977" lon="33.008">
    <tag k="amenity" v="shopmobility"/>
    <tag k="name" v="Name"/>
  </node>
  <node id="12795000008" changeset="101472" timestamp="2017-04-30T13:03:17Z" version="1" visible="true" user="SomeoneElse" uid="112" lat="50.977199999999996" lon="33.008">
    <tag k="place" v="legend_text"/>
    <tag k="name" v="Shopmobility"/>
  </node>
  <node id="12794000009" changeset="101472" timestamp="2017-04-30T13:03:17Z" version="1" visible="true" user="SomeoneElse" uid="112" lat="50.977" lon="33.009">
    <tag k="amenity" v="public_bookcase"/>
    <tag k="name" v="Name"/>
  </node>
  <node id="12795000009" changeset="101472" timestamp="2017-04-30T13:03:17Z" version="1" visible="true" user="SomeoneElse" uid="112" lat="50.977199999999996" lon="33.009">
    <tag k="place" v="legend_text"/>
    <tag k="name" v="Public Bookcase"/>
  </node>
  <node id="12794000010" changeset="101472" timestamp="2017-04-30T13:03:17Z" version="1" visible="true" user="SomeoneElse" uid="112" lat="50.977" lon="33.01">
    <tag k="amenity" v="left_luggage"/>
    <tag k="name" v="Name"/>
  </node>
  <node id="12795000010" changeset="101472" timestamp="2017-04-30T13:03:17Z" version="1" visible="true" user="SomeoneElse" uid="112" lat="50.977199999999996" lon="33.01">
    <tag k="place" v="legend_text"/>
    <tag k="name" v="Left Luggage"/>
  </node>
  <node id="12794000011" changeset="101472" timestamp="2017-04-30T13:03:17Z" version="1" visible="true" user="SomeoneElse" uid="112" lat="50.977" lon="33.011">
    <tag k="amenity" v="parcel_locker"/>
    <tag k="name" v="Operator"/>
  </node>
  <node id="12795000011" changeset="101472" timestamp="2017-04-30T13:03:17Z" version="1" visible="true" user="SomeoneElse" uid="112" lat="50.977199999999996" lon="33.011">
    <tag k="place" v="legend_text"/>
    <tag k="name" v="Parcel Locker"/>
  </node>
  <node id="12794000012" changeset="101472" timestamp="2017-04-30T13:03:17Z" version="1" visible="true" user="SomeoneElse" uid="112" lat="50.977" lon="33.012">
    <tag k="amenity" v="vending_machine"/>
    <tag k="name" v="Name"/>
  </node>
  <node id="12795000012" changeset="101472" timestamp="2017-04-30T13:03:17Z" version="1" visible="true" user="SomeoneElse" uid="112" lat="50.977199999999996" lon="33.012">
    <tag k="place" v="legend_text"/>
    <tag k="name" v="Vending Machine"/>
  </node>
  <node id="12794000013" changeset="101472" timestamp="2017-04-30T13:03:17Z" version="1" visible="true" user="SomeoneElse" uid="112" lat="50.977" lon="33.013">
    <tag k="amenity" v="vending_machine"/>
    <tag k="vending" v="excrement_bags"/>
    <tag k="name" v="Name"/>
  </node>
  <node id="12795000013" changeset="101472" timestamp="2017-04-30T13:03:17Z" version="1" visible="true" user="SomeoneElse" uid="112" lat="50.977199999999996" lon="33.013">
    <tag k="place" v="legend_text"/>
    <tag k="name" v="Poo bags"/>
  </node>
  <node id="12794000014" changeset="101472" timestamp="2017-04-30T13:03:17Z" version="1" visible="true" user="SomeoneElse" uid="112" lat="50.977" lon="33.014">
    <tag k="amenity" v="vending_machine"/>
    <tag k="vending" v="bottle_return"/>
    <tag k="name" v="Name"/>
  </node>
  <node id="12795000014" changeset="101472" timestamp="2017-04-30T13:03:17Z" version="1" visible="true" user="SomeoneElse" uid="112" lat="50.977199999999996" lon="33.014">
    <tag k="place" v="legend_text"/>
    <tag k="name" v="Bottle Return"/>
  </node>
  <node id="12794000015" changeset="101472" timestamp="2017-04-30T13:03:17Z" version="1" visible="true" user="SomeoneElse" uid="112" lat="50.977" lon="33.015">
    <tag k="amenity" v="musical_instrument"/>
    <tag k="name" v="Name"/>
  </node>
  <node id="12795000015" changeset="101472" timestamp="2017-04-30T13:03:17Z" version="1" visible="true" user="SomeoneElse" uid="112" lat="50.977199999999996" lon="33.015">
    <tag k="place" v="legend_text"/>
    <tag k="name" v="Musical Instrument"/>
  </node>
  <node id="12794000016" changeset="101472" timestamp="2017-04-30T13:03:17Z" version="1" visible="true" user="SomeoneElse" uid="112" lat="50.977" lon="33.016">
    <tag k="amenity" v="recycling"/>
    <tag k="recycling_type" v="centre"/>
    <tag k="name" v="Name"/>
  </node>
  <node id="12795000016" changeset="101472" timestamp="2017-04-30T13:03:17Z" version="1" visible="true" user="SomeoneElse" uid="112" lat="50.977199999999996" lon="33.016">
    <tag k="place" v="legend_text"/>
    <tag k="name" v="Recycling Centre"/>
  </node>
  <node id="12794000017" changeset="101472" timestamp="2017-04-30T13:03:17Z" version="1" visible="true" user="SomeoneElse" uid="112" lat="50.977" lon="33.017">
    <tag k="amenity" v="recycling"/>
    <tag k="name" v="Name"/>
  </node>
  <node id="12795000017" changeset="101472" timestamp="2017-04-30T13:03:17Z" version="1" visible="true" user="SomeoneElse" uid="112" lat="50.977199999999996" lon="33.017">
    <tag k="place" v="legend_text"/>
    <tag k="name" v="Recycling bin"/>
  </node>
  <node id="12794000018" changeset="101472" timestamp="2017-04-30T13:03:17Z" version="1" visible="true" user="SomeoneElse" uid="112" lat="50.977" lon="33.018">
    <tag k="amenity" v="waste_basket"/>
    <tag k="name" v="Name"/>
  </node>
  <node id="12795000018" changeset="101472" timestamp="2017-04-30T13:03:17Z" version="1" visible="true" user="SomeoneElse" uid="112" lat="50.977199999999996" lon="33.018">
    <tag k="place" v="legend_text"/>
    <tag k="name" v="Waste bin"/>
  </node>
  <node id="12794000019" changeset="101472" timestamp="2017-04-30T13:03:17Z" version="1" visible="true" user="SomeoneElse" uid="112" lat="50.977" lon="33.019">
    <tag k="amenity" v="waste_disposal"/>
    <tag k="name" v="Name"/>
  </node>
  <node id="12795000019" changeset="101472" timestamp="2017-04-30T13:03:17Z" version="1" visible="true" user="SomeoneElse" uid="112" lat="50.977199999999996" lon="33.019">
    <tag k="place" v="legend_text"/>
    <tag k="name" v="Large waste bin"/>
  </node>
  <node id="12794000020" changeset="101472" timestamp="2017-04-30T13:03:17Z" version="1" visible="true" user="SomeoneElse" uid="112" lat="50.977" lon="33.02">
    <tag k="amenity" v="grit_bin"/>
    <tag k="name" v="Name"/>
  </node>
  <node id="12795000020" changeset="101472" timestamp="2017-04-30T13:03:17Z" version="1" visible="true" user="SomeoneElse" uid="112" lat="50.977199999999996" lon="33.02">
    <tag k="place" v="legend_text"/>
    <tag k="name" v="Grit bin"/>
  </node>
  <node id="12794000021" changeset="101472" timestamp="2017-04-30T13:03:17Z" version="1" visible="true" user="SomeoneElse" uid="112" lat="50.977" lon="33.021">
    <tag k="amenity" v="bench"/>
    <tag k="name" v="Name"/>
  </node>
  <node id="12795000021" changeset="101472" timestamp="2017-04-30T13:03:17Z" version="1" visible="true" user="SomeoneElse" uid="112" lat="50.977199999999996" lon="33.021">
    <tag k="place" v="legend_text"/>
    <tag k="name" v="Bench"/>
  </node>
  <node id="12794000022" changeset="101472" timestamp="2017-04-30T13:03:17Z" version="1" visible="true" user="SomeoneElse" uid="112" lat="50.977" lon="33.022">
    <tag k="amenity" v="drinking_water"/>
    <tag k="name" v="Name"/>
  </node>
  <node id="12795000022" changeset="101472" timestamp="2017-04-30T13:03:17Z" version="1" visible="true" user="SomeoneElse" uid="112" lat="50.977199999999996" lon="33.022">
    <tag k="place" v="legend_text"/>
    <tag k="name" v="Drinking water"/>
  </node>
  <node id="12794000023" changeset="101472" timestamp="2017-04-30T13:03:17Z" version="1" visible="true" user="SomeoneElse" uid="112" lat="50.977" lon="33.023">
    <tag k="amenity" v="nondrinking_water"/>
    <tag k="name" v="Name"/>
  </node>
  <node id="12795000023" changeset="101472" timestamp="2017-04-30T13:03:17Z" version="1" visible="true" user="SomeoneElse" uid="112" lat="50.977199999999996" lon="33.023">
    <tag k="place" v="legend_text"/>
    <tag k="name" v="Non-drinking water"/>
  </node>
  <node id="12794000024" changeset="101472" timestamp="2017-04-30T13:03:17Z" version="1" visible="true" user="SomeoneElse" uid="112" lat="50.977" lon="33.024">
    <tag k="man_made" v="water_well"/>
    <tag k="name" v="Name"/>
  </node>
  <node id="12795000024" changeset="101472" timestamp="2017-04-30T13:03:17Z" version="1" visible="true" user="SomeoneElse" uid="112" lat="50.977199999999996" lon="33.024">
    <tag k="place" v="legend_text"/>
    <tag k="name" v="Well"/>
  </node>
  <node id="12794000025" changeset="101472" timestamp="2017-04-30T13:03:17Z" version="1" visible="true" user="SomeoneElse" uid="112" lat="50.977" lon="33.025">
    <tag k="man_made" v="outfall"/>
    <tag k="name" v="Name"/>
  </node>
  <node id="12795000025" changeset="101472" timestamp="2017-04-30T13:03:17Z" version="1" visible="true" user="SomeoneElse" uid="112" lat="50.977199999999996" lon="33.025">
    <tag k="place" v="legend_text"/>
    <tag k="name" v="Outfall"/>
  </node>
  <node id="12804000001" changeset="101472" timestamp="2017-04-30T13:03:17Z" version="1" visible="true" user="SomeoneElse" uid="112" lat="50.976" lon="33.001">
    <tag k="historic" v="archaeological_site"/>
    <tag k="name" v="Name"/>
  </node>
  <node id="12805000001" changeset="101472" timestamp="2017-04-30T13:03:17Z" version="1" visible="true" user="SomeoneElse" uid="112" lat="50.9762" lon="33.001">
    <tag k="place" v="legend_text"/>
    <tag k="name" v="Archaeology"/>
  </node>
  <node id="12804000002" changeset="101472" timestamp="2017-04-30T13:03:17Z" version="1" visible="true" user="SomeoneElse" uid="112" lat="50.976" lon="33.002">
    <tag k="geological" v="palaeontological_site"/>
    <tag k="name" v="Name"/>
  </node>
  <node id="12805000002" changeset="101472" timestamp="2017-04-30T13:03:17Z" version="1" visible="true" user="SomeoneElse" uid="112" lat="50.9762" lon="33.002">
    <tag k="place" v="legend_text"/>
    <tag k="name" v="Palaeontology"/>
  </node>
  <node id="12804000003" changeset="101472" timestamp="2017-04-30T13:03:17Z" version="1" visible="true" user="SomeoneElse" uid="112" lat="50.976" lon="33.003">
    <tag k="historic" v="archaeological_site"/>
    <tag k="archaeological_site" v="fortification"/>
    <tag k="name" v="Name"/>
  </node>
  <node id="12805000003" changeset="101472" timestamp="2017-04-30T13:03:17Z" version="1" visible="true" user="SomeoneElse" uid="112" lat="50.9762" lon="33.003">
    <tag k="place" v="legend_text"/>
    <tag k="name" v="Fortification"/>
  </node>
  <node id="12804000004" changeset="101472" timestamp="2017-04-30T13:03:17Z" version="1" visible="true" user="SomeoneElse" uid="112" lat="50.976" lon="33.004">
    <tag k="historic" v="archaeological_site"/>
    <tag k="archaeological_site" v="fortification"/>
    <tag k="fortification_type" v="ringfort"/>
    <tag k="name" v="Name"/>
  </node>
  <node id="12805000004" changeset="101472" timestamp="2017-04-30T13:03:17Z" version="1" visible="true" user="SomeoneElse" uid="112" lat="50.9762" lon="33.004">
    <tag k="place" v="legend_text"/>
    <tag k="name" v="Ringfort"/>
  </node>
  <node id="12804000005" changeset="101472" timestamp="2017-04-30T13:03:17Z" version="1" visible="true" user="SomeoneElse" uid="112" lat="50.976" lon="33.005">
    <tag k="historic" v="archaeological_site"/>
    <tag k="archaeological_site" v="fortification"/>
    <tag k="fortification_type" v="hill_fort"/>
    <tag k="name" v="Name"/>
  </node>
  <node id="12805000005" changeset="101472" timestamp="2017-04-30T13:03:17Z" version="1" visible="true" user="SomeoneElse" uid="112" lat="50.9762" lon="33.005">
    <tag k="place" v="legend_text"/>
    <tag k="name" v="Hill Fort"/>
  </node>
  <node id="12804000006" changeset="101472" timestamp="2017-04-30T13:03:17Z" version="1" visible="true" user="SomeoneElse" uid="112" lat="50.976" lon="33.006">
    <tag k="historic" v="archaeological_site"/>
    <tag k="archaeological_site" v="fortification"/>
    <tag k="fortification_type" v="motte"/>
    <tag k="name" v="Name"/>
  </node>
  <node id="12805000006" changeset="101472" timestamp="2017-04-30T13:03:17Z" version="1" visible="true" user="SomeoneElse" uid="112" lat="50.9762" lon="33.006">
    <tag k="place" v="legend_text"/>
    <tag k="name" v="Motte"/>
  </node>
  <node id="12804000007" changeset="101472" timestamp="2017-04-30T13:03:17Z" version="1" visible="true" user="SomeoneElse" uid="112" lat="50.976" lon="33.007">
    <tag k="historic" v="archaeological_site"/>
    <tag k="archaeological_site" v="fortification"/>
    <tag k="fortification_type" v="castle"/>
    <tag k="name" v="Name"/>
  </node>
  <node id="12805000007" changeset="101472" timestamp="2017-04-30T13:03:17Z" version="1" visible="true" user="SomeoneElse" uid="112" lat="50.9762" lon="33.007">
    <tag k="place" v="legend_text"/>
    <tag k="name" v="Archaeological Castle"/>
  </node>
  <node id="12804000008" changeset="101472" timestamp="2017-04-30T13:03:17Z" version="1" visible="true" user="SomeoneElse" uid="112" lat="50.976" lon="33.008">
    <tag k="historic" v="archaeological_site"/>
    <tag k="archaeological_site" v="fortification"/>
    <tag k="fortification_type" v="promontory_fort"/>
    <tag k="name" v="Name"/>
  </node>
  <node id="12805000008" changeset="101472" timestamp="2017-04-30T13:03:17Z" version="1" visible="true" user="SomeoneElse" uid="112" lat="50.9762" lon="33.008">
    <tag k="place" v="legend_text"/>
    <tag k="name" v="Promontory Fort"/>
  </node>
  <node id="12804000009" changeset="101472" timestamp="2017-04-30T13:03:17Z" version="1" visible="true" user="SomeoneElse" uid="112" lat="50.976" lon="33.009">
    <tag k="historic" v="archaeological_site"/>
    <tag k="archaeological_site" v="crannog"/>
    <tag k="name" v="Name"/>
  </node>
  <node id="12805000009" changeset="101472" timestamp="2017-04-30T13:03:17Z" version="1" visible="true" user="SomeoneElse" uid="112" lat="50.9762" lon="33.009">
    <tag k="place" v="legend_text"/>
    <tag k="name" v="Crannog"/>
  </node>
  <node id="12804000010" changeset="101472" timestamp="2017-04-30T13:03:17Z" version="1" visible="true" user="SomeoneElse" uid="112" lat="50.976" lon="33.01">
    <tag k="historic" v="archaeological_site"/>
    <tag k="archaeological_site" v="tumulus"/>
    <tag k="name" v="Name"/>
  </node>
  <node id="12805000010" changeset="101472" timestamp="2017-04-30T13:03:17Z" version="1" visible="true" user="SomeoneElse" uid="112" lat="50.9762" lon="33.01">
    <tag k="place" v="legend_text"/>
    <tag k="name" v="Tumulus"/>
  </node>
  <node id="12804000011" changeset="101472" timestamp="2017-04-30T13:03:17Z" version="1" visible="true" user="SomeoneElse" uid="112" lat="50.976" lon="33.011">
    <tag k="historic" v="stone"/>
    <tag k="name" v="Name"/>
  </node>
  <node id="12805000011" changeset="101472" timestamp="2017-04-30T13:03:17Z" version="1" visible="true" user="SomeoneElse" uid="112" lat="50.9762" lon="33.011">
    <tag k="place" v="legend_text"/>
    <tag k="name" v="Stone"/>
  </node>
  <node id="12804000012" changeset="101472" timestamp="2017-04-30T13:03:17Z" version="1" visible="true" user="SomeoneElse" uid="112" lat="50.976" lon="33.012">
    <tag k="historic" v="standing_stone"/>
    <tag k="name" v="Name"/>
  </node>
  <node id="12805000012" changeset="101472" timestamp="2017-04-30T13:03:17Z" version="1" visible="true" user="SomeoneElse" uid="112" lat="50.9762" lon="33.012">
    <tag k="place" v="legend_text"/>
    <tag k="name" v="Standing Stone"/>
  </node>
  <node id="12804000013" changeset="101472" timestamp="2017-04-30T13:03:17Z" version="1" visible="true" user="SomeoneElse" uid="112" lat="50.976" lon="33.013">
    <tag k="historic" v="archaeological_site"/>
    <tag k="archaeological_site" v="megalith"/>
    <tag k="megalith_type" v="stone_circle"/>
    <tag k="name" v="Name"/>
  </node>
  <node id="12805000013" changeset="101472" timestamp="2017-04-30T13:03:17Z" version="1" visible="true" user="SomeoneElse" uid="112" lat="50.9762" lon="33.013">
    <tag k="place" v="legend_text"/>
    <tag k="name" v="Stone Circle"/>
  </node>
  <node id="12804000014" changeset="101472" timestamp="2017-04-30T13:03:17Z" version="1" visible="true" user="SomeoneElse" uid="112" lat="50.976" lon="33.014">
    <tag k="historic" v="archaeological_site"/>
    <tag k="archaeological_site" v="megalith"/>
    <tag k="megalith_type" v="dolmen"/>
    <tag k="name" v="Name"/>
  </node>
  <node id="12805000014" changeset="101472" timestamp="2017-04-30T13:03:17Z" version="1" visible="true" user="SomeoneElse" uid="112" lat="50.9762" lon="33.014">
    <tag k="place" v="legend_text"/>
    <tag k="name" v="Megalithic Tomb"/>
  </node>
  <node id="12804000015" changeset="101472" timestamp="2017-04-30T13:03:17Z" version="1" visible="true" user="SomeoneElse" uid="112" lat="50.976" lon="33.015">
    <tag k="historic" v="archaeological_site"/>
    <tag k="archaeological_site" v="megalith"/>
    <tag k="megalith_type" v="stone_row"/>
    <tag k="name" v="Name"/>
  </node>
  <node id="12805000015" changeset="101472" timestamp="2017-04-30T13:03:17Z" version="1" visible="true" user="SomeoneElse" uid="112" lat="50.9762" lon="33.015">
    <tag k="place" v="legend_text"/>
    <tag k="name" v="Stone Row"/>
  </node>
  <node id="12804000016" changeset="101472" timestamp="2017-04-30T13:03:17Z" version="1" visible="true" user="SomeoneElse" uid="112" lat="50.976" lon="33.016">
    <tag k="historic" v="ogham_stone"/>
    <tag k="stone_type" v="ogham_stone"/>
    <tag k="name" v="Name"/>
  </node>
  <node id="12805000016" changeset="101472" timestamp="2017-04-30T13:03:17Z" version="1" visible="true" user="SomeoneElse" uid="112" lat="50.9762" lon="33.016">
    <tag k="place" v="legend_text"/>
    <tag k="name" v="Ogham Stone"/>
  </node>
  <node id="12804000017" changeset="101472" timestamp="2017-04-30T13:03:17Z" version="1" visible="true" user="SomeoneElse" uid="112" lat="50.976" lon="33.017">
    <tag k="historic" v="rune_stone"/>
    <tag k="name" v="Name"/>
  </node>
  <node id="12805000017" changeset="101472" timestamp="2017-04-30T13:03:17Z" version="1" visible="true" user="SomeoneElse" uid="112" lat="50.9762" lon="33.017">
    <tag k="place" v="legend_text"/>
    <tag k="name" v="Rune Stone"/>
  </node>
  <node id="12804000018" changeset="101472" timestamp="2017-04-30T13:03:17Z" version="1" visible="true" user="SomeoneElse" uid="112" lat="50.976" lon="33.018">
    <tag k="place_of_worship" v="mass_rock"/>
    <tag k="name" v="Name"/>
  </node>
  <node id="12805000018" changeset="101472" timestamp="2017-04-30T13:03:17Z" version="1" visible="true" user="SomeoneElse" uid="112" lat="50.9762" lon="33.018">
    <tag k="place" v="legend_text"/>
    <tag k="name" v="Mass Rock"/>
  </node>
  <node id="12804000019" changeset="101472" timestamp="2017-04-30T13:03:17Z" version="1" visible="true" user="SomeoneElse" uid="112" lat="50.976" lon="33.019">
    <tag k="historic" v="mineshaft"/>
    <tag k="name" v="Name"/>
  </node>
  <node id="12805000019" changeset="101472" timestamp="2017-04-30T13:03:17Z" version="1" visible="true" user="SomeoneElse" uid="112" lat="50.9762" lon="33.019">
    <tag k="place" v="legend_text"/>
    <tag k="name" v="Historic Mineshaft"/>
  </node>
  <node id="12804000020" changeset="101472" timestamp="2017-04-30T13:03:17Z" version="1" visible="true" user="SomeoneElse" uid="112" lat="50.976" lon="33.02">
    <tag k="historic" v="castle"/>
    <tag k="name" v="Name"/>
  </node>
  <node id="12805000020" changeset="101472" timestamp="2017-04-30T13:03:17Z" version="1" visible="true" user="SomeoneElse" uid="112" lat="50.9762" lon="33.02">
    <tag k="place" v="legend_text"/>
    <tag k="name" v="Historic Castle"/>
  </node>
  <node id="12804000021" changeset="101472" timestamp="2017-04-30T13:03:17Z" version="1" visible="true" user="SomeoneElse" uid="112" lat="50.976" lon="33.021">
    <tag k="historic" v="folly"/>
    <tag k="name" v="Name"/>
  </node>
  <node id="12805000021" changeset="101472" timestamp="2017-04-30T13:03:17Z" version="1" visible="true" user="SomeoneElse" uid="112" lat="50.9762" lon="33.021">
    <tag k="place" v="legend_text"/>
    <tag k="name" v="Folly"/>
  </node>
  <node id="12804000022" changeset="101472" timestamp="2017-04-30T13:03:17Z" version="1" visible="true" user="SomeoneElse" uid="112" lat="50.976" lon="33.022">
    <tag k="historic" v="martello_tower"/>
    <tag k="name" v="Name"/>
  </node>
  <node id="12805000022" changeset="101472" timestamp="2017-04-30T13:03:17Z" version="1" visible="true" user="SomeoneElse" uid="112" lat="50.9762" lon="33.022">
    <tag k="place" v="legend_text"/>
    <tag k="name" v="Martello Tower"/>
  </node>
  <node id="12804000023" changeset="101472" timestamp="2017-04-30T13:03:17Z" version="1" visible="true" user="SomeoneElse" uid="112" lat="50.976" lon="33.023">
    <tag k="historic" v="manor"/>
    <tag k="name" v="Name"/>
  </node>
  <node id="12805000023" changeset="101472" timestamp="2017-04-30T13:03:17Z" version="1" visible="true" user="SomeoneElse" uid="112" lat="50.9762" lon="33.023">
    <tag k="place" v="legend_text"/>
    <tag k="name" v="Manor"/>
  </node>
  <node id="12804000024" changeset="101472" timestamp="2017-04-30T13:03:17Z" version="1" visible="true" user="SomeoneElse" uid="112" lat="50.976" lon="33.024">
    <tag k="historic" v="monastery"/>
    <tag k="name" v="Name"/>
  </node>
  <node id="12805000024" changeset="101472" timestamp="2017-04-30T13:03:17Z" version="1" visible="true" user="SomeoneElse" uid="112" lat="50.9762" lon="33.024">
    <tag k="place" v="legend_text"/>
    <tag k="name" v="Historic Monastery"/>
  </node>
  <node id="12804000025" changeset="101472" timestamp="2017-04-30T13:03:17Z" version="1" visible="true" user="SomeoneElse" uid="112" lat="50.976" lon="33.025">
    <tag k="historic" v="city_gate"/>
    <tag k="name" v="Name"/>
  </node>
  <node id="12805000025" changeset="101472" timestamp="2017-04-30T13:03:17Z" version="1" visible="true" user="SomeoneElse" uid="112" lat="50.9762" lon="33.025">
    <tag k="place" v="legend_text"/>
    <tag k="name" v="City Gate"/>
  </node>
  <node id="12804000026" changeset="101472" timestamp="2017-04-30T13:03:17Z" version="1" visible="true" user="SomeoneElse" uid="112" lat="50.976" lon="33.026">
    <tag k="historic" v="battlefield"/>
    <tag k="name" v="Name"/>
  </node>
  <node id="12805000026" changeset="101472" timestamp="2017-04-30T13:03:17Z" version="1" visible="true" user="SomeoneElse" uid="112" lat="50.9762" lon="33.026">
    <tag k="place" v="legend_text"/>
    <tag k="name" v="Battlefield"/>
  </node>
  <node id="12804000027" changeset="101472" timestamp="2017-04-30T13:03:17Z" version="1" visible="true" user="SomeoneElse" uid="112" lat="50.976" lon="33.027">
    <tag k="historic" v="cannon"/>
    <tag k="name" v="Name"/>
  </node>
  <node id="12805000027" changeset="101472" timestamp="2017-04-30T13:03:17Z" version="1" visible="true" user="SomeoneElse" uid="112" lat="50.9762" lon="33.027">
    <tag k="place" v="legend_text"/>
    <tag k="name" v="Cannon"/>
  </node>
  <node id="12804000028" changeset="101472" timestamp="2017-04-30T13:03:17Z" version="1" visible="true" user="SomeoneElse" uid="112" lat="50.976" lon="33.028">
    <tag k="historic" v="stocks"/>
    <tag k="name" v="Name"/>
  </node>
  <node id="12805000028" changeset="101472" timestamp="2017-04-30T13:03:17Z" version="1" visible="true" user="SomeoneElse" uid="112" lat="50.9762" lon="33.028">
    <tag k="place" v="legend_text"/>
    <tag k="name" v="Stocks"/>
  </node>
  <node id="12804000029" changeset="101472" timestamp="2017-04-30T13:03:17Z" version="1" visible="true" user="SomeoneElse" uid="112" lat="50.976" lon="33.029">
    <tag k="historic" v="well"/>
    <tag k="name" v="Name"/>
  </node>
  <node id="12805000029" changeset="101472" timestamp="2017-04-30T13:03:17Z" version="1" visible="true" user="SomeoneElse" uid="112" lat="50.9762" lon="33.029">
    <tag k="place" v="legend_text"/>
    <tag k="name" v="Well"/>
  </node>
  <node id="12804000030" changeset="101472" timestamp="2017-04-30T13:03:17Z" version="1" visible="true" user="SomeoneElse" uid="112" lat="50.976" lon="33.03">
    <tag k="historic" v="cross"/>
    <tag k="name" v="Name"/>
  </node>
  <node id="12805000030" changeset="101472" timestamp="2017-04-30T13:03:17Z" version="1" visible="true" user="SomeoneElse" uid="112" lat="50.9762" lon="33.03">
    <tag k="place" v="legend_text"/>
    <tag k="name" v="Cross"/>
  </node>
  <node id="12804000031" changeset="101472" timestamp="2017-04-30T13:03:17Z" version="1" visible="true" user="SomeoneElse" uid="112" lat="50.976" lon="33.031">
    <tag k="historic" v="dovecote"/>
    <tag k="name" v="Name"/>
  </node>
  <node id="12805000031" changeset="101472" timestamp="2017-04-30T13:03:17Z" version="1" visible="true" user="SomeoneElse" uid="112" lat="50.9762" lon="33.031">
    <tag k="place" v="legend_text"/>
    <tag k="name" v="Dovecote"/>
  </node>
  <node id="12804000032" changeset="101472" timestamp="2017-04-30T13:03:17Z" version="1" visible="true" user="SomeoneElse" uid="112" lat="50.976" lon="33.032">
    <tag k="historic" v="kiln"/>
    <tag k="name" v="Name"/>
  </node>
  <node id="12805000032" changeset="101472" timestamp="2017-04-30T13:03:17Z" version="1" visible="true" user="SomeoneElse" uid="112" lat="50.9762" lon="33.032">
    <tag k="place" v="legend_text"/>
    <tag k="name" v="Kiln"/>
  </node>
  <node id="12804000033" changeset="101472" timestamp="2017-04-30T13:03:17Z" version="1" visible="true" user="SomeoneElse" uid="112" lat="50.976" lon="33.033">
    <tag k="historic" v="ice_house"/>
    <tag k="name" v="Name"/>
  </node>
  <node id="12805000033" changeset="101472" timestamp="2017-04-30T13:03:17Z" version="1" visible="true" user="SomeoneElse" uid="112" lat="50.9762" lon="33.033">
    <tag k="place" v="legend_text"/>
    <tag k="name" v="Ice House"/>
  </node>
  <node id="12804000034" changeset="101472" timestamp="2017-04-30T13:03:17Z" version="1" visible="true" user="SomeoneElse" uid="112" lat="50.976" lon="33.034">
    <tag k="historic" v="pinfold"/>
    <tag k="name" v="Name"/>
  </node>
  <node id="12805000034" changeset="101472" timestamp="2017-04-30T13:03:17Z" version="1" visible="true" user="SomeoneElse" uid="112" lat="50.9762" lon="33.034">
    <tag k="place" v="legend_text"/>
    <tag k="name" v="Pinfold"/>
  </node>
  <node id="12804000035" changeset="101472" timestamp="2017-04-30T13:03:17Z" version="1" visible="true" user="SomeoneElse" uid="112" lat="50.976" lon="33.035">
    <tag k="historic" v="water_pump"/>
    <tag k="name" v="Name"/>
  </node>
  <node id="12805000035" changeset="101472" timestamp="2017-04-30T13:03:17Z" version="1" visible="true" user="SomeoneElse" uid="112" lat="50.9762" lon="33.035">
    <tag k="place" v="legend_text"/>
    <tag k="name" v="Water Pump"/>
  </node>
  <node id="12804000036" changeset="101472" timestamp="2017-04-30T13:03:17Z" version="1" visible="true" user="SomeoneElse" uid="112" lat="50.976" lon="33.036">
    <tag k="railway" v="water_crane"/>
    <tag k="name" v="Name"/>
  </node>
  <node id="12805000036" changeset="101472" timestamp="2017-04-30T13:03:17Z" version="1" visible="true" user="SomeoneElse" uid="112" lat="50.9762" lon="33.036">
    <tag k="place" v="legend_text"/>
    <tag k="name" v="Water Crane"/>
  </node>
  <node id="12804000037" changeset="101472" timestamp="2017-04-30T13:03:17Z" version="1" visible="true" user="SomeoneElse" uid="112" lat="50.976" lon="33.037">
    <tag k="historic" v="church"/>
    <tag k="name" v="Name"/>
  </node>
  <node id="12805000037" changeset="101472" timestamp="2017-04-30T13:03:17Z" version="1" visible="true" user="SomeoneElse" uid="112" lat="50.9762" lon="33.037">
    <tag k="place" v="legend_text"/>
    <tag k="name" v="Historic Church"/>
  </node>
  <node id="12804000038" changeset="101472" timestamp="2017-04-30T13:03:17Z" version="1" visible="true" user="SomeoneElse" uid="112" lat="50.976" lon="33.038">
    <tag k="historic" v="tower"/>
    <tag k="tower:type" v="round_tower"/>
    <tag k="name" v="Name"/>
  </node>
  <node id="12805000038" changeset="101472" timestamp="2017-04-30T13:03:17Z" version="1" visible="true" user="SomeoneElse" uid="112" lat="50.9762" lon="33.038">
    <tag k="place" v="legend_text"/>
    <tag k="name" v="Round Tower"/>
  </node>
  <node id="12804000039" changeset="101472" timestamp="2017-04-30T13:03:17Z" version="1" visible="true" user="SomeoneElse" uid="112" lat="50.976" lon="33.039">
    <tag k="historic" v="tower"/>
    <tag k="tower:type" v="defensive"/>
    <tag k="name" v="Name"/>
  </node>
  <node id="12805000039" changeset="101472" timestamp="2017-04-30T13:03:17Z" version="1" visible="true" user="SomeoneElse" uid="112" lat="50.9762" lon="33.039">
    <tag k="place" v="legend_text"/>
    <tag k="name" v="Historic Defensive Tower"/>
  </node>
  <node id="12804000040" changeset="101472" timestamp="2017-04-30T13:03:17Z" version="1" visible="true" user="SomeoneElse" uid="112" lat="50.976" lon="33.04">
    <tag k="historic" v="tower"/>
    <tag k="tower:type" v="observation"/>
    <tag k="name" v="Name"/>
  </node>
  <node id="12805000040" changeset="101472" timestamp="2017-04-30T13:03:17Z" version="1" visible="true" user="SomeoneElse" uid="112" lat="50.9762" lon="33.04">
    <tag k="place" v="legend_text"/>
    <tag k="name" v="Historic Observation Tower"/>
  </node>
  <node id="12804000041" changeset="101472" timestamp="2017-04-30T13:03:17Z" version="1" visible="true" user="SomeoneElse" uid="112" lat="50.976" lon="33.041">
    <tag k="historic" v="tower"/>
    <tag k="tower:type" v="bell_tower"/>
    <tag k="name" v="Name"/>
  </node>
  <node id="12805000041" changeset="101472" timestamp="2017-04-30T13:03:17Z" version="1" visible="true" user="SomeoneElse" uid="112" lat="50.9762" lon="33.041">
    <tag k="place" v="legend_text"/>
    <tag k="name" v="Historic Bell Tower"/>
  </node>
  <node id="12804000042" changeset="101472" timestamp="2017-04-30T13:03:17Z" version="1" visible="true" user="SomeoneElse" uid="112" lat="50.976" lon="33.042">
    <tag k="historic" v="tower"/>
    <tag k="name" v="Name"/>
  </node>
  <node id="12805000042" changeset="101472" timestamp="2017-04-30T13:03:17Z" version="1" visible="true" user="SomeoneElse" uid="112" lat="50.9762" lon="33.042">
    <tag k="place" v="legend_text"/>
    <tag k="name" v="Other Historic Tower"/>
  </node>
  <node id="12804000043" changeset="101472" timestamp="2017-04-30T13:03:17Z" version="1" visible="true" user="SomeoneElse" uid="112" lat="50.976" lon="33.043">
    <tag k="historic" v="bunker"/>
    <tag k="name" v="Name"/>
  </node>
  <node id="12805000043" changeset="101472" timestamp="2017-04-30T13:03:17Z" version="1" visible="true" user="SomeoneElse" uid="112" lat="50.9762" lon="33.043">
    <tag k="place" v="legend_text"/>
    <tag k="name" v="Historic Military Bunker"/>
  </node>
  <node id="12804000044" changeset="101472" timestamp="2017-04-30T13:03:17Z" version="1" visible="true" user="SomeoneElse" uid="112" lat="50.976" lon="33.044">
    <tag k="historic" v="windmill"/>
    <tag k="name" v="Name"/>
  </node>
  <node id="12805000044" changeset="101472" timestamp="2017-04-30T13:03:17Z" version="1" visible="true" user="SomeoneElse" uid="112" lat="50.9762" lon="33.044">
    <tag k="place" v="legend_text"/>
    <tag k="name" v="Historic Windmill"/>
  </node>
  <node id="12804000045" changeset="101472" timestamp="2017-04-30T13:03:17Z" version="1" visible="true" user="SomeoneElse" uid="112" lat="50.976" lon="33.045">
    <tag k="historic" v="watermill"/>
    <tag k="name" v="Name"/>
  </node>
  <node id="12805000045" changeset="101472" timestamp="2017-04-30T13:03:17Z" version="1" visible="true" user="SomeoneElse" uid="112" lat="50.9762" lon="33.045">
    <tag k="place" v="legend_text"/>
    <tag k="name" v="Watermill"/>
  </node>
  <node id="12804000046" changeset="101472" timestamp="2017-04-30T13:03:17Z" version="1" visible="true" user="SomeoneElse" uid="112" lat="50.976" lon="33.046">
    <tag k="historic" v="mill"/>
    <tag k="name" v="Name"/>
  </node>
  <node id="12805000046" changeset="101472" timestamp="2017-04-30T13:03:17Z" version="1" visible="true" user="SomeoneElse" uid="112" lat="50.9762" lon="33.046">
    <tag k="place" v="legend_text"/>
    <tag k="name" v="Mill"/>
  </node>
  <node id="12804000047" changeset="101472" timestamp="2017-04-30T13:03:17Z" version="1" visible="true" user="SomeoneElse" uid="112" lat="50.976" lon="33.047">
    <tag k="historic" v="tank"/>
    <tag k="name" v="Name"/>
  </node>
  <node id="12805000047" changeset="101472" timestamp="2017-04-30T13:03:17Z" version="1" visible="true" user="SomeoneElse" uid="112" lat="50.9762" lon="33.047">
    <tag k="place" v="legend_text"/>
    <tag k="name" v="Tank"/>
  </node>
  <node id="12804000048" changeset="101472" timestamp="2017-04-30T13:03:17Z" version="1" visible="true" user="SomeoneElse" uid="112" lat="50.976" lon="33.048">
    <tag k="historic" v="ship"/>
    <tag k="name" v="Name"/>
  </node>
  <node id="12805000048" changeset="101472" timestamp="2017-04-30T13:03:17Z" version="1" visible="true" user="SomeoneElse" uid="112" lat="50.9762" lon="33.048">
    <tag k="place" v="legend_text"/>
    <tag k="name" v="Ship"/>
  </node>
  <node id="12804000049" changeset="101472" timestamp="2017-04-30T13:03:17Z" version="1" visible="true" user="SomeoneElse" uid="112" lat="50.976" lon="33.049">
    <tag k="historic" v="wreck"/>
    <tag k="name" v="Name"/>
  </node>
  <node id="12805000049" changeset="101472" timestamp="2017-04-30T13:03:17Z" version="1" visible="true" user="SomeoneElse" uid="112" lat="50.9762" lon="33.049">
    <tag k="place" v="legend_text"/>
    <tag k="name" v="Wreck"/>
  </node>
  <node id="12804000050" changeset="101472" timestamp="2017-04-30T13:03:17Z" version="1" visible="true" user="SomeoneElse" uid="112" lat="50.976" lon="33.05">
    <tag k="historic" v="aircraft"/>
    <tag k="name" v="Name"/>
  </node>
  <node id="12805000050" changeset="101472" timestamp="2017-04-30T13:03:17Z" version="1" visible="true" user="SomeoneElse" uid="112" lat="50.9762" lon="33.05">
    <tag k="place" v="legend_text"/>
    <tag k="name" v="Aircraft"/>
  </node>
  <node id="12804000051" changeset="101472" timestamp="2017-04-30T13:03:17Z" version="1" visible="true" user="SomeoneElse" uid="112" lat="50.976" lon="33.051">
    <tag k="historic" v="aircraft_wreck"/>
    <tag k="name" v="Name"/>
  </node>
  <node id="12805000051" changeset="101472" timestamp="2017-04-30T13:03:17Z" version="1" visible="true" user="SomeoneElse" uid="112" lat="50.9762" lon="33.051">
    <tag k="place" v="legend_text"/>
    <tag k="name" v="Aircraft Wreck"/>
  </node>
  <node id="12804000052" changeset="101472" timestamp="2017-04-30T13:03:17Z" version="1" visible="true" user="SomeoneElse" uid="112" lat="50.976" lon="33.052">
    <tag k="historic" v="milk_churn_stand"/>
    <tag k="name" v="Name"/>
  </node>
  <node id="12805000052" changeset="101472" timestamp="2017-04-30T13:03:17Z" version="1" visible="true" user="SomeoneElse" uid="112" lat="50.9762" lon="33.052">
    <tag k="place" v="legend_text"/>
    <tag k="name" v="Milk Churn Stand"/>
  </node>
  <node id="12804000053" changeset="101472" timestamp="2017-04-30T13:03:17Z" version="1" visible="true" user="SomeoneElse" uid="112" lat="50.976" lon="33.053">
    <tag k="historic" v="ruins"/>
    <tag k="name" v="Name"/>
  </node>
  <node id="12805000053" changeset="101472" timestamp="2017-04-30T13:03:17Z" version="1" visible="true" user="SomeoneElse" uid="112" lat="50.9762" lon="33.053">
    <tag k="place" v="legend_text"/>
    <tag k="name" v="Other Historic"/>
  </node>
  <node id="12814000001" changeset="101472" timestamp="2017-04-30T13:03:17Z" version="1" visible="true" user="SomeoneElse" uid="112" lat="50.975" lon="33.001">
    <tag k="historic" v="monument"/>
    <tag k="name" v="Monument"/>
  </node>
  <node id="12815000001" changeset="101472" timestamp="2017-04-30T13:03:17Z" version="1" visible="true" user="SomeoneElse" uid="112" lat="50.9752" lon="33.001">
    <tag k="place" v="legend_text"/>
    <tag k="name" v="Monument"/>
  </node>
  <node id="12814000002" changeset="101472" timestamp="2017-04-30T13:03:17Z" version="1" visible="true" user="SomeoneElse" uid="112" lat="50.975" lon="33.002">
    <tag k="historic" v="tomb"/>
    <tag k="name" v="Tomb"/>
  </node>
  <node id="12814000003" changeset="101472" timestamp="2017-04-30T13:03:17Z" version="1" visible="true" user="SomeoneElse" uid="112" lat="50.975" lon="33.003">
    <tag k="historic" v="memorial"/>
    <tag k="memorial" v="war_memorial"/>
    <tag k="name" v="War"/>
  </node>
  <node id="12815000003" changeset="101472" timestamp="2017-04-30T13:03:17Z" version="1" visible="true" user="SomeoneElse" uid="112" lat="50.9752" lon="33.003">
    <tag k="place" v="legend_text"/>
    <tag k="name" v="Memorials"/>
  </node>
  <node id="12814000004" changeset="101472" timestamp="2017-04-30T13:03:17Z" version="1" visible="true" user="SomeoneElse" uid="112" lat="50.975" lon="33.004">
    <tag k="man_made" v="obelisk"/>
    <tag k="name" v="Obelisk"/>
  </node>
  <node id="12814000005" changeset="101472" timestamp="2017-04-30T13:03:17Z" version="1" visible="true" user="SomeoneElse" uid="112" lat="50.975" lon="33.005">
    <tag k="historic" v="memorial"/>
    <tag k="memorial" v="plaque"/>
    <tag k="name" v="Plaque"/>
  </node>
  <node id="12814000006" changeset="101472" timestamp="2017-04-30T13:03:17Z" version="1" visible="true" user="SomeoneElse" uid="112" lat="50.975" lon="33.006">
    <tag k="historic" v="memorial"/>
    <tag k="memorial" v="pavement plaque"/>
    <tag k="name" v="Pavement Plaque"/>
  </node>
  <node id="12814000007" changeset="101472" timestamp="2017-04-30T13:03:17Z" version="1" visible="true" user="SomeoneElse" uid="112" lat="50.975" lon="33.007">
    <tag k="historic" v="memorial"/>
    <tag k="memorial" v="statue"/>
    <tag k="name" v="Statue"/>
  </node>
  <node id="12814000008" changeset="101472" timestamp="2017-04-30T13:03:17Z" version="1" visible="true" user="SomeoneElse" uid="112" lat="50.975" lon="33.008">
    <tag k="historic" v="memorial"/>
    <tag k="memorial" v="sculpture"/>
    <tag k="name" v="Sculpture"/>
  </node>
  <node id="12814000009" changeset="101472" timestamp="2017-04-30T13:03:17Z" version="1" visible="true" user="SomeoneElse" uid="112" lat="50.975" lon="33.009">
    <tag k="historic" v="memorial"/>
    <tag k="memorial" v="cross"/>
    <tag k="name" v="Cross"/>
  </node>
  <node id="12814000010" changeset="101472" timestamp="2017-04-30T13:03:17Z" version="1" visible="true" user="SomeoneElse" uid="112" lat="50.975" lon="33.01">
    <tag k="historic" v="memorial"/>
    <tag k="memorial" v="stone"/>
    <tag k="name" v="Stone"/>
  </node>
  <node id="12814000011" changeset="101472" timestamp="2017-04-30T13:03:17Z" version="1" visible="true" user="SomeoneElse" uid="112" lat="50.975" lon="33.011">
    <tag k="historic" v="memorial"/>
    <tag k="memorial" v="plate"/>
    <tag k="name" v="Plate"/>
  </node>
  <node id="12814000012" changeset="101472" timestamp="2017-04-30T13:03:17Z" version="1" visible="true" user="SomeoneElse" uid="112" lat="50.975" lon="33.012">
    <tag k="historic" v="memorial"/>
    <tag k="memorial" v="bench"/>
    <tag k="name" v="Bench"/>
  </node>
  <node id="12814000013" changeset="101472" timestamp="2017-04-30T13:03:17Z" version="1" visible="true" user="SomeoneElse" uid="112" lat="50.975" lon="33.013">
    <tag k="historic" v="memorial"/>
    <tag k="memorial" v="grave"/>
    <tag k="name" v="Grave"/>
  </node>
  <node id="12814000014" changeset="101472" timestamp="2017-04-30T13:03:17Z" version="1" visible="true" user="SomeoneElse" uid="112" lat="50.975" lon="33.014">
    <tag k="historic" v="memorial"/>
    <tag k="name" v="Other"/>
  </node>
  <node id="12824000001" changeset="101472" timestamp="2017-04-30T13:03:17Z" version="1" visible="true" user="SomeoneElse" uid="112" lat="50.974" lon="33.001">
    <tag k="amenity" v="telephone"/>
    <tag k="booth" v="K6"/>
    <tag k="name" v="Telephone"/>
  </node>
  <node id="12825000001" changeset="101472" timestamp="2017-04-30T13:03:17Z" version="1" visible="true" user="SomeoneElse" uid="112" lat="50.974199999999996" lon="33.001">
    <tag k="place" v="legend_text"/>
    <tag k="name" v="Telephone box containing:"/>
  </node>
  <node id="12824000002" changeset="101472" timestamp="2017-04-30T13:03:17Z" version="1" visible="true" user="SomeoneElse" uid="112" lat="50.974" lon="33.002">
    <tag k="booth" v="K6"/>
    <tag k="emergency" v="defibrillator"/>
    <tag k="name" v="Defibrillator"/>
  </node>
  <node id="12824000003" changeset="101472" timestamp="2017-04-30T13:03:17Z" version="1" visible="true" user="SomeoneElse" uid="112" lat="50.974" lon="33.003">
    <tag k="booth" v="K6"/>
    <tag k="amenity" v="library"/>
    <tag k="name" v="Library"/>
  </node>
  <node id="12824000004" changeset="101472" timestamp="2017-04-30T13:03:17Z" version="1" visible="true" user="SomeoneElse" uid="112" lat="50.974" lon="33.004">
    <tag k="booth" v="K6"/>
    <tag k="amenity" v="bicycle_repair_station"/>
    <tag k="name" v="Bike Repair"/>
  </node>
  <node id="12824000005" changeset="101472" timestamp="2017-04-30T13:03:17Z" version="1" visible="true" user="SomeoneElse" uid="112" lat="50.974" lon="33.005">
    <tag k="booth" v="K6"/>
    <tag k="amenity" v="atm"/>
    <tag k="name" v="ATM"/>
  </node>
  <node id="12824000006" changeset="101472" timestamp="2017-04-30T13:03:17Z" version="1" visible="true" user="SomeoneElse" uid="112" lat="50.974" lon="33.006">
    <tag k="booth" v="K6"/>
    <tag k="tourism" v="information"/>
    <tag k="name" v="Tourist Info"/>
  </node>
  <node id="12824000007" changeset="101472" timestamp="2017-04-30T13:03:17Z" version="1" visible="true" user="SomeoneElse" uid="112" lat="50.974" lon="33.007">
    <tag k="booth" v="K6"/>
    <tag k="tourism" v="artwork"/>
    <tag k="name" v="Artwork"/>
  </node>
  <node id="12824000008" changeset="101472" timestamp="2017-04-30T13:03:17Z" version="1" visible="true" user="SomeoneElse" uid="112" lat="50.974" lon="33.008">
    <tag k="booth" v="K6"/>
    <tag k="disused:amenity" v="telephone"/>
    <tag k="name" v="Disused"/>
  </node>
  <node id="12834000001" changeset="101472" timestamp="2017-04-30T13:03:17Z" version="1" visible="true" user="SomeoneElse" uid="112" lat="50.973" lon="33.001">
    <tag k="amenity" v="parking"/>
    <tag k="name" v="Name"/>
  </node>
  <node id="12835000001" changeset="101472" timestamp="2017-04-30T13:03:17Z" version="1" visible="true" user="SomeoneElse" uid="112" lat="50.9732" lon="33.001">
    <tag k="place" v="legend_text"/>
    <tag k="name" v="Car Park"/>
  </node>
  <node id="12834000002" changeset="101472" timestamp="2017-04-30T13:03:17Z" version="1" visible="true" user="SomeoneElse" uid="112" lat="50.973" lon="33.002">
    <tag k="amenity" v="parking"/>
    <tag k="fee" v="yes"/>
    <tag k="name" v="Name"/>
  </node>
  <node id="12835000002" changeset="101472" timestamp="2017-04-30T13:03:17Z" version="1" visible="true" user="SomeoneElse" uid="112" lat="50.9732" lon="33.002">
    <tag k="place" v="legend_text"/>
    <tag k="name" v="(pay)"/>
  </node>
  <node id="12834000003" changeset="101472" timestamp="2017-04-30T13:03:17Z" version="1" visible="true" user="SomeoneElse" uid="112" lat="50.973" lon="33.003">
    <tag k="amenity" v="parking"/>
    <tag k="access" v="private"/>
    <tag k="name" v="Name"/>
  </node>
  <node id="12835000003" changeset="101472" timestamp="2017-04-30T13:03:17Z" version="1" visible="true" user="SomeoneElse" uid="112" lat="50.9732" lon="33.003">
    <tag k="place" v="legend_text"/>
    <tag k="name" v="(private)"/>
  </node>
  <node id="12834000004" changeset="101472" timestamp="2017-04-30T13:03:17Z" version="1" visible="true" user="SomeoneElse" uid="112" lat="50.973" lon="33.004">
    <tag k="amenity" v="parking_space"/>
    <tag k="parking_space" v="disabled"/>
    <tag k="fee" v="no"/>
    <tag k="name" v="Name"/>
  </node>
  <node id="12835000004" changeset="101472" timestamp="2017-04-30T13:03:17Z" version="1" visible="true" user="SomeoneElse" uid="112" lat="50.9732" lon="33.004">
    <tag k="place" v="legend_text"/>
    <tag k="name" v="(disabled)"/>
  </node>
  <node id="12834000005" changeset="101472" timestamp="2017-04-30T13:03:17Z" version="1" visible="true" user="SomeoneElse" uid="112" lat="50.973" lon="33.005">
    <tag k="amenity" v="parking_space"/>
    <tag k="parking_space" v="disabled"/>
    <tag k="fee" v="yes"/>
    <tag k="name" v="Name"/>
  </node>
  <node id="12835000005" changeset="101472" timestamp="2017-04-30T13:03:17Z" version="1" visible="true" user="SomeoneElse" uid="112" lat="50.9732" lon="33.005">
    <tag k="place" v="legend_text"/>
    <tag k="name" v="(pay disabled)"/>
  </node>
  <node id="12834000006" changeset="101472" timestamp="2017-04-30T13:03:17Z" version="1" visible="true" user="SomeoneElse" uid="112" lat="50.973" lon="33.006">
    <tag k="amenity" v="car_sharing"/>
    <tag k="name" v="Name"/>
  </node>
  <node id="12835000006" changeset="101472" timestamp="2017-04-30T13:03:17Z" version="1" visible="true" user="SomeoneElse" uid="112" lat="50.9732" lon="33.006">
    <tag k="place" v="legend_text"/>
    <tag k="name" v="Car Sharing"/>
  </node>
  <node id="12834000007" changeset="101472" timestamp="2017-04-30T13:03:17Z" version="1" visible="true" user="SomeoneElse" uid="112" lat="50.973" lon="33.007">
    <tag k="amenity" v="car_rental"/>
    <tag k="name" v="Name"/>
  </node>
  <node id="12835000007" changeset="101472" timestamp="2017-04-30T13:03:17Z" version="1" visible="true" user="SomeoneElse" uid="112" lat="50.9732" lon="33.007">
    <tag k="place" v="legend_text"/>
    <tag k="name" v="Car Rental"/>
  </node>
  <node id="12834000008" changeset="101472" timestamp="2017-04-30T13:03:17Z" version="1" visible="true" user="SomeoneElse" uid="112" lat="50.973" lon="33.008">
    <tag k="railway" v="station"/>
    <tag k="name" v="Name"/>
  </node>
  <node id="12835000008" changeset="101472" timestamp="2017-04-30T13:03:17Z" version="1" visible="true" user="SomeoneElse" uid="112" lat="50.9732" lon="33.008">
    <tag k="place" v="legend_text"/>
    <tag k="name" v="Rail Station"/>
  </node>
  <node id="12834000009" changeset="101472" timestamp="2017-04-30T13:03:17Z" version="1" visible="true" user="SomeoneElse" uid="112" lat="50.973" lon="33.009">
    <tag k="railway" v="halt"/>
    <tag k="name" v="Name"/>
  </node>
  <node id="12835000009" changeset="101472" timestamp="2017-04-30T13:03:17Z" version="1" visible="true" user="SomeoneElse" uid="112" lat="50.9732" lon="33.009">
    <tag k="place" v="legend_text"/>
    <tag k="name" v="Rail Halt"/>
  </node>
  <node id="12834000010" changeset="101472" timestamp="2017-04-30T13:03:17Z" version="1" visible="true" user="SomeoneElse" uid="112" lat="50.973" lon="33.01">
    <tag k="railway" v="station"/>
    <tag k="usage" v="tourism"/>
    <tag k="name" v="Name"/>
  </node>
  <node id="12835000010" changeset="101472" timestamp="2017-04-30T13:03:17Z" version="1" visible="true" user="SomeoneElse" uid="112" lat="50.9732" lon="33.01">
    <tag k="place" v="legend_text"/>
    <tag k="name" v="Preserved"/>
  </node>
  <node id="12834000011" changeset="101472" timestamp="2017-04-30T13:03:17Z" version="1" visible="true" user="SomeoneElse" uid="112" lat="50.973" lon="33.011">
    <tag k="amenity" v="bus_station"/>
    <tag k="name" v="Name"/>
    <tag k="website" v="Website"/>
  </node>
  <node id="12835000011" changeset="101472" timestamp="2017-04-30T13:03:17Z" version="1" visible="true" user="SomeoneElse" uid="112" lat="50.9732" lon="33.011">
    <tag k="place" v="legend_text"/>
    <tag k="name" v="Bus Station"/>
  </node>
  <node id="12834000012" changeset="101472" timestamp="2017-04-30T13:03:17Z" version="1" visible="true" user="SomeoneElse" uid="112" lat="50.973" lon="33.012">
    <tag k="highway" v="bus_stop"/>
    <tag k="name" v="Name"/>
    <tag k="website" v="Website"/>
  </node>
  <node id="12835000012" changeset="101472" timestamp="2017-04-30T13:03:17Z" version="1" visible="true" user="SomeoneElse" uid="112" lat="50.9732" lon="33.012">
    <tag k="place" v="legend_text"/>
    <tag k="name" v="Bus Stop"/>
  </node>
  <node id="12834000013" changeset="101472" timestamp="2017-04-30T13:03:17Z" version="1" visible="true" user="SomeoneElse" uid="112" lat="50.973" lon="33.013">
    <tag k="highway" v="bus_stop"/>
    <tag k="name" v="Name"/>
    <tag k="website" v="Website"/>
    <tag k="departures_board" v="timetable"/>
  </node>
  <node id="12835000013" changeset="101472" timestamp="2017-04-30T13:03:17Z" version="1" visible="true" user="SomeoneElse" uid="112" lat="50.9732" lon="33.013">
    <tag k="place" v="legend_text"/>
    <tag k="name" v="(with timetable)"/>
  </node>
  <node id="12834000014" changeset="101472" timestamp="2017-04-30T13:03:17Z" version="1" visible="true" user="SomeoneElse" uid="112" lat="50.973" lon="33.014">
    <tag k="highway" v="bus_stop"/>
    <tag k="name" v="Name"/>
    <tag k="website" v="Website"/>
    <tag k="departures_board" v="timetable"/>
    <tag k="departures_board:speech_output" v="yes"/>
  </node>
  <node id="12835000014" changeset="101472" timestamp="2017-04-30T13:03:17Z" version="1" visible="true" user="SomeoneElse" uid="112" lat="50.9732" lon="33.014">
    <tag k="place" v="legend_text"/>
    <tag k="name" v="(+speech)"/>
  </node>
  <node id="12834000015" changeset="101472" timestamp="2017-04-30T13:03:17Z" version="1" visible="true" user="SomeoneElse" uid="112" lat="50.973" lon="33.015">
    <tag k="highway" v="bus_stop"/>
    <tag k="name" v="Name"/>
    <tag k="website" v="Website"/>
    <tag k="departures_board" v="realtime"/>
  </node>
  <node id="12835000015" changeset="101472" timestamp="2017-04-30T13:03:17Z" version="1" visible="true" user="SomeoneElse" uid="112" lat="50.9732" lon="33.015">
    <tag k="place" v="legend_text"/>
    <tag k="name" v="(realtime)"/>
  </node>
  <node id="12834000016" changeset="101472" timestamp="2017-04-30T13:03:17Z" version="1" visible="true" user="SomeoneElse" uid="112" lat="50.973" lon="33.016">
    <tag k="highway" v="bus_stop"/>
    <tag k="name" v="Name"/>
    <tag k="website" v="Website"/>
    <tag k="departures_board" v="realtime"/>
    <tag k="departures_board:speech_output" v="yes"/>
  </node>
  <node id="12835000016" changeset="101472" timestamp="2017-04-30T13:03:17Z" version="1" visible="true" user="SomeoneElse" uid="112" lat="50.9732" lon="33.016">
    <tag k="place" v="legend_text"/>
    <tag k="name" v="(+speech)"/>
  </node>
  <node id="12834000017" changeset="101472" timestamp="2017-04-30T13:03:17Z" version="1" visible="true" user="SomeoneElse" uid="112" lat="50.973" lon="33.017">
    <tag k="highway" v="bus_stop"/>
    <tag k="name" v="Name"/>
    <tag k="website" v="Website"/>
    <tag k="physically_present" v="no"/>
  </node>
  <node id="12835000017" changeset="101472" timestamp="2017-04-30T13:03:17Z" version="1" visible="true" user="SomeoneElse" uid="112" lat="50.9732" lon="33.017">
    <tag k="place" v="legend_text"/>
    <tag k="name" v="(no pole)"/>
  </node>
  <node id="12834000018" changeset="101472" timestamp="2017-04-30T13:03:17Z" version="1" visible="true" user="SomeoneElse" uid="112" lat="50.973" lon="33.018">
    <tag k="disused:highway" v="bus_stop"/>
    <tag k="name" v="Name"/>
    <tag k="website" v="Website"/>
    <tag k="physically_present" v="yes"/>
  </node>
  <node id="12835000018" changeset="101472" timestamp="2017-04-30T13:03:17Z" version="1" visible="true" user="SomeoneElse" uid="112" lat="50.9732" lon="33.018">
    <tag k="place" v="legend_text"/>
    <tag k="name" v="(disused with pole)"/>
  </node>
  <node id="12834000019" changeset="101472" timestamp="2017-04-30T13:03:17Z" version="1" visible="true" user="SomeoneElse" uid="112" lat="50.973" lon="33.019">
    <tag k="departures_board" v="realtime"/>
    <tag k="name" v="Name"/>
    <tag k="website" v="Website"/>
  </node>
  <node id="12835000019" changeset="101472" timestamp="2017-04-30T13:03:17Z" version="1" visible="true" user="SomeoneElse" uid="112" lat="50.9732" lon="33.019">
    <tag k="place" v="legend_text"/>
    <tag k="name" v="Standalone departures board"/>
  </node>
  <node id="12834000020" changeset="101472" timestamp="2017-04-30T13:03:17Z" version="1" visible="true" user="SomeoneElse" uid="112" lat="50.973" lon="33.02">
    <tag k="amenity" v="taxi"/>
    <tag k="name" v="Name"/>
  </node>
  <node id="12835000020" changeset="101472" timestamp="2017-04-30T13:03:17Z" version="1" visible="true" user="SomeoneElse" uid="112" lat="50.9732" lon="33.02">
    <tag k="place" v="legend_text"/>
    <tag k="name" v="Taxi Stand"/>
  </node>
  <node id="12834000021" changeset="101472" timestamp="2017-04-30T13:03:17Z" version="1" visible="true" user="SomeoneElse" uid="112" lat="50.973" lon="33.021">
    <tag k="amenity" v="taxi_office"/>
    <tag k="name" v="Name"/>
  </node>
  <node id="12835000021" changeset="101472" timestamp="2017-04-30T13:03:17Z" version="1" visible="true" user="SomeoneElse" uid="112" lat="50.9732" lon="33.021">
    <tag k="place" v="legend_text"/>
    <tag k="name" v="Taxi Office"/>
  </node>
  <node id="12834000022" changeset="101472" timestamp="2017-04-30T13:03:17Z" version="1" visible="true" user="SomeoneElse" uid="112" lat="50.973" lon="33.022">
    <tag k="amenity" v="ferry_terminal"/>
    <tag k="name" v="Name"/>
  </node>
  <node id="12835000022" changeset="101472" timestamp="2017-04-30T13:03:17Z" version="1" visible="true" user="SomeoneElse" uid="112" lat="50.9732" lon="33.022">
    <tag k="place" v="legend_text"/>
    <tag k="name" v="Ferry Terminal"/>
  </node>
  <node id="12834000023" changeset="101472" timestamp="2017-04-30T13:03:17Z" version="1" visible="true" user="SomeoneElse" uid="112" lat="50.973" lon="33.023">
    <tag k="amenity" v="bicycle_parking"/>
    <tag k="name" v="Name"/>
  </node>
  <node id="12835000023" changeset="101472" timestamp="2017-04-30T13:03:17Z" version="1" visible="true" user="SomeoneElse" uid="112" lat="50.9732" lon="33.023">
    <tag k="place" v="legend_text"/>
    <tag k="name" v="Bike Parking"/>
  </node>
  <node id="12834000024" changeset="101472" timestamp="2017-04-30T13:03:17Z" version="1" visible="true" user="SomeoneElse" uid="112" lat="50.973" lon="33.024">
    <tag k="amenity" v="bicycle_parking"/>
    <tag k="fee" v="yes"/>
    <tag k="name" v="Name"/>
  </node>
  <node id="12835000024" changeset="101472" timestamp="2017-04-30T13:03:17Z" version="1" visible="true" user="SomeoneElse" uid="112" lat="50.9732" lon="33.024">
    <tag k="place" v="legend_text"/>
    <tag k="name" v="Pay Bike Parking"/>
  </node>
  <node id="12834000025" changeset="101472" timestamp="2017-04-30T13:03:17Z" version="1" visible="true" user="SomeoneElse" uid="112" lat="50.973" lon="33.025">
    <tag k="amenity" v="bicycle_rental"/>
    <tag k="name" v="Name"/>
  </node>
  <node id="12835000025" changeset="101472" timestamp="2017-04-30T13:03:17Z" version="1" visible="true" user="SomeoneElse" uid="112" lat="50.9732" lon="33.025">
    <tag k="place" v="legend_text"/>
    <tag k="name" v="Bike Rental"/>
  </node>
  <node id="12834000026" changeset="101472" timestamp="2017-04-30T13:03:17Z" version="1" visible="true" user="SomeoneElse" uid="112" lat="50.973" lon="33.026">
    <tag k="amenity" v="bicycle_repair_station"/>
    <tag k="name" v="Name"/>
  </node>
  <node id="12835000026" changeset="101472" timestamp="2017-04-30T13:03:17Z" version="1" visible="true" user="SomeoneElse" uid="112" lat="50.9732" lon="33.026">
    <tag k="place" v="legend_text"/>
    <tag k="name" v="Bike Repair Station"/>
  </node>
  <node id="12834000027" changeset="101472" timestamp="2017-04-30T13:03:17Z" version="1" visible="true" user="SomeoneElse" uid="112" lat="50.973" lon="33.027">
    <tag k="amenity" v="scooter_rental"/>
    <tag k="name" v="Name"/>
  </node>
  <node id="12835000027" changeset="101472" timestamp="2017-04-30T13:03:17Z" version="1" visible="true" user="SomeoneElse" uid="112" lat="50.9732" lon="33.027">
    <tag k="place" v="legend_text"/>
    <tag k="name" v="Scooter Rental"/>
  </node>
  <node id="12834000028" changeset="101472" timestamp="2017-04-30T13:03:17Z" version="1" visible="true" user="SomeoneElse" uid="112" lat="50.973" lon="33.028">
    <tag k="aeroway" v="aerodrome"/>
    <tag k="iata" v="IATA"/>
    <tag k="name" v="Name"/>
  </node>
  <node id="12835000028" changeset="101472" timestamp="2017-04-30T13:03:17Z" version="1" visible="true" user="SomeoneElse" uid="112" lat="50.9732" lon="33.028">
    <tag k="place" v="legend_text"/>
    <tag k="name" v="Airport"/>
  </node>
  <node id="12834000029" changeset="101472" timestamp="2017-04-30T13:03:17Z" version="1" visible="true" user="SomeoneElse" uid="112" lat="50.973" lon="33.029">
    <tag k="aeroway" v="heliport"/>
    <tag k="name" v="Name"/>
  </node>
  <node id="12835000029" changeset="101472" timestamp="2017-04-30T13:03:17Z" version="1" visible="true" user="SomeoneElse" uid="112" lat="50.9732" lon="33.029">
    <tag k="place" v="legend_text"/>
    <tag k="name" v="Heliport"/>
  </node>
  <node id="12834000030" changeset="101472" timestamp="2017-04-30T13:03:17Z" version="1" visible="true" user="SomeoneElse" uid="112" lat="50.973" lon="33.03">
    <tag k="aeroway" v="helipad"/>
    <tag k="name" v="Name"/>
  </node>
  <node id="12835000030" changeset="101472" timestamp="2017-04-30T13:03:17Z" version="1" visible="true" user="SomeoneElse" uid="112" lat="50.9732" lon="33.03">
    <tag k="place" v="legend_text"/>
    <tag k="name" v="Helipad"/>
  </node>
  <node id="12834000031" changeset="101472" timestamp="2017-04-30T13:03:17Z" version="1" visible="true" user="SomeoneElse" uid="112" lat="50.973" lon="33.031">
    <tag k="aeroway" v="gate"/>
    <tag k="ref" v="Ref"/>
  </node>
  <node id="12835000031" changeset="101472" timestamp="2017-04-30T13:03:17Z" version="1" visible="true" user="SomeoneElse" uid="112" lat="50.9732" lon="33.031">
    <tag k="place" v="legend_text"/>
    <tag k="name" v="Gate"/>
  </node>
  <node id="12844000001" changeset="101472" timestamp="2017-04-30T13:03:17Z" version="1" visible="true" user="SomeoneElse" uid="112" lat="50.972" lon="33.001">
    <tag k="highway" v="traffic_signals"/>
    <tag k="name" v="Name"/>
  </node>
  <node id="12845000001" changeset="101472" timestamp="2017-04-30T13:03:17Z" version="1" visible="true" user="SomeoneElse" uid="112" lat="50.9722" lon="33.001">
    <tag k="place" v="legend_text"/>
    <tag k="name" v="Traf. Lights"/>
  </node>
  <node id="12844000002" changeset="101472" timestamp="2017-04-30T13:03:17Z" version="1" visible="true" user="SomeoneElse" uid="112" lat="50.972" lon="33.002">
    <tag k="highway" v="crossing"/>
    <tag k="name" v="Name"/>
  </node>
  <node id="12845000002" changeset="101472" timestamp="2017-04-30T13:03:17Z" version="1" visible="true" user="SomeoneElse" uid="112" lat="50.9722" lon="33.002">
    <tag k="place" v="legend_text"/>
    <tag k="name" v="Crossing"/>
  </node>
  <node id="12844000003" changeset="101472" timestamp="2017-04-30T13:03:17Z" version="1" visible="true" user="SomeoneElse" uid="112" lat="50.972" lon="33.003">
    <tag k="highway" v="milestone"/>
    <tag k="name" v="Name"/>
  </node>
  <node id="12845000003" changeset="101472" timestamp="2017-04-30T13:03:17Z" version="1" visible="true" user="SomeoneElse" uid="112" lat="50.9722" lon="33.003">
    <tag k="place" v="legend_text"/>
    <tag k="name" v="Milestone"/>
  </node>
  <node id="12844000004" changeset="101472" timestamp="2017-04-30T13:03:17Z" version="1" visible="true" user="SomeoneElse" uid="112" lat="50.972" lon="33.004">
    <tag k="highway" v="mini_roundabout"/>
    <tag k="name" v="Name"/>
  </node>
  <node id="12845000004" changeset="101472" timestamp="2017-04-30T13:03:17Z" version="1" visible="true" user="SomeoneElse" uid="112" lat="50.9722" lon="33.004">
    <tag k="place" v="legend_text"/>
    <tag k="name" v="Mini Rndbt"/>
  </node>
  <node id="12844000005" changeset="101472" timestamp="2017-04-30T13:03:17Z" version="1" visible="true" user="SomeoneElse" uid="112" lat="50.972" lon="33.005">
    <tag k="highway" v="street_lamp"/>
    <tag k="name" v="Name"/>
  </node>
  <node id="12845000005" changeset="101472" timestamp="2017-04-30T13:03:17Z" version="1" visible="true" user="SomeoneElse" uid="112" lat="50.9722" lon="33.005">
    <tag k="place" v="legend_text"/>
    <tag k="name" v="Streetlamp"/>
  </node>
  <node id="12844000006" changeset="101472" timestamp="2017-04-30T13:03:17Z" version="1" visible="true" user="SomeoneElse" uid="112" lat="50.972" lon="33.006">
    <tag k="highway" v="street_lamp"/>
    <tag k="lamp_type" v="gaslight"/>
    <tag k="name" v="Name"/>
  </node>
  <node id="12845000006" changeset="101472" timestamp="2017-04-30T13:03:17Z" version="1" visible="true" user="SomeoneElse" uid="112" lat="50.9722" lon="33.006">
    <tag k="place" v="legend_text"/>
    <tag k="name" v="Gaslight"/>
  </node>
  <node id="12844000007" changeset="101472" timestamp="2017-04-30T13:03:17Z" version="1" visible="true" user="SomeoneElse" uid="112" lat="50.972" lon="33.007">
    <tag k="emergency" v="phone"/>
    <tag k="name" v="Name"/>
  </node>
  <node id="12845000007" changeset="101472" timestamp="2017-04-30T13:03:17Z" version="1" visible="true" user="SomeoneElse" uid="112" lat="50.9722" lon="33.007">
    <tag k="place" v="legend_text"/>
    <tag k="name" v="Phone"/>
  </node>
  <node id="12854000001" changeset="101472" timestamp="2017-04-30T13:03:17Z" version="1" visible="true" user="SomeoneElse" uid="112" lat="50.971" lon="33.001">
    <tag k="man_made" v="mast"/>
    <tag k="name" v="Name"/>
  </node>
  <node id="12855000001" changeset="101472" timestamp="2017-04-30T13:03:17Z" version="1" visible="true" user="SomeoneElse" uid="112" lat="50.971199999999996" lon="33.001">
    <tag k="place" v="legend_text"/>
    <tag k="name" v="Mast"/>
  </node>
  <node id="12854000002" changeset="101472" timestamp="2017-04-30T13:03:17Z" version="1" visible="true" user="SomeoneElse" uid="112" lat="50.971" lon="33.002">
    <tag k="man_made" v="chimney"/>
    <tag k="name" v="Name"/>
  </node>
  <node id="12855000002" changeset="101472" timestamp="2017-04-30T13:03:17Z" version="1" visible="true" user="SomeoneElse" uid="112" lat="50.971199999999996" lon="33.002">
    <tag k="place" v="legend_text"/>
    <tag k="name" v="Chimney"/>
  </node>
  <node id="12854000003" changeset="101472" timestamp="2017-04-30T13:03:17Z" version="1" visible="true" user="SomeoneElse" uid="112" lat="50.971" lon="33.003">
    <tag k="man_made" v="tower"/>
    <tag k="tower:type" v="clock"/>
    <tag k="name" v="Name"/>
  </node>
  <node id="12855000003" changeset="101472" timestamp="2017-04-30T13:03:17Z" version="1" visible="true" user="SomeoneElse" uid="112" lat="50.971199999999996" lon="33.003">
    <tag k="place" v="legend_text"/>
    <tag k="name" v="Clock Tower"/>
  </node>
  <node id="12854000004" changeset="101472" timestamp="2017-04-30T13:03:17Z" version="1" visible="true" user="SomeoneElse" uid="112" lat="50.971" lon="33.004">
    <tag k="amenity" v="clock"/>
    <tag k="support" v="pedestal"/>
    <tag k="name" v="Name"/>
  </node>
  <node id="12855000004" changeset="101472" timestamp="2017-04-30T13:03:17Z" version="1" visible="true" user="SomeoneElse" uid="112" lat="50.971199999999996" lon="33.004">
    <tag k="place" v="legend_text"/>
    <tag k="name" v="Pedestal Clock"/>
  </node>
  <node id="12854000005" changeset="101472" timestamp="2017-04-30T13:03:17Z" version="1" visible="true" user="SomeoneElse" uid="112" lat="50.971" lon="33.005">
    <tag k="man_made" v="tower"/>
    <tag k="tower:type" v="lighting"/>
    <tag k="name" v="Name"/>
  </node>
  <node id="12855000005" changeset="101472" timestamp="2017-04-30T13:03:17Z" version="1" visible="true" user="SomeoneElse" uid="112" lat="50.971199999999996" lon="33.005">
    <tag k="place" v="legend_text"/>
    <tag k="name" v="Illumination"/>
  </node>
  <node id="12854000006" changeset="101472" timestamp="2017-04-30T13:03:17Z" version="1" visible="true" user="SomeoneElse" uid="112" lat="50.971" lon="33.006">
    <tag k="man_made" v="tower"/>
    <tag k="tower:type" v="defensive"/>
    <tag k="name" v="Name"/>
  </node>
  <node id="12855000006" changeset="101472" timestamp="2017-04-30T13:03:17Z" version="1" visible="true" user="SomeoneElse" uid="112" lat="50.971199999999996" lon="33.006">
    <tag k="place" v="legend_text"/>
    <tag k="name" v="Defensive"/>
  </node>
  <node id="12854000007" changeset="101472" timestamp="2017-04-30T13:03:17Z" version="1" visible="true" user="SomeoneElse" uid="112" lat="50.971" lon="33.007">
    <tag k="man_made" v="tower"/>
    <tag k="tower:type" v="observation"/>
    <tag k="name" v="Name"/>
  </node>
  <node id="12855000007" changeset="101472" timestamp="2017-04-30T13:03:17Z" version="1" visible="true" user="SomeoneElse" uid="112" lat="50.971199999999996" lon="33.007">
    <tag k="place" v="legend_text"/>
    <tag k="name" v="Observation"/>
  </node>
  <node id="12854000008" changeset="101472" timestamp="2017-04-30T13:03:17Z" version="1" visible="true" user="SomeoneElse" uid="112" lat="50.971" lon="33.008">
    <tag k="man_made" v="tower"/>
    <tag k="tower:type" v="aircraft_control"/>
    <tag k="name" v="Name"/>
  </node>
  <node id="12855000008" changeset="101472" timestamp="2017-04-30T13:03:17Z" version="1" visible="true" user="SomeoneElse" uid="112" lat="50.971199999999996" lon="33.008">
    <tag k="place" v="legend_text"/>
    <tag k="name" v="Aircraft Control"/>
  </node>
  <node id="12854000009" changeset="101472" timestamp="2017-04-30T13:03:17Z" version="1" visible="true" user="SomeoneElse" uid="112" lat="50.971" lon="33.009">
    <tag k="man_made" v="tower"/>
    <tag k="tower:type" v="radar"/>
    <tag k="name" v="Name"/>
  </node>
  <node id="12855000009" changeset="101472" timestamp="2017-04-30T13:03:17Z" version="1" visible="true" user="SomeoneElse" uid="112" lat="50.971199999999996" lon="33.009">
    <tag k="place" v="legend_text"/>
    <tag k="name" v="Radar"/>
  </node>
  <node id="12854000010" changeset="101472" timestamp="2017-04-30T13:03:17Z" version="1" visible="true" user="SomeoneElse" uid="112" lat="50.971" lon="33.01">
    <tag k="man_made" v="tower"/>
    <tag k="tower:type" v="firefighter_training"/>
    <tag k="name" v="Name"/>
  </node>
  <node id="12855000010" changeset="101472" timestamp="2017-04-30T13:03:17Z" version="1" visible="true" user="SomeoneElse" uid="112" lat="50.971199999999996" lon="33.01">
    <tag k="place" v="legend_text"/>
    <tag k="name" v="Firefighter"/>
  </node>
  <node id="12854000011" changeset="101472" timestamp="2017-04-30T13:03:17Z" version="1" visible="true" user="SomeoneElse" uid="112" lat="50.971" lon="33.011">
    <tag k="man_made" v="tower"/>
    <tag k="tower:type" v="church"/>
    <tag k="name" v="Name"/>
  </node>
  <node id="12855000011" changeset="101472" timestamp="2017-04-30T13:03:17Z" version="1" visible="true" user="SomeoneElse" uid="112" lat="50.971199999999996" lon="33.011">
    <tag k="place" v="legend_text"/>
    <tag k="name" v="Church Tower"/>
  </node>
  <node id="12854000012" changeset="101472" timestamp="2017-04-30T13:03:17Z" version="1" visible="true" user="SomeoneElse" uid="112" lat="50.971" lon="33.012">
    <tag k="man_made" v="tower"/>
    <tag k="tower:type" v="spire"/>
    <tag k="name" v="Name"/>
  </node>
  <node id="12855000012" changeset="101472" timestamp="2017-04-30T13:03:17Z" version="1" visible="true" user="SomeoneElse" uid="112" lat="50.971199999999996" lon="33.012">
    <tag k="place" v="legend_text"/>
    <tag k="name" v="Church Spire"/>
  </node>
  <node id="12854000013" changeset="101472" timestamp="2017-04-30T13:03:17Z" version="1" visible="true" user="SomeoneElse" uid="112" lat="50.971" lon="33.013">
    <tag k="man_made" v="maypole"/>
    <tag k="name" v="Name"/>
  </node>
  <node id="12855000013" changeset="101472" timestamp="2017-04-30T13:03:17Z" version="1" visible="true" user="SomeoneElse" uid="112" lat="50.971199999999996" lon="33.013">
    <tag k="place" v="legend_text"/>
    <tag k="name" v="Maypole"/>
  </node>
  <node id="12854000014" changeset="101472" timestamp="2017-04-30T13:03:17Z" version="1" visible="true" user="SomeoneElse" uid="112" lat="50.971" lon="33.014">
    <tag k="man_made" v="flagpole"/>
    <tag k="name" v="Name"/>
  </node>
  <node id="12855000014" changeset="101472" timestamp="2017-04-30T13:03:17Z" version="1" visible="true" user="SomeoneElse" uid="112" lat="50.971199999999996" lon="33.014">
    <tag k="place" v="legend_text"/>
    <tag k="name" v="Flagpole"/>
  </node>
  <node id="12854000015" changeset="101472" timestamp="2017-04-30T13:03:17Z" version="1" visible="true" user="SomeoneElse" uid="112" lat="50.971" lon="33.015">
    <tag k="man_made" v="flagpole_red"/>
    <tag k="name" v="Name"/>
  </node>
  <node id="12855000015" changeset="101472" timestamp="2017-04-30T13:03:17Z" version="1" visible="true" user="SomeoneElse" uid="112" lat="50.971199999999996" lon="33.015">
    <tag k="place" v="legend_text"/>
    <tag k="name" v="Military"/>
  </node>
  <node id="12854000016" changeset="101472" timestamp="2017-04-30T13:03:17Z" version="1" visible="true" user="SomeoneElse" uid="112" lat="50.971" lon="33.016">
    <tag k="man_made" v="windsock"/>
    <tag k="name" v="Name"/>
  </node>
  <node id="12855000016" changeset="101472" timestamp="2017-04-30T13:03:17Z" version="1" visible="true" user="SomeoneElse" uid="112" lat="50.971199999999996" lon="33.016">
    <tag k="place" v="legend_text"/>
    <tag k="name" v="Windsock"/>
  </node>
  <node id="12854000017" changeset="101472" timestamp="2017-04-30T13:03:17Z" version="1" visible="true" user="SomeoneElse" uid="112" lat="50.971" lon="33.017">
    <tag k="man_made" v="water_tower"/>
    <tag k="name" v="Name"/>
  </node>
  <node id="12855000017" changeset="101472" timestamp="2017-04-30T13:03:17Z" version="1" visible="true" user="SomeoneElse" uid="112" lat="50.971199999999996" lon="33.017">
    <tag k="place" v="legend_text"/>
    <tag k="name" v="Water Tower"/>
  </node>
  <node id="12854000018" changeset="101472" timestamp="2017-04-30T13:03:17Z" version="1" visible="true" user="SomeoneElse" uid="112" lat="50.971" lon="33.018">
    <tag k="man_made" v="lighthouse"/>
    <tag k="name" v="Name"/>
  </node>
  <node id="12855000018" changeset="101472" timestamp="2017-04-30T13:03:17Z" version="1" visible="true" user="SomeoneElse" uid="112" lat="50.971199999999996" lon="33.018">
    <tag k="place" v="legend_text"/>
    <tag k="name" v="Lighthouse"/>
  </node>
  <node id="12854000019" changeset="101472" timestamp="2017-04-30T13:03:17Z" version="1" visible="true" user="SomeoneElse" uid="112" lat="50.971" lon="33.019">
    <tag k="man_made" v="watermill"/>
    <tag k="name" v="Name"/>
  </node>
  <node id="12855000019" changeset="101472" timestamp="2017-04-30T13:03:17Z" version="1" visible="true" user="SomeoneElse" uid="112" lat="50.971199999999996" lon="33.019">
    <tag k="place" v="legend_text"/>
    <tag k="name" v="Watermill"/>
  </node>
  <node id="12854000020" changeset="101472" timestamp="2017-04-30T13:03:17Z" version="1" visible="true" user="SomeoneElse" uid="112" lat="50.971" lon="33.02">
    <tag k="man_made" v="power_wind"/>
    <tag k="name" v="Name"/>
  </node>
  <node id="12855000020" changeset="101472" timestamp="2017-04-30T13:03:17Z" version="1" visible="true" user="SomeoneElse" uid="112" lat="50.971199999999996" lon="33.02">
    <tag k="place" v="legend_text"/>
    <tag k="name" v="Wind Turbine"/>
  </node>
  <node id="12854000021" changeset="101472" timestamp="2017-04-30T13:03:17Z" version="1" visible="true" user="SomeoneElse" uid="112" lat="50.971" lon="33.021">
    <tag k="man_made" v="windmill"/>
    <tag k="name" v="Name"/>
  </node>
  <node id="12855000021" changeset="101472" timestamp="2017-04-30T13:03:17Z" version="1" visible="true" user="SomeoneElse" uid="112" lat="50.971199999999996" lon="33.021">
    <tag k="place" v="legend_text"/>
    <tag k="name" v="Windmill"/>
  </node>
  <node id="12854000022" changeset="101472" timestamp="2017-04-30T13:03:17Z" version="1" visible="true" user="SomeoneElse" uid="112" lat="50.971" lon="33.022">
    <tag k="man_made" v="ventilation_shaft"/>
    <tag k="name" v="Name"/>
  </node>
  <node id="12855000022" changeset="101472" timestamp="2017-04-30T13:03:17Z" version="1" visible="true" user="SomeoneElse" uid="112" lat="50.971199999999996" lon="33.022">
    <tag k="place" v="legend_text"/>
    <tag k="name" v="Vent Shaft"/>
  </node>
  <node id="12864000001" changeset="101472" timestamp="2017-04-30T13:03:17Z" version="1" visible="true" user="SomeoneElse" uid="112" lat="50.97" lon="33.001">
    <tag k="natural" v="peak"/>
    <tag k="name" v="Name / ele"/>
  </node>
  <node id="12865000001" changeset="101472" timestamp="2017-04-30T13:03:17Z" version="1" visible="true" user="SomeoneElse" uid="112" lat="50.9702" lon="33.001">
    <tag k="place" v="legend_text"/>
    <tag k="name" v="Peak"/>
  </node>
  <node id="12864000002" changeset="101472" timestamp="2017-04-30T13:03:17Z" version="1" visible="true" user="SomeoneElse" uid="112" lat="50.97" lon="33.002">
    <tag k="natural" v="hill"/>
    <tag k="name" v="Name / ele"/>
  </node>
  <node id="12865000002" changeset="101472" timestamp="2017-04-30T13:03:17Z" version="1" visible="true" user="SomeoneElse" uid="112" lat="50.9702" lon="33.002">
    <tag k="place" v="legend_text"/>
    <tag k="name" v="Hill"/>
  </node>
  <node id="12864000003" changeset="101472" timestamp="2017-04-30T13:03:17Z" version="1" visible="true" user="SomeoneElse" uid="112" lat="50.97" lon="33.003">
    <tag k="natural" v="volcano"/>
    <tag k="name" v="Name"/>
  </node>
  <node id="12865000003" changeset="101472" timestamp="2017-04-30T13:03:17Z" version="1" visible="true" user="SomeoneElse" uid="112" lat="50.9702" lon="33.003">
    <tag k="place" v="legend_text"/>
    <tag k="name" v="Volcano"/>
  </node>
  <node id="12864000004" changeset="101472" timestamp="2017-04-30T13:03:17Z" version="1" visible="true" user="SomeoneElse" uid="112" lat="50.97" lon="33.004">
    <tag k="natural" v="cave_entrance"/>
    <tag k="name" v="Name"/>
  </node>
  <node id="12865000004" changeset="101472" timestamp="2017-04-30T13:03:17Z" version="1" visible="true" user="SomeoneElse" uid="112" lat="50.9702" lon="33.004">
    <tag k="place" v="legend_text"/>
    <tag k="name" v="Cave"/>
  </node>
  <node id="12864000005" changeset="101472" timestamp="2017-04-30T13:03:17Z" version="1" visible="true" user="SomeoneElse" uid="112" lat="50.97" lon="33.005">
    <tag k="natural" v="sinkhole"/>
    <tag k="name" v="Name"/>
  </node>
  <node id="12865000005" changeset="101472" timestamp="2017-04-30T13:03:17Z" version="1" visible="true" user="SomeoneElse" uid="112" lat="50.9702" lon="33.005">
    <tag k="place" v="legend_text"/>
    <tag k="name" v="Sinkhole"/>
  </node>
  <node id="12864000006" changeset="101472" timestamp="2017-04-30T13:03:17Z" version="1" visible="true" user="SomeoneElse" uid="112" lat="50.97" lon="33.006">
    <tag k="man_made" v="mineshaft"/>
    <tag k="name" v="Name"/>
  </node>
  <node id="12865000006" changeset="101472" timestamp="2017-04-30T13:03:17Z" version="1" visible="true" user="SomeoneElse" uid="112" lat="50.9702" lon="33.006">
    <tag k="place" v="legend_text"/>
    <tag k="name" v="Mine"/>
  </node>
  <node id="12864000007" changeset="101472" timestamp="2017-04-30T13:03:17Z" version="1" visible="true" user="SomeoneElse" uid="112" lat="50.97" lon="33.007">
    <tag k="natural" v="rock"/>
    <tag k="name" v="Name"/>
  </node>
  <node id="12865000007" changeset="101472" timestamp="2017-04-30T13:03:17Z" version="1" visible="true" user="SomeoneElse" uid="112" lat="50.9702" lon="33.007">
    <tag k="place" v="legend_text"/>
    <tag k="name" v="Rock"/>
  </node>
  <node id="12864000008" changeset="101472" timestamp="2017-04-30T13:03:17Z" version="1" visible="true" user="SomeoneElse" uid="112" lat="50.97" lon="33.008">
    <tag k="natural" v="stone"/>
    <tag k="name" v="Name"/>
  </node>
  <node id="12865000008" changeset="101472" timestamp="2017-04-30T13:03:17Z" version="1" visible="true" user="SomeoneElse" uid="112" lat="50.9702" lon="33.008">
    <tag k="place" v="legend_text"/>
    <tag k="name" v="Stone"/>
  </node>
  <node id="12864000009" changeset="101472" timestamp="2017-04-30T13:03:17Z" version="1" visible="true" user="SomeoneElse" uid="112" lat="50.97" lon="33.009">
    <tag k="natural" v="spring"/>
    <tag k="name" v="Name"/>
  </node>
  <node id="12865000009" changeset="101472" timestamp="2017-04-30T13:03:17Z" version="1" visible="true" user="SomeoneElse" uid="112" lat="50.9702" lon="33.009">
    <tag k="place" v="legend_text"/>
    <tag k="name" v="Spring"/>
  </node>
  <node id="12864000010" changeset="101472" timestamp="2017-04-30T13:03:17Z" version="1" visible="true" user="SomeoneElse" uid="112" lat="50.97" lon="33.01">
    <tag k="natural" v="tree"/>
    <tag k="name" v="Name"/>
  </node>
  <node id="12865000010" changeset="101472" timestamp="2017-04-30T13:03:17Z" version="1" visible="true" user="SomeoneElse" uid="112" lat="50.9702" lon="33.01">
    <tag k="place" v="legend_text"/>
    <tag k="name" v="Tree"/>
  </node>
  <node id="12864000011" changeset="101472" timestamp="2017-04-30T13:03:17Z" version="1" visible="true" user="SomeoneElse" uid="112" lat="50.97" lon="33.011">
    <tag k="natural" v="shrub"/>
    <tag k="name" v="Name"/>
  </node>
  <node id="12865000011" changeset="101472" timestamp="2017-04-30T13:03:17Z" version="1" visible="true" user="SomeoneElse" uid="112" lat="50.9702" lon="33.011">
    <tag k="place" v="legend_text"/>
    <tag k="name" v="Shrub"/>
  </node>
</osm>
