<?xml version="1.0" encoding="UTF-8"?>
<osm version="0.6" generator="OpenStreetMap server" copyright="OpenStreetMap and contributors" attribution="http://www.openstreetmap.org/copyright" license="http://opendatacommons.org/licenses/odbl/1-0/">
  <bounds minlat="-24.98769" minlon="135.03282" maxlat="-24.98601" maxlon="135.03509"/>
  <node id="9110000001" changeset="101472" timestamp="2017-04-30T13:03:17Z" version="1" visible="true" user="SomeoneElse" uid="112" lat="-24.9850" lon="135.080">
    <tag k="amenity" v="pub"/>
    <tag k="name" v="Generic pub"/>
  </node>
  <node id="9110000002" changeset="101472" timestamp="2017-04-30T13:03:17Z" version="1" visible="true" user="SomeoneElse" uid="112" lat="-24.9850" lon="135.082">
    <tag k="amenity" v="pub"/>
    <tag k="name" v="Real Ale"/>
    <tag k="real_ale" v="An interesting selection"/>
  </node>
  <node id="9110000003" changeset="101472" timestamp="2017-04-30T13:03:17Z" version="1" visible="true" user="SomeoneElse" uid="112" lat="-24.9850" lon="135.084">
    <tag k="amenity" v="pub"/>
    <tag k="name" v="No real ale"/>
    <tag k="real_ale" v="no"/>
  </node>
  <node id="9110000004" changeset="101472" timestamp="2017-04-30T13:03:17Z" version="1" visible="true" user="SomeoneElse" uid="112" lat="-24.9850" lon="135.086">
    <tag k="amenity" v="pub"/>
    <tag k="name" v="Nice Food"/>
    <tag k="food" v="Some sort of description"/>
  </node>
  <node id="9110000005" changeset="101472" timestamp="2017-04-30T13:03:17Z" version="1" visible="true" user="SomeoneElse" uid="112" lat="-24.9850" lon="135.088">
    <tag k="amenity" v="pub"/>
    <tag k="name" v="Non-carpeted area"/>
    <tag k="description:floor" v="Tiles or stone"/>
  </node>
  <node id="9110000006" changeset="101472" timestamp="2017-04-30T13:03:17Z" version="1" visible="true" user="SomeoneElse" uid="112" lat="-24.9850" lon="135.090">
    <tag k="amenity" v="pub"/>
    <tag k="name" v="Combination"/>
    <tag k="real_ale" v="An interesting selection"/>
    <tag k="food" v="Some sort of description"/>
    <tag k="description:floor" v="Tiles or stone"/>
  </node>
  <node id="9110000007" changeset="101472" timestamp="2017-04-30T13:03:17Z" version="1" visible="true" user="SomeoneElse" uid="112" lat="-24.9850" lon="135.092">
  </node>
</osm>
